svc_name	sequence	stop_id	name_en	name_mm	road_en	road_mm	township_en	township_mm	lat	lng
33	1	1879	Kyauk Tan	ကျောက်တန်း	Thanlyin-Kyauktan Road	သန်လျှင်-ကျောက်တန်းလမ်း	Kyauktan	ကျောက်တန်း	16.63321394088777	96.32729527540506
33	2	1878	Zay Kwae	ဈေးကွေ့	Thanlyin-Kyauktan Road	သန်လျှင်-ကျောက်တန်းလမ်း	Kyauktan	ကျောက်တန်း	16.63582180712637	96.32650771178307
33	3	1876	Gat Tae Kwae	ဂါတ်တဲကွေ့	Thanlyin-Kyauktan Road	သန်လျှင်-ကျောက်တန်းလမ်း	Kyauktan	ကျောက်တန်း	16.638334531242144	96.32524437038228
33	4	1874	Pal Hlaw Pho	ပဲလှော်ဖို	Thanlyin-Kyauktan Road	သန်လျှင်-ကျောက်တန်းလမ်း	Kyauktan	ကျောက်တန်း	16.64071443214706	96.32379771675916
33	5	1872	Aung Chan Thar	အောင်ချမ်းသာ	Thanlyin-Kyauktan Road	သန်လျှင်-ကျောက်တန်းလမ်း	Kyauktan	ကျောက်တန်း	16.64446904485579	96.32354684639724
33	6	1870	Si Saing	ဆီဆိုင်	Thanlyin-Kyauktan Road	သန်လျှင်-ကျောက်တန်းလမ်း	Kyauktan	ကျောက်တန်း	16.64807481803696	96.32112443447113
33	7	1868	Chan Myae Thar Yar	ချမ်းမြေ့သာယာ	Thanlyin-Kyauktan Road	သန်လျှင်-ကျောက်တန်းလမ်း	Kyauktan	ကျောက်တန်း	16.64985907858424	96.31980644306168
33	8	1866	Pa Da Kyi	ပါဒကြီး	Thanlyin-Kyauktan Road	သန်လျှင်-ကျောက်တန်းလမ်း	Thanlyin	သန်လျင်	16.656501535708294	96.31844721268864
33	9	1864	Mway Paya	မြွေဘုရား	Thanlyin-Kyauktan Road	သန်လျှင်-ကျောက်တန်းလမ်း	Thanlyin	သန်လျင်	16.662735721464298	96.32113572908567
33	10	1862	Nyaung Wine	ညောင်ဝိုင်း	Thanlyin-Kyauktan Road	သန်လျှင်-ကျောက်တန်းလမ်း	Thanlyin	သန်လျင်	16.667552822000996	96.32146237185226
33	11	1860	Saik Pyoe Yay	စိုက်ပျိုးရေး	Thanlyin-Kyauktan Road	သန်လျှင်-ကျောက်တန်းလမ်း	Thanlyin	သန်လျင်	16.67336	96.320736
33	12	1858	Hta Ma Ni Koun Htate	ထမနီးကုန်းထိပ်	Thanlyin-Kyauktan Road	သန်လျှင်-ကျောက်တန်းလမ်း	Thanlyin	သန်လျင်	16.676290944859637	96.31950580514967
33	13	1856	Hta Ma Ni Phone Gyi Kyaung Shae	ထမနီးဘုန်းကြီးကျောင်းရှေ့	Thanlyin-Kyauktan Road	သန်လျှင်-ကျောက်တန်းလမ်း	Thanlyin	သန်လျင်	16.679233566404044	96.31739079952241
33	14	1854	Alal Ywar	အလယ်ရွာ	Thanlyin-Kyauktan Road	သန်လျှင်-ကျောက်တန်းလမ်း	Thanlyin	သန်လျင်	16.680632336559476	96.31565800867976
33	15	1852	Gate Haung	ဂိတ်ဟောင်း	Thanlyin-Kyauktan Road	သန်လျှင်-ကျောက်တန်းလမ်း	Thanlyin	သန်လျင်	16.681890245410656	96.31402485771106
33	16	1850	Gate Tit	ဂိတ် (၁)	Thanlyin-Kyauktan Road	သန်လျှင်-ကျောက်တန်းလမ်း	Thanlyin	သန်လျင်	16.683113721287373	96.31187360035256
33	17	1848	Aung Ta Pyay	အောင်သပြေ	Thanlyin-Kyauktan Road	သန်လျှင်-ကျောက်တန်းလမ်း	Thanlyin	သန်လျင်	16.685701096470222	96.30937933456153
33	18	2118	Nee Pyinyar Takke Tho (G.T.U)	နည်းပညာတက္ကသိုလ်(ဂျီတီယူ)	Thanlyin-Kyauktan Road	သန်လျှင်-ကျောက်တန်းလမ်း	Thanlyin	သန်လျင်	16.689966603091765	96.30743383197115
33	19	1846	Ko Tin Maung Chan Wa	ကိုတင်မောင်ခြံဝ	Thanlyin-Kyauktan Road	သန်လျှင်-ကျောက်တန်းလမ်း	Thanlyin	သန်လျင်	16.69593774696568	96.30585053237155
33	20	1844	Paya Lay	ဘုရားလေး	Thanlyin-Kyauktan Road	သန်လျှင်-ကျောက်တန်းလမ်း	Thanlyin	သန်လျင်	16.698724	96.304815
33	21	1842	Hta Ma Lon	ထားမလုံ	Thanlyin-Kyauktan Road	သန်လျှင်-ကျောက်တန်းလမ်း	Thanlyin	သန်လျင်	16.705506	96.297305
33	22	1840	Ngar Su	ငါးစု	Thanlyin-Kyauktan Road	သန်လျှင်-ကျောက်တန်းလမ်း	Thanlyin	သန်လျင်	16.7078077642116	96.2953667412512
33	23	1838	Saw Bwar	စော်ဘွား	Thanlyin-Kyauktan Road	သန်လျှင်-ကျောက်တန်းလမ်း	Thanlyin	သန်လျင်	16.711142605916432	96.29406381631271
33	24	1836	Nat Sin Koun	နတ်စင်ကုန်း	Thanlyin-Kyauktan Road	သန်လျှင်-ကျောက်တန်းလမ်း	Thanlyin	သန်လျင်	16.71348	96.292326
33	25	1834	Gate Wa	ဂိတ်ဝ	Thanlyin-Kyauktan Road	သန်လျှင်-ကျောက်တန်းလမ်း	Thanlyin	သန်လျင်	16.71611257817755	96.29061290295796
33	26	1832	Kyaik Inn	ကျိုက်အင်း	Thanlyin-Kyauktan Road	သန်လျှင်-ကျောက်တန်းလမ်း	Thanlyin	သန်လျင်	16.718722164172334	96.28919566981494
33	27	1830	San Set	ဆန်စက်	Thanlyin-Kyauktan Road	သန်လျှင်-ကျောက်တန်းလမ်း	Thanlyin	သန်လျင်	16.722754238486516	96.28501565661283
33	28	1828	Sit See Taw	စစ်စည်းတော	Thanlyin-Kyauktan Road	သန်လျှင်-ကျောက်တန်းလမ်း	Thanlyin	သန်လျင်	16.723936432703415	96.28343564691022
33	29	1826	Nat Sin Ta-Yar	နတ်စင်တစ်ရာ	Thanlyin-Kyauktan Road	သန်လျှင်-ကျောက်တန်းလမ်း	Thanlyin	သန်လျင်	16.726203047057044	96.2799837277271
33	30	1825	Paya Kone Lan Sone	ဘုရားကုန်းလမ်းဆုံ	Thanlyin-Kyauktan Road	သန်လျှင်-ကျောက်တန်းလမ်း	Thanlyin	သန်လျင်	16.728782051960934	96.2740002013743
33	31	1634	Paya Shae	ဘုရားရှေ့	Kyaik Khauk Pagoda Road	ကျိုက်ခေါက်ဘုရားလမ်း	Thanlyin	သန်လျင်	16.730064	96.272653
33	32	1632	Sae-Shit Kone	(၁၈) ကုန်း	Kyaik Khauk Pagoda Road	ကျိုက်ခေါက်ဘုရားလမ်း	Thanlyin	သန်လျင်	16.739455	96.268619
33	33	1630	Aung Chan Thar	အောင်ချမ်းသာ	Kyaik Khauk Pagoda Road	ကျိုက်ခေါက်ဘုရားလမ်း	Thanlyin	သန်လျင်	16.745619	96.265293
33	34	1812	Sal Myaung	ဆည်မြောင်း	Kyaik Khauk Pagoda Road	ကျိုက်ခေါက်ဘုရားလမ်း	Thanlyin	သန်လျင်	16.750962	96.261367
33	35	1643	Thama College	သမကောလိပ်	Thanlyin	သံလျင်	Thanlyin	သန်လျင်	16.75499102814598	96.2584948539734
33	36	1810	Kyar Paya	ကျားဘုရား	Kyaik Khauk Pagoda Road	ကျိုက်ခေါက်ဘုရားလမ်း	Thanlyin	သန်လျင်	16.757768	96.2566
33	37	1619	Mee Point	်မီးပွိုင့်	Kyaik Khauk Pagoda Road	ကျိုက်ခေါက်ဘုရားလမ်း	Thanlyin	သန်လျင်	16.77895653734981	96.24703176319599
33	38	508	Lat Hmat Gate	လက်မှတ်ဂိတ်	Kyaik Khauk Pagoda Road	ကျိုက်ခေါက်ဘုရားလမ်း	Thanlyin	သန်လျင်	16.778698	96.244222
33	39	549	Tadar Htate	တံတားထိပ်	Nawarat Pat Road	နဝရတ်ပတ်လမ်း	Thaketa	သာကေတ	16.801239084808206	96.22554207220674
33	40	546	Sauk Lote Yae	ဆောက်လုပ်ရေး	Thanlyin Tada Chint Road	သန်လျှင်တံတားချင့်လမ်း	Thaketa	သာကေတ	16.803144078473853	96.22349219396712
33	41	552	Tayar-Shit Taung	(၁၀၈) တောင်	Thalyin Thada Chin Kat Road	သန်လျှင်တံတားချင့်ကပ်လမ်း	Thaketa	သာကေတ	16.80646595619294	96.21927025029437
33	42	2159	Thaketa Awine	သာကေတအဝိုင်း	Ayar Wun Main Road	ဧရာဝဏ်လမ်းမကြီး	Thaketa	သာကေတ	16.806456548186517	96.21683321194723
33	43	530	Shit Gate	(၈) ဂိတ်	Ayar Wun Main Road	ဧရာဝဏ်လမ်းမကြီး	Thaketa	သာကေတ	16.804948553065124	96.21374232228845
33	44	526	Myayni	မြေနီ	Ayar Wun Main Road	ဧရာဝဏ်လမ်းမကြီး	Thaketa	သာကေတ	16.803656271446375	96.21009707450868
33	45	524	Kyaung Kwae/ Htuu Par Yone	ကျောင်းကွေ့/ထူပါရုံ	Ayar Wun Main Road	ဧရာဝဏ်လမ်းမကြီး	Thaketa	သာကေတ	16.803809991254493	96.20589055353776
33	46	398	Anawmar	အနော်မာ	Ayar Wun Main Road	ဧရာဝဏ်လမ်းမကြီး	Thaketa	သာကေတ	16.803925877813356	96.20191101450476
33	47	404	Kyauk Taing	ကျောက်တိုင်	Ayar Wun Main Road	ဧရာဝဏ်လမ်းမကြီး	Thaketa	သာကေတ	16.804257850186374	96.19623910635711
33	48	408	Myayni Lan	မြေနီလမ်း	Min Nandar Road	မင်းနန္ဒာလမ်း	Thaketa	သာကေတ	16.80246923659517	96.19655983988197
33	49	410	Tat Phwet	တပ်ဖွဲ့	Min Nandar Road	မင်းနန္ဒာလမ်း	Thaketa	သာကေတ	16.799613273416288	96.1967783770524
33	50	395	Tit Zay Kwae	(၁) ဈေးကွေ့	Min Nandar Road	မင်းနန္ဒာလမ်း	Thaketa	သာကေတ	16.796411660495362	96.19535839883612
33	51	467	Thadar Yon	သဒ္ဓါရုံ	Min Nandar Road	မင်းနန္ဒာလမ်း	Thaketa	သာကေတ	16.793654065915273	96.19393487926574
33	52	474	Wet Su	ဝက်စု	Min Nandar Road	မင်းနန္ဒာလမ်း	Thaketa	သာကေတ	16.789451747038292	96.19179095607251
33	53	476	Yan Aung	ရန်အောင်	Min Nandar Road	မင်းနန္ဒာလမ်း	Thaketa	သာကေတ	16.786142631820557	96.19004884036259
33	54	470	Thinbaw Kyin	သင်္ဘောကျင်း	Min Nandar Road	မင်းနန္ဒာလမ်း	Thaketa	သာကေတ	16.781991325670376	96.18769811466336
33	55	452	Warso	ဝါဆို	Yamonar Road	ယမုံနာလမ်း	Daw Bon	ဒေါပုံ	16.78264304840026	96.18374007521199
33	56	443	Mingalar Zay	မင်္ဂလာဈေး	Mill Road	စက်ရုံလမ်း	Mingalar Taung Nyunt	မင်္ဂလာတောင်ညွန့်	16.791772569051048	96.17468064185232
33	57	184	Mingalar Mon Zay	မင်္ဂလာမွန်ဈေး	Mill Road	စက်ရုံလမ်း	Mingalar Taung Nyunt	မင်္ဂလာတောင်ညွန့်	16.794101	96.172931
33	58	388	Thida	သီတာ	Banyardala Road	ဗညားဒလလမ်း	Mingalar Taung Nyunt	မင်္ဂလာတောင်ညွန့်	16.799380471876457	96.17574831492675
33	59	374	Aung Mingalar	အောင်မင်္ဂလာ	Banyardala Road	ဗညားဒလလမ်း	Mingalar Taung Nyunt	မင်္ဂလာတောင်ညွန့်	16.79630927025884	96.17657147347929
33	60	454	Yuzana Plaza/ Lan Kyal	ယုဇနပလာဇာ/လမ်းကျယ်	Banyardala Road	ဗညားဒလလမ်း	Mingalar Taung Nyunt	မင်္ဂလာတောင်ညွန့်	16.794481844001602	96.17555068340155
33	61	444	Mingalar Zay	မင်္ဂလာဈေး	Mill Road	စက်ရုံလမ်း	Mingalar Taung Nyunt	မင်္ဂလာတောင်ညွန့်	16.791853797107102	96.17441874928774
33	62	451	Warso	ဝါဆို	Yamonar Road	ယမုံနာလမ်း	Daw Bon	ဒေါပုံ	16.78255539648769	96.18273277999835
33	63	469	Thinbaw Kyin	သင်္ဘောကျင်း	Min Nandar Road	မင်းနန္ဒာလမ်း	Thaketa	သာကေတ	16.78190317189937	96.18801645934583
33	64	475	Yan Aung	ရန်အောင်	Min Nandar Road	မင်းနန္ဒာလမ်း	Thaketa	သာကေတ	16.785668248425793	96.18991768453272
33	65	473	Wet Su	ဝက်စု	Min Nandar Road	မင်းနန္ဒာလမ်း	Thaketa	သာကေတ	16.78953502236059	96.19193950435148
33	66	468	Thadar Yon	သဒ္ဓါရုံ	Min Nandar Road	မင်းနန္ဒာလမ်း	Thaketa	သာကေတ	16.793775034122927	96.19409279432148
33	67	396	Tit Zay Kwae	(၁) ဈေးကွေ့	Min Nandar Road	မင်းနန္ဒာလမ်း	Thaketa	သာကေတ	16.79648420025332	96.19548993185163
33	68	409	Tat Phwet	တပ်ဖွဲ့	Min Nandar Road	မင်းနန္ဒာလမ်း	Thaketa	သာကေတ	16.799601	96.196862
33	69	407	Myayni Lan	မြေနီလမ်း	Min Nandar Road	မင်းနန္ဒာလမ်း	Thaketa	သာကေတ	16.802389	96.19669
33	70	403	Kyauk Taing	ကျောက်တိုင်	Ayar Wun Main Road	ဧရာဝဏ်လမ်းမကြီး	Thaketa	သာကေတ	16.804242484265444	96.19614460039885
33	71	397	Anawmar	အနော်မာ	Ayar Wun Main Road	ဧရာဝဏ်လမ်းမကြီး	Thaketa	သာကေတ	16.80387992038607	96.20176776777953
33	72	523	Kyaung Kwae/ Htuu Par Yone	ကျောင်းကွေ့/ထူပါရုံ	Ayar Wun Main Road	ဧရာဝဏ်လမ်းမကြီး	Thaketa	သာကေတ	16.80371470625175	96.20586662320422
33	73	525	Myayni	မြေနီ	Ayar Wun Main Road	ဧရာဝဏ်လမ်းမကြီး	Thaketa	သာကေတ	16.803537897279856	96.20986435096712
33	74	529	Shit Gate	(၈) ဂိတ်	Ayar Wun Main Road	ဧရာဝဏ်လမ်းမကြီး	Thaketa	သာကေတ	16.804750521874205	96.21352799702437
33	75	553	Thaketa Awine	သာကေတအဝိုင်း	Ayar Wun Main Road	ဧရာဝဏ်လမ်းမကြီး	Thaketa	သာကေတ	16.80611452972553	96.21627231594177
33	76	551	Tayar-Shit Taung	(၁၀၈) တောင်	Thalyin Thada Chin Kat Road	သန်လျှင်တံတားချင့်ကပ်လမ်း	Thaketa	သာကေတ	16.806431	96.218966
33	77	545	Sauk Lote Yae	ဆောက်လုပ်ရေး	Thanlyin Tada Chint Road	သန်လျှင်တံတားချင့်လမ်း	Thaketa	သာကေတ	16.80307737874286	96.2232931656763
33	78	550	Tadar Htate	တံတားထိပ်	Nawarat Pat Road	နဝရတ်ပတ်လမ်း	Thaketa	သာကေတ	16.801254430912103	96.22528231702745
33	79	507	Lat Hmat Gate	လက်မှတ်ဂိတ်	Kyaik Khauk Pagoda Road	ကျိုက်ခေါက်ဘုရားလမ်း	Thanlyin	သန်လျင်	16.77839	96.243879
33	80	1618	Mee Point	်မီးပွိုင့်	Kyaik Khauk Pagoda Road	ကျိုက်ခေါက်ဘုရားလမ်း	Thanlyin	သန်လျင်	16.778739	96.247226
33	81	1811	Kyar Paya	ကျားဘုရား	Kyaik Khauk Pagoda Road	ကျိုက်ခေါက်ဘုရားလမ်း	Thanlyin	သန်လျင်	16.757735198524692	96.25641010701658
33	82	541	Thama College	သမကောလိပ်	Thanlyin	သံလျင်	Thanlyin	သန်လျင်	16.75506077459433	96.25814553815873
33	83	1813	Sal Myaung	ဆည်မြောင်း	Kyaik Khauk Pagoda Road	ကျိုက်ခေါက်ဘုရားလမ်း	Thanlyin	သန်လျင်	16.75087108658183	96.2610245961696
33	84	1629	Aung Chan Thar	အောင်ချမ်းသာ	Kyaik Khauk Pagoda Road	ကျိုက်ခေါက်ဘုရားလမ်း	Thanlyin	သန်လျင်	16.745436727103243	96.2650060420856
33	85	1631	Sae-Shit Kone	(၁၈) ကုန်း	Kyaik Khauk Pagoda Road	ကျိုက်ခေါက်ဘုရားလမ်း	Thanlyin	သန်လျင်	16.739825	96.26804
33	86	1633	Paya Shae	ဘုရားရှေ့	Kyaik Khauk Pagoda Road	ကျိုက်ခေါက်ဘုရားလမ်း	Thanlyin	သန်လျင်	16.730598	96.272482
33	87	1824	Paya Kone Lan Sone	ဘုရားကုန်းလမ်းဆုံ	Thanlyin-Kyauktan Road	သန်လျှင်-ကျောက်တန်းလမ်း	Thanlyin	သန်လျင်	16.72867187909715	96.2735345028341
33	88	1827	Nat Sin Ta-Yar	နတ်စင်တစ်ရာ	Thanlyin-Kyauktan Road	သန်လျှင်-ကျောက်တန်းလမ်း	Thanlyin	သန်လျင်	16.72618	96.279795
33	89	1829	Sit See Taw	စစ်စည်းတော	Thanlyin-Kyauktan Road	သန်လျှင်-ကျောက်တန်းလမ်း	Thanlyin	သန်လျင်	16.723853249079653	96.28326553618537
33	90	1831	San Set	ဆန်စက်	Thanlyin-Kyauktan Road	သန်လျှင်-ကျောက်တန်းလမ်း	Thanlyin	သန်လျင်	16.72271648954859	96.28485223045574
33	91	1833	Kyaik Inn	ကျိုက်အင်း	Thanlyin-Kyauktan Road	သန်လျှင်-ကျောက်တန်းလမ်း	Thanlyin	သန်လျင်	16.718699927752482	96.28904026933014
33	92	1835	Gate Wa	ဂိတ်ဝ	Thanlyin-Kyauktan Road	သန်လျှင်-ကျောက်တန်းလမ်း	Thanlyin	သန်လျင်	16.716027384216254	96.29043262917548
33	93	1837	Nat Sin Koun	နတ်စင်ကုန်း	Thanlyin-Kyauktan Road	သန်လျှင်-ကျောက်တန်းလမ်း	Thanlyin	သန်လျင်	16.713274	96.292069
33	94	1839	Saw Bwar	စော်ဘွား	Thanlyin-Kyauktan Road	သန်လျှင်-ကျောက်တန်းလမ်း	Thanlyin	သန်လျင်	16.711055	96.293914
33	95	1841	Ngar Su	ငါးစု	Thanlyin-Kyauktan Road	သန်လျှင်-ကျောက်တန်းလမ်း	Thanlyin	သန်လျင်	16.707849	96.295202
33	96	1843	Hta Ma Lon	ထားမလုံ	Thanlyin-Kyauktan Road	သန်လျှင်-ကျောက်တန်းလမ်း	Thanlyin	သန်လျင်	16.705342	96.297004
33	97	1845	Paya Lay	ဘုရားလေး	Thanlyin-Kyauktan Road	သန်လျှင်-ကျောက်တန်းလမ်း	Thanlyin	သန်လျင်	16.698622614431475	96.3046585628763
33	98	1847	Ko Tin Maung Chan Wa	ကိုတင်မောင်ခြံဝ	Thanlyin-Kyauktan Road	သန်လျှင်-ကျောက်တန်းလမ်း	Thanlyin	သန်လျင်	16.695801000704293	96.30572916241363
33	99	2119	Nee Pyinyar Takke Tho (G.T.U)	နည်းပညာတက္ကသိုလ်(ဂျီတီယူ)	Thanlyin-Kyauktan Road	သန်လျှင်-ကျောက်တန်းလမ်း	Thanlyin	သန်လျင်	16.68995813271067	96.30737094674261
33	100	1849	Aung Ta Pyay	အောင်သပြေ	Thanlyin-Kyauktan Road	သန်လျှင်-ကျောက်တန်းလမ်း	Thanlyin	သန်လျင်	16.685632649435334	96.30936221452431
33	101	1851	Gate Tit	ဂိတ် (၁)	Thanlyin-Kyauktan Road	သန်လျှင်-ကျောက်တန်းလမ်း	Thanlyin	သန်လျင်	16.68306887884278	96.31179736694321
33	102	1853	Gate Haung	ဂိတ်ဟောင်း	Thanlyin-Kyauktan Road	သန်လျှင်-ကျောက်တန်းလမ်း	Thanlyin	သန်လျင်	16.681839340679655	96.31396830081941
33	103	1855	Alal Ywar	အလယ်ရွာ	Thanlyin-Kyauktan Road	သန်လျှင်-ကျောက်တန်းလမ်း	Thanlyin	သန်လျင်	16.68058578732979	96.31557544693352
33	104	1857	Hta Ma Ni Phone Gyi Kyaung Shae	ထမနီးဘုန်းကြီးကျောင်းရှေ့	Thanlyin-Kyauktan Road	သန်လျှင်-ကျောက်တန်းလမ်း	Thanlyin	သန်လျင်	16.679167124366387	96.31734752794728
33	105	1859	Hta Ma Ni Koun Htate	ထမနီးကုန်းထိပ်	Thanlyin-Kyauktan Road	သန်လျှင်-ကျောက်တန်းလမ်း	Thanlyin	သန်လျင်	16.67620426777559	96.31948797265069
33	106	1861	Saik Pyoe Yay	စိုက်ပျိုးရေး	Thanlyin-Kyauktan Road	သန်လျှင်-ကျောက်တန်းလမ်း	Thanlyin	သန်လျင်	16.673386719245112	96.32066018180925
33	107	1863	Nyaung Wine	ညောင်ဝိုင်း	Thanlyin-Kyauktan Road	သန်လျှင်-ကျောက်တန်းလမ်း	Thanlyin	သန်လျင်	16.66758877515018	96.32133173989133
33	108	1865	Mway Paya	မြွေဘုရား	Thanlyin-Kyauktan Road	သန်လျှင်-ကျောက်တန်းလမ်း	Thanlyin	သန်လျင်	16.66278944175699	96.3210418727249
33	109	1867	Pa Da Kyi	ပါဒကြီး	Thanlyin-Kyauktan Road	သန်လျှင်-ကျောက်တန်းလမ်း	Thanlyin	သန်လျင်	16.65656742350192	96.3183591188863
33	110	1869	Chan Myae Thar Yar	ချမ်းမြေ့သာယာ	Thanlyin-Kyauktan Road	သန်လျှင်-ကျောက်တန်းလမ်း	Kyauktan	ကျောက်တန်း	16.6498739952006	96.31968752481045
33	111	1871	Si Saing	ဆီဆိုင်	Thanlyin-Kyauktan Road	သန်လျှင်-ကျောက်တန်းလမ်း	Kyauktan	ကျောက်တန်း	16.64804871873154	96.32101764902474
33	112	1873	Aung Chan Thar	အောင်ချမ်းသာ	Thanlyin-Kyauktan Road	သန်လျှင်-ကျောက်တန်းလမ်း	Kyauktan	ကျောက်တန်း	16.644480629148955	96.32347404956819
33	113	1875	Pal Hlaw Pho	ပဲလှော်ဖို	Thanlyin-Kyauktan Road	သန်လျှင်-ကျောက်တန်းလမ်း	Kyauktan	ကျောက်တန်း	16.640728787314824	96.3236939907074
33	114	1877	Gat Tae Kwae	ဂါတ်တဲကွေ့	Thanlyin-Kyauktan Road	သန်လျှင်-ကျောက်တန်းလမ်း	Kyauktan	ကျောက်တန်း	16.63829849229195	96.32499224273488
33	115	1878	Zay Kwae	ဈေးကွေ့	Thanlyin-Kyauktan Road	သန်လျှင်-ကျောက်တန်းလမ်း	Kyauktan	ကျောက်တန်း	16.63582180712637	96.32650771178307
33	116	1879	Kyauk Tan	ကျောက်တန်း	Thanlyin-Kyauktan Road	သန်လျှင်-ကျောက်တန်းလမ်း	Kyauktan	ကျောက်တန်း	16.63321394088777	96.32729527540506
