svc_name	sequence	stop_id	name_en	name_mm	road_en	road_mm	township_en	township_mm	lat	lng
62	1	1031	Dagon Takke Tho	ဒဂုံတက္ကသိုလ်	Dagon University	ဒဂုံတက္ကသိုလ်	North Dagon	မြောက်ဒဂုံ	16.916878098620895	96.2128589116037
62	2	1036	Yone Shae	ရုံးရှေ့	Dagon University	ဒဂုံတက္ကသိုလ်	North Dagon	မြောက်ဒဂုံ	16.914898	96.210383
62	3	5	Sal Mile	(၁၀) မိုင်	Dagon University	ဒဂုံတက္ကသိုလ်	North Dagon	မြောက်ဒဂုံ	16.91305	96.211413
62	4	1030	Awine	အဝိုင်း	Dagon University	ဒဂုံတက္ကသိုလ်	North Dagon	မြောက်ဒဂုံ	16.910484	96.212894
62	5	2404	Moke Wa	မုခ်ဝ	Kyan Sit Thar Road	ကျန်စစ်သားလမ်း	North Dagon	မြောက်ဒဂုံ	16.904594107145346	96.20447759516537
62	6	2363	Ywar Htate	ရွာထိပ်	Kyan Sit Thar Road	ကျန်စစ်သားလမ်း	North Dagon	မြောက်ဒဂုံ	16.908442913565263	96.19982555508615
62	7	2365	Ma Da	မဓ	Yarza Thingyan Road	ရာဇသင်္ကြန်လမ်း	North Dagon	မြောက်ဒဂုံ	16.91265979145201	96.19451218284668
62	8	2367	_	_	Yarza Thingyan Road	ရာဇသင်္ကြန်လမ်း	North Dagon	မြောက်ဒဂုံ	16.912004125783575	96.19301123544574
62	9	2369	_	_	Yarza Thingyan Road	ရာဇသင်္ကြန်လမ်း	North Dagon	မြောက်ဒဂုံ	16.909950504558687	96.18892899714412
62	10	2371	_	_	Yarza Thingyan Road	ရာဇသင်္ကြန်လမ်း	North Dagon	မြောက်ဒဂုံ	16.910931005628484	96.19084895588458
62	11	878	Ngar-sae Kwae	(၅၀) ကွေ့	Pyi Htaung Su Main Road	ပြည်ထောင်စုလမ်းမကြီး	North Dagon	မြောက်ဒဂုံ	16.908431	96.186887
62	12	1018	A Aye Saing	အအေးဆိုင်	Pyi Htaung Su Main Road	ပြည်ထောင်စုလမ်းမကြီး	North Dagon	မြောက်ဒဂုံ	16.90350883495074	96.18970149429516
62	13	1023	Myawaddy	မြဝတီ	Pyi Htaung Su Main Road	ပြည်ထောင်စုလမ်းမကြီး	North Dagon	မြောက်ဒဂုံ	16.90141	96.190749
62	14	1020	Lay-sae-chauk Hmat Taing	(၄၆) မှတ်တိုင်	Pyi Htaung Su Main Road	ပြည်ထောင်စုလမ်းမကြီး	North Dagon	မြောက်ဒဂုံ	16.898700981942675	96.19247929891573
62	15	936	Lay-sae-nga Hmat Taing	(၄၅) မှတ်တိုင်	Pyi Htaung Su Main Road	ပြည်ထောင်စုလမ်းမကြီး	North Dagon	မြောက်ဒဂုံ	16.895240251188223	96.19434594875203
62	16	926	Khun/ Shit Lan Sone	(၇/၈) လမ်းဆုံ	Pyi Htaung Su Main Road	ပြည်ထောင်စုလမ်းမကြီး	North Dagon	မြောက်ဒဂုံ	16.890982561398648	96.19669476756827
62	17	880	Yone Shae	ရုံးရှေ့	Pyi Htaung Su Main Road	ပြည်ထောင်စုလမ်းမကြီး	North Dagon	မြောက်ဒဂုံ	16.887568327965283	96.19860955048354
62	18	928	Kone Padaythar	ကုန်ပဒေသာ	Pyi Htaung Su Main Road	ပြည်ထောင်စုလမ်းမကြီး	North Dagon	မြောက်ဒဂုံ	16.8842043419244	96.200472638011
62	19	1004	Swan In	စွမ်းအင်	Pyi Htaung Su Main Road	ပြည်ထောင်စုလမ်းမကြီး	North Dagon	မြောက်ဒဂုံ	16.88080835336168	96.202354375273
62	20	2346	Ma Wa Ta	မဝတ	Pyi Htaung Su Main Road	ပြည်ထောင်စုလမ်းမကြီး	North Dagon	မြောက်ဒဂုံ	16.877414870397843	96.2041931343265
62	21	1006	Arr Kasar Kwin	အားကစားကွင်း	Pyi Htaung Su Main Road	ပြည်ထောင်စုလမ်းမကြီး	North Dagon	မြောက်ဒဂုံ	16.872657507025735	96.20631312718616
62	22	1007	Ka Pa Ya	ကပရ	Pyi Htaung Su Main Road	ပြည်ထောင်စုလမ်းမကြီး	North Dagon	မြောက်ဒဂုံ	16.86995660937107	96.20740002952516
62	23	2349	Tadar Htate	တံတားထိပ်	Pyi Htaung Su Main Road	ပြည်ထောင်စုလမ်းမကြီး	North Dagon	မြောက်ဒဂုံ	16.866103428460274	96.20897377375516
62	24	1612	Myo Oo Zedi	မြို့ဦးစေတီ	Pyi Htaung Su Main Road	ပြည်ထောင်စုလမ်းမကြီး	North Dagon	မြောက်ဒဂုံ	16.86210389646696	96.21278439648451
62	25	674	Tadar Phyu	တံတားဖြူ	No. 2 Main Road	အမှတ်(၂)လမ်းမ	South Dagon	တောင်ဒဂုံ	16.857509683996202	96.21210170422273
62	26	628	Kar Gyi Gate	ကားကြီးဂိတ်	No. 2 Main Road	အမှတ်(၂)လမ်းမ	South Dagon	တောင်ဒဂုံ	16.847406480977263	96.20899594388904
62	27	634	Sanpya Zay/ Nga Moe Yeik	စံပြဈေး/ ငမိုးရိပ်	Lay Daung Kan Road	လေးထောင့်ကန်လမ်း	Thingangyun	သင်္ဃန်းကျွန်း	16.841916421492833	96.20434836717324
62	28	2160	Myittar Shwe Yi	မေတ္တာရွှေရည်	Lay Daung Kan Road	လေးထောင့်ကန်လမ်း	Thingangyun	သင်္ဃန်းကျွန်း	16.838739	96.201072
62	29	597	Bawa Myint	ဘဝမြင့်	Lay Daung Kan Road	လေးထောင့်ကန်လမ်း	Thingangyun	သင်္ဃန်းကျွန်း	16.83751062688879	96.19982625707054
62	30	609	Kalar Su	ကုလားစု	Lay Daung Kan Road	လေးထောင့်ကန်လမ်း	Thingangyun	သင်္ဃန်းကျွန်း	16.835042008650188	96.19725657166784
62	31	602	B.O.C	ဘီအိုစီ	Lay Daung Kan Road	လေးထောင့်ကန်လမ်း	Thingangyun	သင်္ဃန်းကျွန်း	16.832963	96.195097
62	32	616	Paya Lan	ဘုရားလမ်း	Lay Daung Kan Road	လေးထောင့်ကန်လမ်း	Thingangyun	သင်္ဃန်းကျွန်း	16.831141607522156	96.1933392752235
62	33	367	Zawana	ဇဝန	Lay Daung Kan Road	လေးထောင့်ကန်လမ်း	Thingangyun	သင်္ဃန်းကျွန်း	16.828191207971237	96.18817244656385
62	34	361	Khap Chee Yar	ခပ်ချီးယား	Lay Daung Kan Road	လေးထောင့်ကန်လမ်း	Thingangyun	သင်္ဃန်းကျွန်း	16.826232	96.186427
62	35	356	Athin Taik	အသင်းတိုက်	Lay Daung Kan Road	လေးထောင့်ကန်လမ်း	Thingangyun	သင်္ဃန်းကျွန်း	16.82310570226515	96.18332737125458
62	36	365	Than Lan	သံလမ်း	Lay Daung Kan Road	လေးထောင့်ကန်လမ်း	Thingangyun	သင်္ဃန်းကျွန်း	16.820012459663197	96.17833981734296
62	37	345	Lan Sone	လမ်းဆုံ	East Horse Race Course Road	အရှေ့မြင်းပြိုင်လမ်း	Tamwe	တာမွေ	16.819269	96.172287
62	38	343	Kyaung Shae	ကျောင်းရှေ့	East Horse Race Course Road	အရှေ့မြင်းပြိုင်လမ်း	Tamwe	တာမွေ	16.815445555142144	96.17246560541389
62	39	333	Awine Htate/ Tamwe	အဝိုင်းထိပ်/ တာမွေ	East Shwe Gon Daing Road	အရှေ့ရွှေဂုံတိုင်လမ်း	Bahan	ဗဟန်း	16.81164669784772	96.17015008338059
62	40	232	Chauk Htat Kyee	(၆) ထပ်ကြီး	East Shwe Gon Daing Road	အရှေ့ရွှေဂုံတိုင်လမ်း	Bahan	ဗဟန်း	16.811207	96.165464
62	41	235	Ngar Htat Kyee	(၅) ထပ်ကြီး	East Shwe Gon Daing Road	အရှေ့ရွှေဂုံတိုင်လမ်း	Bahan	ဗဟန်း	16.810709	96.163007
62	42	227	Bandar Pin	ဗန်ဒါပင်	East Shwe Gon Daing Road	အရှေ့ရွှေဂုံတိုင်လမ်း	Bahan	ဗဟန်း	16.810236	96.160738
62	43	2177	Shwe Gon Daing	ရွှေဂုံတိုင်	East Shwe Gon Daing Road	အရှေ့ရွှေဂုံတိုင်လမ်း	Bahan	ဗဟန်း	16.80679	96.156254
62	44	229	Shwe Gon Daing	ရွှေဂုံတိုင်	West Shwe Gon Daing Road	အနောက်ရွှေဂုံတိုင်လမ်း	Bahan	ဗဟန်း	16.805571665361676	96.15438880864532
62	45	225	Oak Lan	အုတ်လမ်း	West Shwe Gon Daing Road	အနောက်ရွှေဂုံတိုင်လမ်း	Bahan	ဗဟန်း	16.804480996918812	96.15122687187979
62	46	223	Link Lan	လင့်လမ်း	Shwe Gon Road	ရွှေဂုံလမ်း	Bahan	ဗဟန်း	16.806090939455864	96.14742122246754
62	47	274	Wizaya Plaza	ဝိဇယပလာဇာ	Dhamazedi Road	ဓမ္မစေတီလမ်း	Bahan	ဗဟန်း	16.805219943235446	96.14327571864125
62	48	266	Myaynigone	မြေနီကုန်း	Bargayar Road	ဗားဂရာလမ်း	San Chaung	စမ်းချောင်း	16.803804	96.138814
62	49	273	Shwe Man	ရွှေမန်း	Bargayar Road	ဗားဂရာလမ်း	San Chaung	စမ်းချောင်း	16.803827	96.136105
62	50	261	Shan Lan	ရှမ်းလမ်း	Bargayar Road	ဗားဂရာလမ်း	San Chaung	စမ်းချောင်း	16.80383891776587	96.13184186629952
62	51	255	Koe Htat Kyee	(၉) ထပ်ကြီး	Bargayar Road	ဗားဂရာလမ်း	San Chaung	စမ်းချောင်း	16.80385946248815	96.12814109193097
62	52	249	Kyaung Shae	ကျောင်းရှေ့	Bargayar Road	ဗားဂရာလမ်း	San Chaung	စမ်းချောင်း	16.803900983450813	96.12383145251444
62	53	253	Sar Taik	စာတိုက်	Kyee Myin Daing Kannar Road	ကြည့်မြင်တိုင်ကမ်းနားလမ်း	Kyee Myin Daing	ကြည့်မြင်တိုင်	16.80426559990839	96.12227894601347
62	54	258	Kyee Myin Daing Nya Zay	ကြည့်မြင်တိုင်ညဈေး	Kyee Myin Daing Kannar Road	ကြည့်မြင်တိုင်ကမ်းနားလမ်း	Kyee Myin Daing	ကြည့်မြင်တိုင်	16.80935599745288	96.12198447575794
62	55	291	Kannar Zay	ကမ်းနားဈေး	Kyee Myin Daing Kannar Road	ကြည့်မြင်တိုင်ကမ်းနားလမ်း	Kyee Myin Daing	ကြည့်မြင်တိုင်	16.812434	96.121964
62	56	277	Nat Sin Lan	နတ်စင်လမ်း	Kyee Myin Daing Kannar Road	ကြည့်မြင်တိုင်ကမ်းနားလမ်း	Kyee Myin Daing	ကြည့်မြင်တိုင်	16.81453683073846	96.1219596862793
62	57	301	Sinmalite	ဆင်မလိုက်	Kyee Myin Daing Kannar Road	ကြည့်မြင်တိုင်ကမ်းနားလမ်း	Kyee Myin Daing	ကြည့်မြင်တိုင်	16.81928919676379	96.12197063186613
62	58	284	Hantharwaddy	ဟံသာဝတီ	Upper Kyee Myin Daing Road	အထက်ကြည့်မြင်တိုင်လမ်း	Kyee Myin Daing	ကြည့်မြင်တိုင်	16.816320576623713	96.12593807280065
62	59	279	Nat Sin Lan	နတ်စင်လမ်း	Upper Kyee Myin Daing Road	အထက်ကြည့်မြင်တိုင်လမ်း	Kyee Myin Daing	ကြည့်မြင်တိုင်	16.814202007934437	96.12586942501369
62	60	300	Salin Kwin	စလင်းကွင်း	Upper Kyee Myin Daing Road	အထက်ကြည့်မြင်တိုင်လမ်း	Kyee Myin Daing	ကြည့်မြင်တိုင်	16.812730481580218	96.12592935562135
62	61	250	Kyee Myin Daing Nya Zay	ကြည်မြင်တိုင်ညဈေး	Upper Kyee Myin Daing Road	အထက်ကြည့်မြင်တိုင်လမ်း	Kyee Myin Daing	ကြည့်မြင်တိုင်	16.809933587198	96.12593092722818
62	62	256	Kyee Myin Daing Butar	ကြည့်မြင်တိုင်ဘူတာ	Upper Kyee Myin Daing Road	အထက်ကြည့်မြင်တိုင်လမ်း	Kyee Myin Daing	ကြည့်မြင်တိုင်	16.806301299283557	96.12574257194865
62	63	254	Koe Htat Kyee	(၉) ထပ်ကြီး	Bargayar Road	ဗားဂရာလမ်း	San Chaung	စမ်းချောင်း	16.80377692571842	96.12809622083661
62	64	260	Shan Lan	ရှမ်းလမ်း	Bargayar Road	ဗားဂရာလမ်း	San Chaung	စမ်းချောင်း	16.803776350638998	96.13150128861892
62	65	272	Shwe Man	ရွှေမန်း	Bargayar Road	ဗားဂရာလမ်း	San Chaung	စမ်းချောင်း	16.803697434586116	96.13618335686625
62	66	267	Myaynigone	မြေနီကုန်း	Bargayar Road	ဗားဂရာလမ်း	San Chaung	စမ်းချောင်း	16.8037478786025	96.13814299016668
62	67	2389	Wizaya Plaza	ဝိဇယပလာဇာ	Dhamazedi Road	ဓမ္မစေတီလမ်း	Bahan	ဗဟန်း	16.8050307383558	96.1434358686529
62	68	222	Link Lan	လင့်လမ်း	Shwe Gon Road	ရွှေဂုံလမ်း	Bahan	ဗဟန်း	16.805999079236297	96.14723340186174
62	69	224	Oak Lan	အုတ်လမ်း	West Shwe Gon Daing Road	အနောက်ရွှေဂုံတိုင်လမ်း	Bahan	ဗဟန်း	16.804344087884044	96.1511853185948
62	70	228	Shwe Gon Daing	ရွှေဂုံတိုင်	West Shwe Gon Daing Road	အနောက်ရွှေဂုံတိုင်လမ်း	Bahan	ဗဟန်း	16.805293836643138	96.15444100694732
62	71	231	Shwe Gon Daing	ရွှေဂုံတိုင်	East Shwe Gon Daing Road	အရှေ့ရွှေဂုံတိုင်လမ်း	Bahan	ဗဟန်း	16.806550186916283	96.15607654675843
62	72	226	Bandar Pin	ဗန်ဒါပင်	East Shwe Gon Daing Road	အရှေ့ရွှေဂုံတိုင်လမ်း	Bahan	ဗဟန်း	16.809993885588426	96.16076869424434
62	73	234	Ngar Htat Kyee	(၅) ထပ်ကြီး	East Shwe Gon Daing Road	အရှေ့ရွှေဂုံတိုင်လမ်း	Bahan	ဗဟန်း	16.810501025184656	96.1633197264746
62	74	233	Chauk Htat Kyee	(၆) ထပ်ကြီး	East Shwe Gon Daing Road	အရှေ့ရွှေဂုံတိုင်လမ်း	Bahan	ဗဟန်း	16.811227	96.165963
62	75	332	Awine Htate/ Tamwe	အဝိုင်းထိပ်/ တာမွေ	East Shwe Gon Daing Road	အရှေ့ရွှေဂုံတိုင်လမ်း	Bahan	ဗဟန်း	16.81149101866884	96.16997592855115
62	76	342	Kyaung Shae	ကျောင်းရှေ့	East Horse Race Course Road	အရှေ့မြင်းပြိုင်လမ်း	Tamwe	တာမွေ	16.81540650761808	96.17265560187664
62	77	344	Lan Sone	လမ်းဆုံ	East Horse Race Course Road	အရှေ့မြင်းပြိုင်လမ်း	Tamwe	တာမွေ	16.81895	96.17248
62	78	364	Than Lan	သံလမ်း	Lay Daung Kan Road	လေးထောင့်ကန်လမ်း	Thingangyun	သင်္ဃန်းကျွန်း	16.81978945155671	96.17808243725449
62	79	357	Athin Taik	အသင်းတိုက်	Lay Daung Kan Road	လေးထောင့်ကန်လမ်း	Thingangyun	သင်္ဃန်းကျွန်း	16.822849160856567	96.18339463602754
62	80	360	Khap Chee Yar	ခပ်ချီးယား	Lay Daung Kan Road	လေးထောင့်ကန်လမ်း	Thingangyun	သင်္ဃန်းကျွန်း	16.826169891044863	96.18673495016994
62	81	366	Zawana	ဇဝန	Lay Daung Kan Road	လေးထောင့်ကန်လမ်း	Thingangyun	သင်္ဃန်းကျွန်း	16.827762389884697	96.18795190133825
62	82	615	Paya Lan	ဘုရားလမ်း	Lay Daung Kan Road	လေးထောင့်ကန်လမ်း	Thingangyun	သင်္ဃန်းကျွန်း	16.830714765084345	96.19317076745574
62	83	601	B.O.C	ဘီအိုစီ	Lay Daung Kan Road	လေးထောင့်ကန်လမ်း	Thingangyun	သင်္ဃန်းကျွန်း	16.83264297934202	96.19510064876523
62	84	610	Kalar Su	ကုလားစု	Lay Daung Kan Road	လေးထောင့်ကန်လမ်း	Thingangyun	သင်္ဃန်းကျွန်း	16.834929417094717	96.19742584060079
62	85	598	Bawa Myint	ဘဝမြင့်	Lay Daung Kan Road	လေးထောင့်ကန်လမ်း	Thingangyun	သင်္ဃန်းကျွန်း	16.837140047336906	96.19967010581604
62	86	2161	Myittar Shwe Yi	မေတ္တာရွှေရည်	Lay Daung Kan Road	လေးထောင့်ကန်လမ်း	Thingangyun	သင်္ဃန်းကျွန်း	16.838646395702437	96.20123337233963
62	87	635	Sanpya Zay/ Nga Moe Yeik	စံပြဈေး/ ငမိုးရိပ်	Lay Daung Kan Road	လေးထောင့်ကန်လမ်း	Thingangyun	သင်္ဃန်းကျွန်း	16.841989	96.204673
62	88	629	Kar Gyi Gate	ကားကြီးဂိတ်	No. 2 Main Road	အမှတ်(၂)လမ်းမ	South Dagon	တောင်ဒဂုံ	16.847180777593348	96.20910117868335
62	89	673	Tadar Phyu	တံတားဖြူ	No. 2 Main Road	အမှတ်(၂)လမ်းမ	South Dagon	တောင်ဒဂုံ	16.857341615494583	96.21233842357469
62	90	1613	Myo Oo Zedi	မြို့ဦးစေတီ	Pyi Htaung Su Main Road	ပြည်ထောင်စုလမ်းမကြီး	North Dagon	မြောက်ဒဂုံ	16.86233184812082	96.21266275411473
62	91	1010	Tadar Htate	တံတားထိပ်	Pyi Htaung Su Main Road	ပြည်ထောင်စုလမ်းမကြီး	North Dagon	မြောက်ဒဂုံ	16.866145520536634	96.20901987422258
62	92	2348	Ka Pa Ya	ကပရ	Pyi Htaung Su Main Road	ပြည်ထောင်စုလမ်းမကြီး	North Dagon	မြောက်ဒဂုံ	16.86995237819045	96.20748372282834
62	93	2347	Arr Kasar Kwin	အားကစားကွင်း	Pyi Htaung Su Main Road	ပြည်ထောင်စုလမ်းမကြီး	North Dagon	မြောက်ဒဂုံ	16.872685841491208	96.20636325096713
62	94	1009	Ma Wa Ta	မဝတ	Pin Lon Road	ပင်လုံလမ်း	North Dagon	မြောက်ဒဂုံ	16.876962612612097	96.20422358158977
62	95	1008	Ma Wa Ta	မဝတ	Pyi Htaung Su Main Road	ပြည်ထောင်စုလမ်းမကြီး	North Dagon	မြောက်ဒဂုံ	16.87735960653568	96.2043057032861
62	96	1005	Swan In	စွမ်းအင်	Pyi Htaung Su Main Road	ပြည်ထောင်စုလမ်းမကြီး	North Dagon	မြောက်ဒဂုံ	16.88079154992208	96.20245808037
62	97	929	Kone Padaythar	ကုန်ပဒေသာ	Pyi Htaung Su Main Road	ပြည်ထောင်စုလမ်းမကြီး	North Dagon	မြောက်ဒဂုံ	16.88423259445147	96.20055408915506
62	98	881	Yone Shae	ရုံးရှေ့	Pyi Htaung Su Main Road	ပြည်ထောင်စုလမ်းမကြီး	North Dagon	မြောက်ဒဂုံ	16.88746103440087	96.19877320714295
62	99	925	Khun/ Shit Lan Sone	(၇/၈) လမ်းဆုံ	Pyi Htaung Su Main Road	ပြည်ထောင်စုလမ်းမကြီး	North Dagon	မြောက်ဒဂုံ	16.891066012624623	96.19677429087463
62	100	935	Lay-sae-nga Hmat Taing	(၄၅) မှတ်တိုင်	Pyi Htaung Su Main Road	ပြည်ထောင်စုလမ်းမကြီး	North Dagon	မြောက်ဒဂုံ	16.89475018104531	96.1947276396677
62	101	1019	Lay-sae-chauk Hmat Taing	(၄၆) မှတ်တိုင်	Pyi Htaung Su Main Road	ပြည်ထောင်စုလမ်းမကြီး	North Dagon	မြောက်ဒဂုံ	16.898430708623312	96.19273792253809
62	102	1024	Myawaddy	မြဝတီ	Pyi Htaung Su Main Road	ပြည်ထောင်စုလမ်းမကြီး	North Dagon	မြောက်ဒဂုံ	16.901964	96.190835
62	103	1017	A Aye Saing	အအေးဆိုင်	Pyi Htaung Su Main Road	ပြည်ထောင်စုလမ်းမကြီး	North Dagon	မြောက်ဒဂုံ	16.903188164191445	96.19007346220316
62	104	879	Ngar-sae Kwae	(၅၀) ကွေ့	Pyi Htaung Su Main Road	ပြည်ထောင်စုလမ်းမကြီး	North Dagon	မြောက်ဒဂုံ	16.908516092033064	96.18715706281367
62	105	2372	_	_	Yarza Thingyan Road	ရာဇသင်္ကြန်လမ်း	North Dagon	မြောက်ဒဂုံ	16.910869456310497	96.19089367333801
62	106	2370	_	_	Yarza Thingyan Road	ရာဇသင်္ကြန်လမ်း	North Dagon	မြောက်ဒဂုံ	16.909869186856525	96.18909060023726
62	107	2368	_	_	Yarza Thingyan Road	ရာဇသင်္ကြန်လမ်း	North Dagon	မြောက်ဒဂုံ	16.912090093819174	96.19293093681337
62	108	2366	Ma Da	မဓ	Yarza Thingyan Road	ရာဇသင်္ကြန်လမ်း	North Dagon	မြောက်ဒဂုံ	16.912609189155948	96.19444227777423
62	109	2364	Ywar Htate	ရွာထိပ်	Kyan Sit Thar Road	ကျန်စစ်သားလမ်း	North Dagon	မြောက်ဒဂုံ	16.908304	96.199592
62	110	2404	Moke Wa	မုခ်ဝ	Kyan Sit Thar Road	ကျန်စစ်သားလမ်း	North Dagon	မြောက်ဒဂုံ	16.904594107145346	96.20447759516537
62	111	1029	Awine	အဝိုင်း	Dagon University	ဒဂုံတက္ကသိုလ်	North Dagon	မြောက်ဒဂုံ	16.910341	96.213602
62	112	2122	Sal Mile	(၁၀) မိုင်	Dagon University	ဒဂုံတက္ကသိုလ်	North Dagon	မြောက်ဒဂုံ	16.913297	96.211864
62	113	2123	Yone Shae	ရုံးရှေ့	Dagon University	ဒဂုံတက္ကသိုလ်	North Dagon	မြောက်ဒဂုံ	16.915206	96.210791
