svc_name	sequence	stop_id	name_en	name_mm	road_en	road_mm	township_en	township_mm	lat	lng
90	1	1798	Taik Kyi Zay	တိုက်ကြီးဈေး	Yangon-Pyay Main Road	ရန်ကုန်-ပြည်လမ်းမကြီး	Taik Kyi	တိုက်ကြီး	17.31384	95.963472
90	2	1796	Taik Kyi Khan Ma	တိုက်ကြီးခန်းမ	Yangon-Pyay Main Road	ရန်ကုန်-ပြည်လမ်းမကြီး	Taik Kyi	တိုက်ကြီး	17.311105	95.966084
90	3	1794	Taik Kyi Phaung Gyi Lan Khwe	တိုက်ကြီးဖောင်ကြီးလမ်းခွဲ	Yangon-Pyay Main Road	ရန်ကုန်-ပြည်လမ်းမကြီး	Taik Kyi	တိုက်ကြီး	17.294142	95.975229
90	4	1792	Taik Kyi Tar Gwa Tar Sone	တိုက်ကြီးတာခွ	Yangon-Pyay Main Road	ရန်ကုန်-ပြည်လမ်းမကြီး	Taik Kyi	တိုက်ကြီး	17.288119	95.970529
90	5	1790	Kan Kone	ကန်ကုန်း	Yangon-Pyay Main Road	ရန်ကုန်-ပြည်လမ်းမကြီး	Taik Kyi	တိုက်ကြီး	17.268660177380298	95.95454583875836
90	6	1788	Inn Yat Kyee	အင်းယက်ကြီး	Yangon-Pyay Main Road	ရန်ကုန်-ပြည်လမ်းမကြီး	Taik Kyi	တိုက်ကြီး	17.254460922225377	95.95838638488205
90	7	1784	Yone Htein Thone	ရုံးထိန်း (၃)	Yangon-Pyay Main Road	ရန်ကုန်-ပြည်လမ်းမကြီး	Taik Kyi	တိုက်ကြီး	17.226028911235574	95.96069308463485
90	8	1782	Nga-Pyaw Chan	ှုငှက်ပျောခြံ	Yangon-Pyay Main Road	ရန်ကုန်-ပြည်လမ်းမကြီး	Taik Kyi	တိုက်ကြီး	17.220003	95.962265
90	9	1780	Kyun Chaung	ကျွန်းချောင်း	Yangon-Pyay Main Road	ရန်ကုန်-ပြည်လမ်းမကြီး	Taik Kyi	တိုက်ကြီး	17.214592	95.961578
90	10	1778	Gone Kwae	ကုန်းကွေ့	Yangon-Pyay Main Road	ရန်ကုန်-ပြည်လမ်းမကြီး	Taik Kyi	တိုက်ကြီး	17.21173498235108	95.96131280064584
90	11	1776	Ywar Lal	ရွာလယ်	Yangon-Pyay Main Road	ရန်ကုန်-ပြည်လမ်းမကြီး	Taik Kyi	တိုက်ကြီး	17.20873	95.962007
90	12	1774	Myauk Chaw Kone	မျောက်ချောကုန်း	Yangon-Pyay Main Road	ရန်ကုန်-ပြည်လမ်းမကြီး	Taik Kyi	တိုက်ကြီး	17.202007	95.961835
90	13	1772	Myaung Takar Yae Kyaw	မြောင်းတကာရေကျော်	Yangon-Pyay Main Road	ရန်ကုန်-ပြည်လမ်းမကြီး	Taik Kyi	တိုက်ကြီး	17.187084	95.968745
90	14	1770	Myaung Takar Sein Kalar	မြောင်းတကာစိန်ကုလား	Yangon-Pyay Main Road	ရန်ကုန်-ပြည်လမ်းမကြီး	Taik Kyi	တိုက်ကြီး	17.182774011520696	95.97171960398556
90	15	1768	Myaung Takar Tar Sone	မြောင်းတကာတာဆုံ	Yangon-Pyay Main Road	ရန်ကုန်-ပြည်လမ်းမကြီး	Taik Kyi	တိုက်ကြီး	17.181792533458292	95.97454715520146
90	16	1766	Kywe Lan	ကျွဲလမ်း	Yangon-Pyay Main Road	ရန်ကုန်-ပြည်လမ်းမကြီး	Hmaw Bi	မှော်ဘီ	17.179335	95.980933
90	17	1763	Nat Sin Lan	နတ်စင်လမ်း	Yangon-Pyay Main Road	ရန်ကုန်-ပြည်လမ်းမကြီး	Hmaw Bi	မှော်ဘီ	17.178187	95.981877
90	18	1762	Than-Ma-Ni Sat Yon	သံမဏိစက်ရုံ	Yangon-Pyay Main Road	ရန်ကုန်-ပြည်လမ်းမကြီး	Hmaw Bi	မှော်ဘီ	17.177285	95.982521
90	19	1760	Pha-Ye Khinn	ဖရဲခင်း	Yangon-Pyay Main Road	ရန်ကုန်-ပြည်လမ်းမကြီး	Hmaw Bi	မှော်ဘီ	17.175604	95.984581
90	20	1758	Hmaw Bi)	ဆောက်လုပ်ရေး (မှော်ဘီ) (Sauk Lote Yae	Yangon-Pyay Main Road	ရန်ကုန်-ပြည်လမ်းမကြီး	Hmaw Bi	မှော်ဘီ	17.173062	95.988915
90	21	1756	Chan Aye	ချမ်းအေး	Yangon-Pyay Main Road	ရန်ကုန်-ပြည်လမ်းမကြီး	Hmaw Bi	မှော်ဘီ	17.170848	95.991361
90	22	1754	Sauk Lote Yae Thit	ဆောက်လုပ်ရေးသစ်	Yangon-Pyay Main Road	ရန်ကုန်-ပြည်လမ်းမကြီး	Hmaw Bi	မှော်ဘီ	17.168962	95.993679
90	23	1752	Kyat Chan Pauk	ကြက်ခြံပေါက်	Yangon-Pyay Main Road	ရန်ကုန်-ပြည်လမ်းမကြီး	Hmaw Bi	မှော်ဘီ	17.168101	95.99458
90	24	1750	Kalar Kone	ကုလားကုန်း	Yangon-Pyay Main Road	ရန်ကုန်-ပြည်လမ်းမကြီး	Hmaw Bi	မှော်ဘီ	17.16401660313842	95.99530946463348
90	25	1748	Site Thit	ဆိုက်သစ်	Yangon-Pyay Main Road	ရန်ကုန်-ပြည်လမ်းမကြီး	Hmaw Bi	မှော်ဘီ	17.161089	95.995867
90	26	1746	Mani	မနီ	Yangon-Pyay Main Road	ရန်ကုန်-ပြည်လမ်းမကြီး	Hmaw Bi	မှော်ဘီ	17.156578	95.996726
90	27	1744	Say War	ဆေးဝါး	Yangon-Pyay Main Road	ရန်ကုန်-ပြည်လမ်းမကြီး	Hmaw Bi	မှော်ဘီ	17.15379	95.997155
90	28	1742	Baw Lone Ye Gate	ဘောလုံးရဲဂိတ်	Yangon-Pyay Main Road	ရန်ကုန်-ပြည်လမ်းမကြီး	Hmaw Bi	မှော်ဘီ	17.152068	95.997369
90	29	1739	Baw Lone Sat Yone	ဘောလုံးစက်ရုံ	Yangon-Pyay Main Road	ရန်ကုန်-ပြည်လမ်းမကြီး	Hmaw Bi	မှော်ဘီ	17.14983882713286	95.99777630064638
90	30	1738	Phanat Sat	ဖိနပ်စက်	Yangon-Pyay Main Road	ရန်ကုန်-ပြည်လမ်းမကြီး	Hmaw Bi	မှော်ဘီ	17.148787	95.997884
90	31	1736	Equator	အီကွေတာ	Yangon-Pyay Main Road	ရန်ကုန်-ပြည်လမ်းမကြီး	Hmaw Bi	မှော်ဘီ	17.142266718368305	95.99909703712912
90	32	1734	Japan Site	ဂျပန်ဆိုက်	Yangon-Pyay Main Road	ရန်ကုန်-ပြည်လမ်းမကြီး	Hmaw Bi	မှော်ဘီ	17.140705952006762	95.99953004624696
90	33	1731	Lan Ni Lay	လမ်းနီလေး	Yangon-Pyay Main Road	ရန်ကုန်-ပြည်လမ်းမကြီး	Hmaw Bi	မှော်ဘီ	17.138494	96.000416
90	34	1729	Myo Chaung	မြို့ချောင်း	Yangon-Pyay Main Road	ရန်ကုန်-ပြည်လမ်းမကြီး	Hmaw Bi	မှော်ဘီ	17.137018	96.00106
90	35	1727	Oak Set	အုတ်စက်	Yangon-Pyay Main Road	ရန်ကုန်-ပြည်လမ်းမကြီး	Hmaw Bi	မှော်ဘီ	17.133655	96.00239
90	36	1724	Aung Chan Thar	အောင်ချမ်းသာ	Yangon-Pyay Main Road	ရန်ကုန်-ပြည်လမ်းမကြီး	Hmaw Bi	မှော်ဘီ	17.131112	96.003549
90	37	1723	G.T.C Alal Pauk	ဂျီတီစီအလယ်ပေါက်	Yangon-Pyay Main Road	ရန်ကုန်-ပြည်လမ်းမကြီး	Hmaw Bi	မှော်ဘီ	17.129102	96.00445
90	38	1721	G.T.C Yae Oh	ဂျီတီစီရေအိုး	Yangon-Pyay Main Road	ရန်ကုန်-ပြည်လမ်းမကြီး	Hmaw Bi	မှော်ဘီ	17.127175	96.005266
90	39	1719	G.T.C Site Thit	ဂျီတီစီဆိုက်သစ်	Yangon-Pyay Main Road	ရန်ကုန်-ပြည်လမ်းမကြီး	Hmaw Bi	မှော်ဘီ	17.124304	96.006424
90	40	1717	Own Chan	အုန်းခြံ	Yangon-Pyay Main Road	ရန်ကုန်-ပြည်လမ်းမကြီး	Hmaw Bi	မှော်ဘီ	17.120695	96.008012
90	41	1715	Daung Lay Kwae	ဒေါင်းလေးကွေ့	Yangon-Pyay Main Road	ရန်ကုန်-ပြည်လမ်းမကြီး	Hmaw Bi	မှော်ဘီ	17.115322	96.01033
90	42	1713	U Thu Mingala	ဦးသုမင်္ဂလ	Yangon-Pyay Main Road	ရန်ကုန်-ပြည်လမ်းမကြီး	Hmaw Bi	မှော်ဘီ	17.110105616314655	96.01464559324089
90	43	1710	Su Paung Yone	စုပေါင်းရုံး	Yangon-Pyay Main Road	ရန်ကုန်-ပြည်လမ်းမကြီး	Hmaw Bi	မှော်ဘီ	17.105247484835537	96.01937776431444
90	44	1708	Htan Ta Pin Tar Sone	ထန်းတပင်တာဆုံ	Yangon-Pyay Main Road	ရန်ကုန်-ပြည်လမ်းမကြီး	Hmaw Bi	မှော်ဘီ	17.097623	96.036147
90	45	1707	Hmaw Bi)	မီးစက် (မှော်ဘီ) (Mee Sat	Yangon-Pyay Main Road	ရန်ကုန်-ပြည်လမ်းမကြီး	Hmaw Bi	မှော်ဘီ	17.098033	96.038142
90	46	1705	Thayet Taw Pauk	သရက်တောပေါက်	Yangon-Pyay Main Road	ရန်ကုန်-ပြည်လမ်းမကြီး	Hmaw Bi	မှော်ဘီ	17.098981026611735	96.03889339137824
90	47	1703	Hmaw Bi Kar Lay Gate	မှော်ဘီကားလေးဂိတ်	Yangon-Pyay Main Road	ရန်ကုန်-ပြည်လမ်းမကြီး	Hmaw Bi	မှော်ဘီ	17.10053631487457	96.04010650422427
90	48	1701	Hmaw Bi Zay	မှော်ဘီဈေး	Yangon-Pyay Main Road	ရန်ကုန်-ပြည်လမ်းမကြီး	Hmaw Bi	မှော်ဘီ	17.100765899750144	96.04262164095418
90	49	1699	Yoke Shin Yon	ရုပ်ရှင်ရုံ	Yangon-Pyay Main Road	ရန်ကုန်-ပြည်လမ်းမကြီး	Hmaw Bi	မှော်ဘီ	17.100894	96.04603
90	50	1697	A Hmat Lay	အမှတ် (၄)	Yangon-Pyay Main Road	ရန်ကုန်-ပြည်လမ်းမကြီး	Hmaw Bi	မှော်ဘီ	17.10361280479879	96.04985088575633
90	51	1695	Yone Pauk	ရုံးပေါက်	Yangon-Pyay Main Road	ရန်ကုန်-ပြည်လမ်းမကြီး	Htauk Kyant	ထောက်ကြန့်	17.106032	96.052519
90	52	1693	Sae-Chauk Gate	(၁၆) ဂိတ်	Yangon-Pyay Main Road	ရန်ကုန်-ပြည်လမ်းမကြီး	Htauk Kyant	ထောက်ကြန့်	17.106545	96.053785
90	53	1691	Supplies	ဆပ်ပလိုင်း	Yangon-Pyay Main Road	ရန်ကုန်-ပြည်လမ်းမကြီး	Htauk Kyant	ထောက်ကြန့်	17.106442	96.060094
90	54	1687	Lay Tat	လေတပ်	Yangon-Pyay Main Road	ရန်ကုန်-ပြည်လမ်းမကြီး	Htauk Kyant	ထောက်ကြန့်	17.108718	96.073033
90	55	1685	Maw Taw Yin	မော်တော်ယာဉ်	Yangon-Pyay Main Road	ရန်ကုန်-ပြည်လမ်းမကြီး	Htauk Kyant	ထောက်ကြန့်	17.108185	96.074188
90	56	1683	Say Tat	ဆေးတပ်	Yangon-Pyay Main Road	ရန်ကုန်-ပြည်လမ်းမကြီး	Htauk Kyant	ထောက်ကြန့်	17.106627	96.076248
90	57	1681	Bo Thin Tan	ဗိုလ်သင်တန်း	Yangon-Pyay Main Road	ရန်ကုန်-ပြည်လမ်းမကြီး	Htauk Kyant	ထောက်ကြန့်	17.105355	96.077921
90	58	1679	Set Thwe Yae	ဆက်သွယ်ရေး	Yangon-Pyay Main Road	ရန်ကုန်-ပြည်လမ်းမကြီး	Htauk Kyant	ထောက်ကြန့်	17.10433	96.079509
90	59	1677	Koe-Sae-Tit Gate	(၉၁) ဂိတ်	Yangon-Pyay Main Road	ရန်ကုန်-ပြည်လမ်းမကြီး	Htauk Kyant	ထောက်ကြန့်	17.100884	96.084144
90	60	1675	Sae-Thit Taw	ဆယ့်တစ်တော	Yangon-Pyay Main Road	ရန်ကုန်-ပြည်လမ်းမကြီး	Htauk Kyant	ထောက်ကြန့်	17.09789	96.088436
90	61	1673	Main Ma Line	မိန်းမလိုင်း	Yangon-Pyay Main Road	ရန်ကုန်-ပြည်လမ်းမကြီး	Htauk Kyant	ထောက်ကြန့်	17.096659	96.090753
90	62	1671	San Chaung Pauk	စမ်းချောင်းပေါက်	Yangon-Pyay Main Road	ရန်ကုန်-ပြည်လမ်းမကြီး	Htauk Kyant	ထောက်ကြန့်	17.095716	96.092513
90	63	1669	Ye Baw Zay	ရဲဘော်ဈေး	Yangon-Pyay Main Road	ရန်ကုန်-ပြည်လမ်းမကြီး	Htauk Kyant	ထောက်ကြန့်	17.094129775295237	96.09478605911137
90	64	1667	Kyat Phyu Kan	ကြက်ဖြူကန်	Yangon-Pyay Main Road	ရန်ကုန်-ပြည်လမ်းမကြီး	Htauk Kyant	ထောက်ကြန့်	17.086257894915484	96.10054895281795
90	65	1665	Say Khan	ဆေးခန်း	Yangon-Pyay Main Road	ရန်ကုန်-ပြည်လမ်းမကြီး	Htauk Kyant	ထောက်ကြန့်	17.08319431832644	96.10276043415071
90	66	1662	Mee Sat	မီးစက်	Yangon-Pyay Main Road	ရန်ကုန်-ပြည်လမ်းမကြီး	Htauk Kyant	ထောက်ကြန့်	17.076985087829687	96.1072783637792
90	67	1660	Ta-Sae-Ngar	တစ်ဆယ့်ငါး	Yangon-Pyay Main Road	ရန်ကုန်-ပြည်လမ်းမကြီး	Htauk Kyant	ထောက်ကြန့်	17.07418	96.108813
90	68	1659	Yoke Than	ရုပ်သံ	Yangon-Pyay Main Road	ရန်ကုန်-ပြည်လမ်းမကြီး	Htauk Kyant	ထောက်ကြန့်	17.069564	96.11185
90	69	1657	Hnit Gate	(၂) ဂိတ်	Yangon-Pyay Main Road	ရန်ကုန်-ပြည်လမ်းမကြီး	Htauk Kyant	ထောက်ကြန့်	17.065646	96.115859
90	70	1655	Yae Oh Sin	ရေအိုးစင်	Yangon-Pyay Main Road	ရန်ကုန်-ပြည်လမ်းမကြီး	Htauk Kyant	ထောက်ကြန့်	17.064375	96.116889
90	71	1653	Kyant Khaing Yae	ကြံ့ခိုင်ရေး	Yangon-Pyay Main Road	ရန်ကုန်-ပြည်လမ်းမကြီး	Htauk Kyant	ထောက်ကြန့်	17.060764	96.117232
90	72	1650	Sauk Lote Yae	ဆောက်လုပ်ရေး	Yangon-Pyay Main Road	ရန်ကုန်-ပြည်လမ်းမကြီး	Htauk Kyant	ထောက်ကြန့်	17.057523	96.118519
90	73	1649	Shit-Sae-Hnit	-၈၂	Yangon-Pyay Main Road	ရန်ကုန်-ပြည်လမ်းမကြီး	Htauk Kyant	ထောက်ကြန့်	17.055089805976248	96.1194466240704
90	74	1646	Nine Gate	(၉) ဂိတ်	Yangon-Pyay Main Road	ရန်ကုန်-ပြည်လမ်းမကြီး	Htauk Kyant	ထောက်ကြန့်	17.0519248486086	96.11956057604404
90	75	1644	Gate Haung	ဂိတ်ဟောင်း	Yangon-Pyay Main Road	ရန်ကုန်-ပြည်လမ်းမကြီး	Htauk Kyant	ထောက်ကြန့်	17.044148	96.126373
90	76	1487	Htauk Kyant Lan Sone	ထောက်ကြန့်လမ်းဆုံ	No. 2 Main Road	အမှတ်(၂)လမ်းမ	Htauk Kyant	ထောက်ကြန့်	17.04265	96.131818
90	77	2207	Lan Thit	လမ်းသစ်	No. 1 Main Road	အမှတ်(၁)လမ်းမ	Mingalardon	မင်္ဂလာဒုံ	17.037797820068036	96.13129090284932
90	78	1468	Kyaung Shae	ကျောင်းရှေ့	No. 1 Main Road	အမှတ်(၁)လမ်းမ	Mingalardon	မင်္ဂလာဒုံ	17.03111213172036	96.13192968769
90	79	63	Nwe Khwe	နွယ်ခွေ	No. 1 Main Road	အမှတ်(၁)လမ်းမ	Mingalardon	မင်္ဂလာဒုံ	17.022154029079687	96.13431618316102
90	80	1461	C.P Light	စီပီလိုက်	No. 1 Main Road	အမှတ်(၁)လမ်းမ	Mingalardon	မင်္ဂလာဒုံ	17.020660703118264	96.13338895607741
90	81	60	Daewoo	ဒေဝူး	No. 1 Main Road	အမှတ်(၁)လမ်းမ	Mingalardon	မင်္ဂလာဒုံ	17.01841052297509	96.13143829861659
90	82	1475	Seagull	ဆေးဂဲလ်	No. 1 Main Road	အမှတ်(၁)လမ်းမ	Mingalardon	မင်္ဂလာဒုံ	17.01645	96.128565
90	83	1473	Mwae Myu Yae	မွေးမြူရေး	No. 1 Main Road	အမှတ်(၁)လမ်းမ	Mingalardon	မင်္ဂလာဒုံ	17.013881748309583	96.12716292031111
90	84	1484	Yae Sin	ရေစင်	No. 1 Main Road	အမှတ်(၁)လမ်းမ	Mingalardon	မင်္ဂလာဒုံ	17.010048	96.127278
90	85	1463	Chan Pauk	ခြံပေါက်	No. 1 Main Road	အမှတ်(၁)လမ်းမ	Mingalardon	မင်္ဂလာဒုံ	17.008304	96.12717
90	86	1467	Kone Htate	ကုန်းထိပ်	No. 1 Main Road	အမှတ်(၁)လမ်းမ	Mingalardon	မင်္ဂလာဒုံ	17.004467	96.128899
90	87	1438	Paya Lay	ဘုရားလေး	No. 1 Main Road	အမှတ်(၁)လမ်းမ	Mingalardon	မင်္ဂလာဒုံ	16.996834	96.130217
90	88	1447	Ye Baw Haung	ရဲဘော်ဟောင်း	No. 1 Main Road	အမှတ်(၁)လမ်းမ	Mingalardon	မင်္ဂလာဒုံ	16.991488	96.130938
90	89	1443	Shan Su	ရှမ်းစု	No. 1 Main Road	အမှတ်(၁)လမ်းမ	Mingalardon	မင်္ဂလာဒုံ	16.98794828918517	96.1271884222515
90	90	1426	Bo Chan	ဘိုခြံ	No. 1 Main Road	အမှတ်(၁)လမ်းမ	Mingalardon	မင်္ဂလာဒုံ	16.980232	96.126419
90	91	58	Tit Numpad	(၁) နံပါတ်	No. 1 Main Road	အမှတ်(၁)လမ်းမ	Mingalardon	မင်္ဂလာဒုံ	16.974884204079043	96.12405782332644
90	92	1444	Sin Min	ဆင်မင်း	No. 1 Main Road	အမှတ်(၁)လမ်းမ	Mingalardon	မင်္ဂလာဒုံ	16.970032	96.126548
90	93	1414	Yae Kyi I	ရေကြည်အိုင်	No. 1 Main Road	အမှတ်(၁)လမ်းမ	Mingalardon	မင်္ဂလာဒုံ	16.966603022677855	96.1274304497056
90	94	1412	Waryar Let	ဝါယာလက်	No. 1 Main Road	အမှတ်(၁)လမ်းမ	Mingalardon	မင်္ဂလာဒုံ	16.961805600297204	96.1267461720854
90	95	1408	Kyaikkalot	ကျိုက္ကလို့	No. 1 Main Road	အမှတ်(၁)လမ်းမ	Mingalardon	မင်္ဂလာဒုံ	16.952053	96.12702
90	96	1405	Kyaikkalei/ Suppaline	ကျိုက္ကလဲ့/ ဆပ်ပလိုင်း	No. 1 Main Road	အမှတ်(၁)လမ်းမ	Mingalardon	မင်္ဂလာဒုံ	16.944294	96.127986
90	97	50	Naing Ngan Yae	နိုင်ငံရေး	No. 1 Main Road	အမှတ်(၁)လမ်းမ	Mingalardon	မင်္ဂလာဒုံ	16.938629	96.129552
90	98	1410	Mingalardon Zay	မင်္ဂလာဒုံဈေး	No. 1 Main Road	အမှတ်(၁)လမ်းမ	Mingalardon	မင်္ဂလာဒုံ	16.93479	96.130131
90	99	1398	Khayae Pin Lan Khawe	ခရေပင်လမ်းခွဲ	No. 1 Main Road	အမှတ်(၁)လမ်းမ	Mingalardon	မင်္ဂလာဒုံ	16.92723344884106	96.13146262709053
90	100	1062	Sar Taik	စာတိုက်	No. 1 Main Road	အမှတ်(၁)လမ်းမ	Mingalardon	မင်္ဂလာဒုံ	16.923187459952388	96.1333077773452
90	101	1400	Say Kyaung	ဆေးကျောင်း	No. 1 Main Road	အမှတ်(၁)လမ်းမ	Mingalardon	မင်္ဂလာဒုံ	16.92033380801368	96.13393118826936
90	102	1393	B.O.C	ဘီအိုစီ	No. 1 Main Road	အမှတ်(၁)လမ်းမ	Mingalardon	မင်္ဂလာဒုံ	16.915950755971124	96.13451996818186
90	103	1374	Pan Chan Kone	ပန်းခြံကုန်း	No. 1 Main Road	အမှတ်(၁)လမ်းမ	Mingalardon	မင်္ဂလာဒုံ	16.911009816794227	96.13193050492556
90	104	1372	Kalar Paya	ကုလားဘုရား	No. 1 Main Road	အမှတ်(၁)လမ်းမ	Mingalardon	မင်္ဂလာဒုံ	16.905906	96.128758
90	105	46	Htan Pin Kone	ထန်းပင်ကုန်း	No. 1 Main Road	အမှတ်(၁)လမ်းမ	Mingalardon	မင်္ဂလာဒုံ	16.900289331115886	96.1241097492166
90	106	2250	Saw Bwar Gyi Kone Lan Sone	စော်ဘွားကြီးကုန်းလမ်းဆုံ	Insein Butaryon Road	အင်းစိန်ဘူတာရုံလမ်း	Insein	အင်းစိန်	16.892777336089576	96.11948794685304
90	107	1339	Ar Lain Ngar Sint	အာလိန်ငါးဆင့်	Lan Thit Road	လမ်းသစ်လမ်း	Insein	အင်းစိန်	16.891479839530728	96.1165958759375
90	108	1354	Workshop	ဝပ်ရှော့	Lan Thit Road	လမ်းသစ်လမ်း	Insein	အင်းစိန်	16.891200332528562	96.11466914881022
90	109	1352	Oakyin Wa	အုတ်ကျင်းဝ	Lan Thit Road	လမ်းသစ်လမ်း	Insein	အင်းစိန်	16.890591511108763	96.11145546427
90	110	2196	Insein Pan Chan	အင်းစိန်ပန်းခြံ	Lan Thit Road	လမ်းသစ်လမ်း	Insein	အင်းစိန်	16.888589689064485	96.10769888386132
90	111	1345	Insein Pan Chan	အင်းစိန်ပန်းခြံ	Min Gyi Road	မင်းကြီးလမ်း	Insein	အင်းစိန်	16.887531514108538	96.10758610535414
90	112	1342	B.O.C	ဘီအိုစီ	Yangon-Insein Road	ရန်ကုန်-အင်းစိန်လမ်း	Insein	အင်းစိန်	16.884919917579392	96.10990806017071
90	113	1313	Kyoe Kone	ကြို့ကုန်း	Yangon-Insein Road	ရန်ကုန်-အင်းစိန်လမ်း	Insein	အင်းစိန်	16.878436988253824	96.11263456754386
90	114	1310	B.P.I	ဘီပီအိုင်	Yangon-Insein Road	ရန်ကုန်-အင်းစိန်လမ်း	Insein	အင်းစိန်	16.874841	96.116313
90	115	1253	Kha Wae Chan	ခဝဲခြံ	Yangon-Insein Road	ရန်ကုန်-အင်းစိန်လမ်း	Mayangone	မရမ်းကုန်း	16.869274405472567	96.11956872744487
90	116	1251	Kalar Kyaung	ကုလားကျောင်း	Yangon-Insein Road	ရန်ကုန်-အင်းစိန်လမ်း	Mayangone	မရမ်းကုန်း	16.865467614374143	96.12075034528971
90	117	1223	Thamine Lan Son	သမိုင်းလမ်းဆုံ	Yangon-Insein Road	ရန်ကုန်-အင်းစိန်လမ်း	Mayangone	မရမ်းကုန်း	16.86102136801801	96.12232748419049
90	118	1219	Paya Lan	ဘုရားလမ်း	Yangon-Insein Road	ရန်ကုန်-အင်းစိန်လမ်း	Hlaing	လှိုင်	16.858449573541584	96.1232297960669
90	119	1218	Oakyin	အုတ်ကျင်း	Yangon-Insein Road	ရန်ကုန်-အင်းစိန်လမ်း	Hlaing	လှိုင်	16.85535357935823	96.12357353791595
90	120	1211	Bartar	ဘာတာ	Yangon-Insein Road	ရန်ကုန်-အင်းစိန်လမ်း	Hlaing	လှိုင်	16.852028788549283	96.12414786592129
90	121	1180	Than Lan	သံလမ်း	Yangon-Insein Road	ရန်ကုန်-အင်းစိန်လမ်း	Hlaing	လှိုင်	16.846071	96.125475
90	122	1182	Thukha	သုခ	Yangon-Insein Road	ရန်ကုန်-အင်းစိန်လမ်း	Hlaing	လှိုင်	16.840511	96.12683
90	123	1171	Butar Yon Lan	ဘူတာရုံလမ်း	Yangon-Insein Road	ရန်ကုန်-အင်းစိန်လမ်း	Hlaing	လှိုင်	16.837466	96.127449
90	124	1176	Sin Yae Twin	ဆင်ရေတွင်း	Yangon-Insein Road	ရန်ကုန်-အင်းစိန်လမ်း	Kamayut	ကမာရွတ်	16.833769	96.128565
90	125	1174	San Yeik Nyein	စံရိပ်ငြိမ်	Yangon-Insein Road	ရန်ကုန်-အင်းစိန်လမ်း	Kamayut	ကမာရွတ်	16.83080186323241	96.12952651223169
90	126	288	Hledan	လှည်းတန်း	Yangon-Insein Road	ရန်ကုန်-အင်းစိန်လမ်း	Kamayut	ကမာရွတ်	16.827968991730348	96.13019763026388
90	127	290	Hledan Zay	လှည်းတန်းဈေး	Hledan Road	လှည်းတန်းလမ်း	Kamayut	ကမာရွတ်	16.826593902284788	96.12880632519592
90	128	295	Kyaung Shae/ Kone Sin	ကျောင်းရှေ့/ကုန်းဆင်း	Hledan Road	လှည်းတန်းလမ်း	Kamayut	ကမာရွတ်	16.825525	96.126583
90	129	284	Hantharwaddy	ဟံသာဝတီ	Upper Kyee Myin Daing Road	အထက်ကြည့်မြင်တိုင်လမ်း	Kyee Myin Daing	ကြည့်မြင်တိုင်	16.816320576623713	96.12593807280065
90	130	279	Nat Sin Lan	နတ်စင်လမ်း	Upper Kyee Myin Daing Road	အထက်ကြည့်မြင်တိုင်လမ်း	Kyee Myin Daing	ကြည့်မြင်တိုင်	16.8145082067416	96.12593155587093
90	131	300	Salin Kwin	စလင်းကွင်း	Upper Kyee Myin Daing Road	အထက်ကြည့်မြင်တိုင်လမ်း	Kyee Myin Daing	ကြည့်မြင်တိုင်	16.812730481580218	96.12592935562135
90	132	250	Kyee Myin Daing Nya Zay	ကြည်မြင်တိုင်ညဈေး	Upper Kyee Myin Daing Road	အထက်ကြည့်မြင်တိုင်လမ်း	Kyee Myin Daing	ကြည့်မြင်တိုင်	16.809933587198	96.12593092722818
90	133	256	Kyee Myin Daing Butar	ကြည့်မြင်တိုင်ဘူတာ	Upper Kyee Myin Daing Road	အထက်ကြည့်မြင်တိုင်လမ်း	Kyee Myin Daing	ကြည့်မြင်တိုင်	16.806301299283557	96.12574257194865
90	134	247	Kyaung Shae	ကျောင်းရှေ့	Lower Kyee Myin Daing Road	အောက်ကြည့်မြင်တိုင်လမ်း	Kyee Myin Daing	ကြည့်မြင်တိုင်	16.80060702485202	96.12604542402553
90	135	244	Home Lan	ဟုမ်းလမ်း	Lower Kyee Myin Daing Road	အောက်ကြည့်မြင်တိုင်လမ်း	Kyee Myin Daing	ကြည့်မြင်တိုင်	16.797192	96.126132
90	136	97	White Taw	ဝှိုက်တော	Lower Kyee Myin Daing Road	အောက်ကြည့်မြင်တိုင်လမ်း	Ahlone	အလုံ	16.793536	96.126588
90	137	95	Sin Min Zay	ဆင်မင်းဈေး	Lower Kyee Myin Daing Road	အောက်ကြည့်မြင်တိုင်လမ်း	Ahlone	အလုံ	16.790543070149177	96.12796158995481
90	138	93	Chan Mar Phee	ချန်မာဖီ	Lower Kyee Myin Daing Road	အောက်ကြည့်မြင်တိုင်လမ်း	Ahlone	အလုံ	16.78735983441184	96.12950640221246
90	139	99	Ahlone Sar Taik	အလုံစာတိုက်	Lower Kyee Myin Daing Road	အောက်ကြည့်မြင်တိုင်လမ်း	Ahlone	အလုံ	16.785148945106275	96.13131663529204
90	140	109	Jama Khar Nar	ဂျမခါနာ	Lower Kyee Myin Daing Road	အောက်ကြည့်မြင်တိုင်လမ်း	Ahlone	အလုံ	16.783082370652377	96.13320021657276
90	141	2428	Thakhin Mya Pan Cha	သခင်မြပန်းခြံ	Thakhin Mya Garden Street	သခင်မြပန်းခြံလမ်း	Ahlone	အလုံ	16.78025803527	96.1350983195007
90	142	110	Jama Khar Nar	ဂျမခါနာ	Lower Kyee Myin Daing Road	အောက်ကြည့်မြင်တိုင်လမ်း	Ahlone	အလုံ	16.783100366432155	96.13329419866206
90	143	100	Ahlone Sar Taik	အလုံစာတိုက်	Lower Kyee Myin Daing Road	အောက်ကြည့်မြင်တိုင်လမ်း	Ahlone	အလုံ	16.785382566574427	96.13126657437533
90	144	94	Chan Mar Phee	ချန်မာဖီ	Lower Kyee Myin Daing Road	အောက်ကြည့်မြင်တိုင်လမ်း	Ahlone	အလုံ	16.78753614374465	96.12954945769162
90	145	96	Sin Min Zay	ဆင်မင်းဈေး	Lower Kyee Myin Daing Road	အောက်ကြည့်မြင်တိုင်လမ်း	Ahlone	အလုံ	16.790742	96.12801
90	146	98	White Taw	ဝှိုက်တော	Lower Kyee Myin Daing Road	အောက်ကြည့်မြင်တိုင်လမ်း	Ahlone	အလုံ	16.793685501607825	96.12661432474853
90	147	245	Home Lan	ဟုမ်းလမ်း	Lower Kyee Myin Daing Road	အောက်ကြည့်မြင်တိုင်လမ်း	Kyee Myin Daing	ကြည့်မြင်တိုင်	16.7980176794345	96.12623665714638
90	148	246	Kyaung Shae	ကျောင်းရှေ့	Lower Kyee Myin Daing Road	အောက်ကြည့်မြင်တိုင်လမ်း	Kyee Myin Daing	ကြည့်မြင်တိုင်	16.80036473598132	96.12621706444772
90	149	257	Kyee Myin Daing Butar	ကြည့်မြင်တိုင်ဘူတာ	Upper Kyee Myin Daing Road	အထက်ကြည့်မြင်တိုင်လမ်း	Kyee Myin Daing	ကြည့်မြင်တိုင်	16.806369318492735	96.12588311894798
90	150	251	Kyee Myin Daing Nya Zay	ကြည်မြင်တိုင်ညဈေး	Upper Kyee Myin Daing Road	အထက်ကြည့်မြင်တိုင်လမ်း	Kyee Myin Daing	ကြည့်မြင်တိုင်	16.809454549304007	96.1260079778731
90	151	299	Salin Kwin	စလင်းကွင်း	Upper Kyee Myin Daing Road	အထက်ကြည့်မြင်တိုင်လမ်း	Kyee Myin Daing	ကြည့်မြင်တိုင်	16.81202472257673	96.12604951020332
90	152	280	Nat Sin Lan	နတ်စင်လမ်း	Upper Kyee Myin Daing Road	အထက်ကြည့်မြင်တိုင်လမ်း	Kyee Myin Daing	ကြည့်မြင်တိုင်	16.81446189081883	96.12602310720831
90	153	283	Hantharwaddy	ဟံသာဝတီ	Upper Kyee Myin Daing Road	အထက်ကြည့်မြင်တိုင်လမ်း	Kyee Myin Daing	ကြည့်မြင်တိုင်	16.81622872794096	96.12603888614106
90	154	296	Kyaung Shae/ Kone Sin	ကျောင်းရှေ့/ကုန်းဆင်း	Hledan Road	လှည်းတန်းလမ်း	Kamayut	ကမာရွတ်	16.82535746158587	96.12666466528029
90	155	289	Hledan Zay	လှည်းတန်းဈေး	Hledan Road	လှည်းတန်းလမ်း	Kamayut	ကမာရွတ်	16.826457	96.128887
90	156	287	Hledan	လှည်းတန်း	Yangon-Insein Road	ရန်ကုန်-အင်းစိန်လမ်း	Kamayut	ကမာရွတ်	16.827952	96.130435
90	157	1175	San Yeik Nyein	စံရိပ်ငြိမ်	Yangon-Insein Road	ရန်ကုန်-အင်းစိန်လမ်း	Kamayut	ကမာရွတ်	16.831942429089896	96.12954480573538
90	158	1177	Sin Yae Twin	ဆင်ရေတွင်း	Yangon-Insein Road	ရန်ကုန်-အင်းစိန်လမ်း	Kamayut	ကမာရွတ်	16.834325849790382	96.12863868009302
90	159	1170	Butar Yon Lan	ဘူတာရုံလမ်း	Yangon-Insein Road	ရန်ကုန်-အင်းစိန်လမ်း	Hlaing	လှိုင်	16.83729665475637	96.1277522519231
90	160	1181	Thukha	သုခ	Yangon-Insein Road	ရန်ကုန်-အင်းစိန်လမ်း	Hlaing	လှိုင်	16.84047	96.127017
90	161	1179	Than Lan	သံလမ်း	Yangon-Insein Road	ရန်ကုန်-အင်းစိန်လမ်း	Hlaing	လှိုင်	16.845174404267453	96.1259302776307
90	162	1212	Bartar	ဘာတာ	Yangon-Insein Road	ရန်ကုန်-အင်းစိန်လမ်း	Hlaing	လှိုင်	16.851150141657822	96.12455583410339
90	163	1217	Oakyin	အုတ်ကျင်း	Yangon-Insein Road	ရန်ကုန်-အင်းစိန်လမ်း	Hlaing	လှိုင်	16.854916470149714	96.12391686066985
90	164	2392	Paya Lan	ဘုရားလမ်း	Yangon-Insein Road	ရန်ကုန်-အင်းစိန်လမ်း	Hlaing	လှိုင်	16.8577458299178	96.1235475540161
90	165	2402	Thamine Lan Son	သမိုင်းလမ်းဆုံ	Yangon-Insein Road	ရန်ကုန်-အင်းစိန်လမ်း	Mayangone	မရမ်းကုန်း	16.8633007849722	96.1216056346893
90	166	1250	Kalar Kyaung	ကုလားကျောင်း	Yangon-Insein Road	ရန်ကုန်-အင်းစိန်လမ်း	Mayangone	မရမ်းကုန်း	16.864784	96.121143
90	167	1252	Kha Wae Chan	ခဝဲခြံ	Yangon-Insein Road	ရန်ကုန်-အင်းစိန်လမ်း	Mayangone	မရမ်းကုန်း	16.869492	96.119748
90	168	1311	B.P.I	ဘီပီအိုင်	Yangon-Insein Road	ရန်ကုန်-အင်းစိန်လမ်း	Insein	အင်းစိန်	16.875178616130857	96.11636074259879
90	169	1312	Kyoe Kone	ကြို့ကုန်း	Yangon-Insein Road	ရန်ကုန်-အင်းစိန်လမ်း	Insein	အင်းစိန်	16.8784827070093	96.11278095748277
90	170	1341	B.O.C	ဘီအိုစီ	Yangon-Insein Road	ရန်ကုန်-အင်းစိန်လမ်း	Insein	အင်းစိန်	16.884947027069753	96.11010398715734
90	171	1346	Insein Pan Chan	အင်းစိန်ပန်းခြံ	Min Gyi Road	မင်းကြီးလမ်း	Insein	အင်းစိန်	16.8876457653682	96.1077884444967
90	172	2195	Insein Pan Chan	အင်းစိန်ပန်းခြံ	Lan Thit Road	လမ်းသစ်လမ်း	Insein	အင်းစိန်	16.888464510569012	96.1078345659189
90	173	1351	Oakyin Wa	အုတ်ကျင်းဝ	Lan Thit Road	လမ်းသစ်လမ်း	Insein	အင်းစိန်	16.89040993100321	96.11139262095097
90	174	1353	Workshop	ဝပ်ရှော့	Lan Thit Road	လမ်းသစ်လမ်း	Insein	အင်းစိန်	16.891115999129372	96.11466250615196
90	175	1340	Ar Lain Ngar Sint	အာလိန်ငါးဆင့်	Lan Thit Road	လမ်းသစ်လမ်း	Insein	အင်းစိန်	16.89157790749199	96.11658990383148
90	176	2251	Saw Bwar Gyi Kone Lan Sone	စော်ဘွားကြီးကုန်းလမ်းဆုံ	Insein Butaryon Road	အင်းစိန်ဘူတာရုံလမ်း	Insein	အင်းစိန်	16.892179266895415	96.11907836515458
90	177	45	Htan Pin Kone	ထန်းပင်ကုန်း	No. 1 Main Road	အမှတ်(၁)လမ်းမ	Mingalardon	မင်္ဂလာဒုံ	16.90029241877987	96.1243827478029
90	178	1371	Kalar Paya	ကုလားဘုရား	No. 1 Main Road	အမှတ်(၁)လမ်းမ	Mingalardon	မင်္ဂလာဒုံ	16.905703933352523	96.12899553962053
90	179	1373	Pan Chan Kone	ပန်းခြံကုန်း	No. 1 Main Road	အမှတ်(၁)လမ်းမ	Mingalardon	မင်္ဂလာဒုံ	16.91071	96.131977
90	180	1394	B.O.C	ဘီအိုစီ	No. 1 Main Road	အမှတ်(၁)လမ်းမ	Mingalardon	မင်္ဂလာဒုံ	16.915565	96.134779
90	181	1399	Say Kyaung	ဆေးကျောင်း	No. 1 Main Road	အမှတ်(၁)လမ်းမ	Mingalardon	မင်္ဂလာဒုံ	16.92003	96.134199
90	182	1061	Sar Taik	စာတိုက်	No. 1 Main Road	အမှတ်(၁)လမ်းမ	Mingalardon	မင်္ဂလာဒုံ	16.923592	96.133438
90	183	1397	Khayae Pin Lan Khawe	ခရေပင်လမ်းခွဲ	No. 1 Main Road	အမှတ်(၁)လမ်းမ	Mingalardon	မင်္ဂလာဒုံ	16.927303171944107	96.13170620519669
90	184	1409	Mingalardon Zay	မင်္ဂလာဒုံဈေး	No. 1 Main Road	အမှတ်(၁)လမ်းမ	Mingalardon	မင်္ဂလာဒုံ	16.934113258597346	96.13039033021779
90	185	49	Naing Ngan Yae	နိုင်ငံရေး	No. 1 Main Road	အမှတ်(၁)လမ်းမ	Mingalardon	မင်္ဂလာဒုံ	16.938201990686245	96.12998129334301
90	186	1406	Kyaikkalei/ Suppaline	ကျိုက္ကလဲ့/ ဆပ်ပလိုင်း	No. 1 Main Road	အမှတ်(၁)လမ်းမ	Mingalardon	မင်္ဂလာဒုံ	16.94475703096777	96.1281180381775
90	187	1407	Kyaikkalot	ကျိုက္ကလို့	No. 1 Main Road	အမှတ်(၁)လမ်းမ	Mingalardon	မင်္ဂလာဒုံ	16.95112899826712	96.12703786231577
90	188	1411	Waryar Let	ဝါယာလက်	No. 1 Main Road	အမှတ်(၁)လမ်းမ	Mingalardon	မင်္ဂလာဒုံ	16.960714	96.127084
90	189	1413	Yae Kyi I	ရေကြည်အိုင်	No. 1 Main Road	အမှတ်(၁)လမ်းမ	Mingalardon	မင်္ဂလာဒုံ	16.965784	96.127299
90	190	1445	Sin Min	ဆင်မင်း	No. 1 Main Road	အမှတ်(၁)လမ်းမ	Mingalardon	မင်္ဂလာဒုံ	16.970278	96.126763
90	191	57	Tit Numpad	(၁) နံပါတ်	No. 1 Main Road	အမှတ်(၁)လမ်းမ	Mingalardon	မင်္ဂလာဒုံ	16.974734331301605	96.12423683982342
90	192	1427	Bo Chan	ဘိုခြံ	No. 1 Main Road	အမှတ်(၁)လမ်းမ	Mingalardon	မင်္ဂလာဒုံ	16.980499	96.12687
90	193	1442	Shan Su	ရှမ်းစု	No. 1 Main Road	အမှတ်(၁)လမ်းမ	Mingalardon	မင်္ဂလာဒုံ	16.987558	96.127256
90	194	1446	Ye Baw Haung	ရဲဘော်ဟောင်း	No. 1 Main Road	အမှတ်(၁)လမ်းမ	Mingalardon	မင်္ဂလာဒုံ	16.991406	96.13111
90	195	1439	Paya Lay	ဘုရားလေး	No. 1 Main Road	အမှတ်(၁)လမ်းမ	Mingalardon	မင်္ဂလာဒုံ	16.997059	96.130496
90	196	1466	Kone Htate	ကုန်းထိပ်	No. 1 Main Road	အမှတ်(၁)လမ်းမ	Mingalardon	မင်္ဂလာဒုံ	17.004641	96.129039
90	197	1462	Chan Pauk	ခြံပေါက်	No. 1 Main Road	အမှတ်(၁)လမ်းမ	Mingalardon	မင်္ဂလာဒုံ	17.00816	96.127514
90	198	1485	Yae Sin	ရေစင်	No. 1 Main Road	အမှတ်(၁)လမ်းမ	Mingalardon	မင်္ဂလာဒုံ	17.010217387377494	96.12759752199057
90	199	1472	Mwae Myu Yae	မွေးမြူရေး	No. 1 Main Road	အမှတ်(၁)လမ်းမ	Mingalardon	မင်္ဂလာဒုံ	17.01383916829909	96.12733674002813
90	200	1474	Seagull	ဆေးဂဲလ်	No. 1 Main Road	အမှတ်(၁)လမ်းမ	Mingalardon	မင်္ဂလာဒုံ	17.01631133764975	96.12807133002208
90	201	59	Daewoo	ဒေဝူး	No. 1 Main Road	အမှတ်(၁)လမ်းမ	Mingalardon	မင်္ဂလာဒုံ	17.01860552456344	96.13184257876128
90	202	1460	C.P Light	စီပီလိုက်	No. 1 Main Road	အမှတ်(၁)လမ်းမ	Mingalardon	မင်္ဂလာဒုံ	17.020607344781673	96.13362610107289
90	203	64	Nwe Khwe	နွယ်ခွေ	No. 1 Main Road	အမှတ်(၁)လမ်းမ	Mingalardon	မင်္ဂလာဒုံ	17.022236	96.134595
90	204	1469	Kyaung Shae	ကျောင်းရှေ့	No. 1 Main Road	အမှတ်(၁)လမ်းမ	Mingalardon	မင်္ဂလာဒုံ	17.03120950570694	96.1321399686858
90	205	2206	Lan Thit	လမ်းသစ်	No. 1 Main Road	အမှတ်(၁)လမ်းမ	Mingalardon	မင်္ဂလာဒုံ	17.03743217934309	96.13143140450121
90	206	1486	Htauk Kyant Lan Sone	ထောက်ကြန့်လမ်းဆုံ	No. 2 Main Road	အမှတ်(၂)လမ်းမ	Htauk Kyant	ထောက်ကြန့်	17.042732	96.131957
90	207	1645	Gate Haung	ဂိတ်ဟောင်း	Yangon-Pyay Main Road	ရန်ကုန်-ပြည်လမ်းမကြီး	Htauk Kyant	ထောက်ကြန့်	17.044476	96.126072
90	208	1647	Nine Gate	(၉) ဂိတ်	Yangon-Pyay Main Road	ရန်ကုန်-ပြည်လမ်းမကြီး	Htauk Kyant	ထောက်ကြန့်	17.051861	96.119764
90	209	1648	Shit-Sae-Hnit	-၈၂	Yangon-Pyay Main Road	ရန်ကုန်-ပြည်လမ်းမကြီး	Htauk Kyant	ထောက်ကြန့်	17.054992925228067	96.11984258517623
90	210	1651	Sauk Lote Yae	ဆောက်လုပ်ရေး	Yangon-Pyay Main Road	ရန်ကုန်-ပြည်လမ်းမကြီး	Htauk Kyant	ထောက်ကြန့်	17.057564	96.11882
90	211	1652	Kyant Khaing Yae	ကြံ့ခိုင်ရေး	Yangon-Pyay Main Road	ရန်ကုန်-ပြည်လမ်းမကြီး	Htauk Kyant	ထောက်ကြန့်	17.060272	96.117575
90	212	1654	Yae Oh Sin	ရေအိုးစင်	Yangon-Pyay Main Road	ရန်ကုန်-ပြည်လမ်းမကြီး	Htauk Kyant	ထောက်ကြန့်	17.064128	96.117232
90	213	1656	Hnit Gate	(၂) ဂိတ်	Yangon-Pyay Main Road	ရန်ကုန်-ပြည်လမ်းမကြီး	Htauk Kyant	ထောက်ကြန့်	17.065605	96.116331
90	214	1658	Yoke Than	ရုပ်သံ	Yangon-Pyay Main Road	ရန်ကုန်-ပြည်လမ်းမကြီး	Htauk Kyant	ထောက်ကြန့်	17.069667	96.112107
90	215	1661	Ta-Sae-Ngar	တစ်ဆယ့်ငါး	Yangon-Pyay Main Road	ရန်ကုန်-ပြည်လမ်းမကြီး	Htauk Kyant	ထောက်ကြန့်	17.07404485128371	96.10925464890899
90	216	1663	Mee Sat	မီးစက်	Yangon-Pyay Main Road	ရန်ကုန်-ပြည်လမ်းမကြီး	Htauk Kyant	ထောက်ကြန့်	17.076754091524922	96.10764662269504
90	217	1664	Say Khan	ဆေးခန်း	Yangon-Pyay Main Road	ရန်ကုန်-ပြည်လမ်းမကြီး	Htauk Kyant	ထောက်ကြန့်	17.083295711260682	96.10307911410929
90	218	1666	Kyat Phyu Kan	ကြက်ဖြူကန်	Yangon-Pyay Main Road	ရန်ကုန်-ပြည်လမ်းမကြီး	Htauk Kyant	ထောက်ကြန့်	17.086368940584222	96.10084087355064
90	219	1668	Ye Baw Zay	ရဲဘော်ဈေး	Yangon-Pyay Main Road	ရန်ကုန်-ပြည်လမ်းမကြီး	Htauk Kyant	ထောက်ကြန့်	17.094034	96.095166
90	220	1670	San Chaung Pauk	စမ်းချောင်းပေါက်	Yangon-Pyay Main Road	ရန်ကုန်-ပြည်လမ်းမကြီး	Htauk Kyant	ထောက်ကြန့်	17.095839	96.092856
90	221	1672	Main Ma Line	မိန်းမလိုင်း	Yangon-Pyay Main Road	ရန်ကုန်-ပြည်လမ်းမကြီး	Htauk Kyant	ထောက်ကြန့်	17.096823	96.091011
90	222	1674	Sae-Thit Taw	ဆယ့်တစ်တော	Yangon-Pyay Main Road	ရန်ကုန်-ပြည်လမ်းမကြီး	Htauk Kyant	ထောက်ကြန့်	17.097972	96.088865
90	223	1676	Koe-Sae-Tit Gate	(၉၁) ဂိတ်	Yangon-Pyay Main Road	ရန်ကုန်-ပြည်လမ်းမကြီး	Htauk Kyant	ထောက်ကြန့်	17.100925	96.084445
90	224	1678	Set Thwe Yae	ဆက်သွယ်ရေး	Yangon-Pyay Main Road	ရန်ကုန်-ပြည်လမ်းမကြီး	Htauk Kyant	ထောက်ကြန့်	17.104617	96.079381
90	225	1680	Bo Thin Tan	ဗိုလ်သင်တန်း	Yangon-Pyay Main Road	ရန်ကုန်-ပြည်လမ်းမကြီး	Htauk Kyant	ထောက်ကြန့်	17.10556	96.078222
90	226	1682	Say Tat	ဆေးတပ်	Yangon-Pyay Main Road	ရန်ကုန်-ပြည်လမ်းမကြီး	Htauk Kyant	ထောက်ကြန့်	17.106709	96.076505
90	227	1684	Maw Taw Yin	မော်တော်ယာဉ်	Yangon-Pyay Main Road	ရန်ကုန်-ပြည်လမ်းမကြီး	Htauk Kyant	ထောက်ကြန့်	17.108103	96.074531
90	228	1686	Lay Tat	လေတပ်	Yangon-Pyay Main Road	ရန်ကုန်-ပြည်လမ်းမကြီး	Htauk Kyant	ထောက်ကြန့်	17.109047	96.073097
90	229	1690	Supplies	ဆပ်ပလိုင်း	Yangon-Pyay Main Road	ရန်ကုန်-ပြည်လမ်းမကြီး	Htauk Kyant	ထောက်ကြန့်	17.106729	96.060115
90	230	1692	Sae-Chauk Gate	(၁၆) ဂိတ်	Yangon-Pyay Main Road	ရန်ကုန်-ပြည်လမ်းမကြီး	Htauk Kyant	ထောက်ကြန့်	17.106811	96.053828
90	231	1694	Yone Pauk	ရုံးပေါက်	Yangon-Pyay Main Road	ရန်ကုန်-ပြည်လမ်းမကြီး	Htauk Kyant	ထောက်ကြန့်	17.106256404915268	96.05255333706738
90	232	1696	A Hmat Lay	အမှတ် (၄)	Yangon-Pyay Main Road	ရန်ကုန်-ပြည်လမ်းမကြီး	Hmaw Bi	မှော်ဘီ	17.10382141656633	96.04968136176467
90	233	1698	Yoke Shin Yon	ရုပ်ရှင်ရုံ	Yangon-Pyay Main Road	ရန်ကုန်-ပြည်လမ်းမကြီး	Hmaw Bi	မှော်ဘီ	17.101048	96.046041
90	234	1700	Hmaw Bi Zay	မှော်ဘီဈေး	Yangon-Pyay Main Road	ရန်ကုန်-ပြည်လမ်းမကြီး	Hmaw Bi	မှော်ဘီ	17.100932775711676	96.04267161805183
90	235	1702	Hmaw Bi Kar Lay Gate	မှော်ဘီကားလေးဂိတ်	Yangon-Pyay Main Road	ရန်ကုန်-ပြည်လမ်းမကြီး	Hmaw Bi	မှော်ဘီ	17.10060881750042	96.04002813342959
90	236	1704	Thayet Taw Pauk	သရက်တောပေါက်	Yangon-Pyay Main Road	ရန်ကုန်-ပြည်လမ်းမကြီး	Hmaw Bi	မှော်ဘီ	17.09916200423804	96.03885521180929
90	237	1706	Hmaw Bi)	မီးစက် (မှော်ဘီ) (Mee Sat	Yangon-Pyay Main Road	ရန်ကုန်-ပြည်လမ်းမကြီး	Hmaw Bi	မှော်ဘီ	17.098238	96.037885
90	238	1709	Htan Ta Pin Tar Sone	ထန်းတပင်တာဆုံ	Yangon-Pyay Main Road	ရန်ကုန်-ပြည်လမ်းမကြီး	Hmaw Bi	မှော်ဘီ	17.097849	96.036361
90	239	1711	Su Paung Yone	စုပေါင်းရုံး	Yangon-Pyay Main Road	ရန်ကုန်-ပြည်လမ်းမကြီး	Hmaw Bi	မှော်ဘီ	17.10545224942925	96.01955965161325
90	240	1712	U Thu Mingala	ဦးသုမင်္ဂလ	Yangon-Pyay Main Road	ရန်ကုန်-ပြည်လမ်းမကြီး	Hmaw Bi	မှော်ဘီ	17.11025093452228	96.01492797955872
90	241	1714	Daung Lay Kwae	ဒေါင်းလေးကွေ့	Yangon-Pyay Main Road	ရန်ကုန်-ပြည်လမ်းမကြီး	Hmaw Bi	မှော်ဘီ	17.115281	96.01063
90	242	1716	Own Chan	အုန်းခြံ	Yangon-Pyay Main Road	ရန်ကုန်-ပြည်လမ်းမကြီး	Hmaw Bi	မှော်ဘီ	17.120777	96.008184
90	243	1718	G.T.C Site Thit	ဂျီတီစီဆိုက်သစ်	Yangon-Pyay Main Road	ရန်ကုန်-ပြည်လမ်းမကြီး	Hmaw Bi	မှော်ဘီ	17.124427	96.006639
90	244	1720	G.T.C Yae Oh	ဂျီတီစီရေအိုး	Yangon-Pyay Main Road	ရန်ကုန်-ပြည်လမ်းမကြီး	Hmaw Bi	မှော်ဘီ	17.126929	96.005523
90	245	1722	G.T.C Alal Pauk	ဂျီတီစီအလယ်ပေါက်	Yangon-Pyay Main Road	ရန်ကုန်-ပြည်လမ်းမကြီး	Hmaw Bi	မှော်ဘီ	17.12902	96.004665
90	246	1725	Aung Chan Thar	အောင်ချမ်းသာ	Yangon-Pyay Main Road	ရန်ကုန်-ပြည်လမ်းမကြီး	Hmaw Bi	မှော်ဘီ	17.131276	96.003807
90	247	1726	Oak Set	အုတ်စက်	Yangon-Pyay Main Road	ရန်ကုန်-ပြည်လမ်းမကြီး	Hmaw Bi	မှော်ဘီ	17.13377648762936	96.00268872454764
90	248	1728	Myo Chaung	မြို့ချောင်း	Yangon-Pyay Main Road	ရန်ကုန်-ပြည်လမ်းမကြီး	Hmaw Bi	မှော်ဘီ	17.137264	96.001232
90	249	1730	Lan Ni Lay	လမ်းနီလေး	Yangon-Pyay Main Road	ရန်ကုန်-ပြည်လမ်းမကြီး	Hmaw Bi	မှော်ဘီ	17.13836060281555	96.00069475360216
90	250	1733	Japan Site	ဂျပန်ဆိုက်	Yangon-Pyay Main Road	ရန်ကုန်-ပြည်လမ်းမကြီး	Hmaw Bi	မှော်ဘီ	17.140421310220514	95.9997989377007
90	251	1735	Equator	အီကွေတာ	Yangon-Pyay Main Road	ရန်ကုန်-ပြည်လမ်းမကြီး	Hmaw Bi	မှော်ဘီ	17.142307727230026	95.9992613643408
90	252	1737	Phanat Sat	ဖိနပ်စက်	Yangon-Pyay Main Road	ရန်ကုန်-ပြည်လမ်းမကြီး	Hmaw Bi	မှော်ဘီ	17.148815846994253	95.99817909300329
90	253	1740	Baw Lone Sat Yone	ဘောလုံးစက်ရုံ	Yangon-Pyay Main Road	ရန်ကုန်-ပြည်လမ်းမကြီး	Hmaw Bi	မှော်ဘီ	17.14992496624837	95.9979999717325
90	254	1741	Baw Lone Ye Gate	ဘောလုံးရဲဂိတ်	Yangon-Pyay Main Road	ရန်ကုန်-ပြည်လမ်းမကြီး	Hmaw Bi	မှော်ဘီ	17.152027	95.997713
90	255	1743	Say War	ဆေးဝါး	Yangon-Pyay Main Road	ရန်ကုန်-ပြည်လမ်းမကြီး	Hmaw Bi	မှော်ဘီ	17.153954	95.997455
90	256	1745	Mani	မနီ	Yangon-Pyay Main Road	ရန်ကုန်-ပြည်လမ်းမကြီး	Hmaw Bi	မှော်ဘီ	17.156414	95.997026
90	257	1747	Site Thit	ဆိုက်သစ်	Yangon-Pyay Main Road	ရန်ကုန်-ပြည်လမ်းမကြီး	Hmaw Bi	မှော်ဘီ	17.161007	95.996168
90	258	1749	Kalar Kone	ကုလားကုန်း	Yangon-Pyay Main Road	ရန်ကုန်-ပြည်လမ်းမကြီး	Hmaw Bi	မှော်ဘီ	17.164145701818732	95.99555367138238
90	259	1751	Kyat Chan Pauk	ကြက်ခြံပေါက်	Yangon-Pyay Main Road	ရန်ကုန်-ပြည်လမ်းမကြီး	Hmaw Bi	မှော်ဘီ	17.167854	95.994966
90	260	1753	Sauk Lote Yae Thit	ဆောက်လုပ်ရေးသစ်	Yangon-Pyay Main Road	ရန်ကုန်-ပြည်လမ်းမကြီး	Hmaw Bi	မှော်ဘီ	17.169048862448104	95.99382456857711
90	261	1755	Chan Aye	ချမ်းအေး	Yangon-Pyay Main Road	ရန်ကုန်-ပြည်လမ်းမကြီး	Hmaw Bi	မှော်ဘီ	17.170848	95.991747
90	262	1757	Hmaw Bi)	ဆောက်လုပ်ရေး (မှော်ဘီ) (Sauk Lote Yae	Yangon-Pyay Main Road	ရန်ကုန်-ပြည်လမ်းမကြီး	Hmaw Bi	မှော်ဘီ	17.173267	95.989044
90	263	1759	Pha-Ye Khinn	ဖရဲခင်း	Yangon-Pyay Main Road	ရန်ကုန်-ပြည်လမ်းမကြီး	Hmaw Bi	မှော်ဘီ	17.175809	95.984795
90	264	1761	Than-Ma-Ni Sat Yon	သံမဏိစက်ရုံ	Yangon-Pyay Main Road	ရန်ကုန်-ပြည်လမ်းမကြီး	Hmaw Bi	မှော်ဘီ	17.177449	95.982778
90	265	1764	Nat Sin Lan	နတ်စင်လမ်း	Yangon-Pyay Main Road	ရန်ကုန်-ပြည်လမ်းမကြီး	Hmaw Bi	မှော်ဘီ	17.178269	95.982091
90	266	1765	Kywe Lan	ကျွဲလမ်း	Yangon-Pyay Main Road	ရန်ကုန်-ပြည်လမ်းမကြီး	Hmaw Bi	မှော်ဘီ	17.179622	95.981019
90	267	1767	Myaung Takar Tar Sone	မြောင်းတကာတာဆုံ	Yangon-Pyay Main Road	ရန်ကုန်-ပြည်လမ်းမကြီး	Taik Kyi	တိုက်ကြီး	17.181918	95.97471
90	268	1769	Myaung Takar Sein Kalar	မြောင်းတကာစိန်ကုလား	Yangon-Pyay Main Road	ရန်ကုန်-ပြည်လမ်းမကြီး	Taik Kyi	တိုက်ကြီး	17.183038228546877	95.97183431033045
90	269	1771	Myaung Takar Yae Kyaw	မြောင်းတကာရေကျော်	Yangon-Pyay Main Road	ရန်ကုန်-ပြည်လမ်းမကြီး	Taik Kyi	တိုက်ကြီး	17.18733	95.969045
90	270	1773	Myauk Chaw Kone	မျောက်ချောကုန်း	Yangon-Pyay Main Road	ရန်ကုန်-ပြည်လမ်းမကြီး	Taik Kyi	တိုက်ကြီး	17.201679	95.962136
90	271	1775	Ywar Lal	ရွာလယ်	Yangon-Pyay Main Road	ရန်ကုန်-ပြည်လမ်းမကြီး	Taik Kyi	တိုက်ကြီး	17.208689	95.962265
90	272	1777	Gone Kwae	ကုန်းကွေ့	Yangon-Pyay Main Road	ရန်ကုန်-ပြည်လမ်းမကြီး	Taik Kyi	တိုက်ကြီး	17.21164290708464	95.96162066794932
90	273	1779	Kyun Chaung	ကျွန်းချောင်း	Yangon-Pyay Main Road	ရန်ကုန်-ပြည်လမ်းမကြီး	Taik Kyi	တိုက်ကြီး	17.214592	95.961921
90	274	1781	Nga-Pyaw Chan	ှုငှက်ပျောခြံ	Yangon-Pyay Main Road	ရန်ကုန်-ပြည်လမ်းမကြီး	Taik Kyi	တိုက်ကြီး	17.220126	95.962522
90	275	1783	Yone Htein Thone	ရုံးထိန်း (၃)	Yangon-Pyay Main Road	ရန်ကုန်-ပြည်လမ်းမကြီး	Taik Kyi	တိုက်ကြီး	17.226110891878175	95.96096792723985
90	276	1787	Inn Yat Kyee	အင်းယက်ကြီး	Yangon-Pyay Main Road	ရန်ကုန်-ပြည်လမ်းမကြီး	Taik Kyi	တိုက်ကြီး	17.254567824844774	95.95858491025866
90	277	1789	Kan Kone	ကန်ကုန်း	Yangon-Pyay Main Road	ရန်ကုန်-ပြည်လမ်းမကြီး	Taik Kyi	တိုက်ကြီး	17.268613	95.954711
90	278	1791	Taik Kyi Tar Gwa Tar Sone	တိုက်ကြီးတာခွ	Yangon-Pyay Main Road	ရန်ကုန်-ပြည်လမ်းမကြီး	Taik Kyi	တိုက်ကြီး	17.288078	95.97068
90	279	1793	Taik Kyi Phaung Gyi Lan Khwe	တိုက်ကြီးဖောင်ကြီးလမ်းခွဲ	Yangon-Pyay Main Road	ရန်ကုန်-ပြည်လမ်းမကြီး	Taik Kyi	တိုက်ကြီး	17.294142	95.975529
90	280	1795	Taik Kyi Khan Ma	တိုက်ကြီးခန်းမ	Yangon-Pyay Main Road	ရန်ကုန်-ပြည်လမ်းမကြီး	Taik Kyi	တိုက်ကြီး	17.311269	95.966341
90	281	1797	Taik Kyi Zay	တိုက်ကြီးဈေး	Yangon-Pyay Main Road	ရန်ကုန်-ပြည်လမ်းမကြီး	Taik Kyi	တိုက်ကြီး	17.313891	95.963622
