svc_name	sequence	stop_id	name_en	name_mm	road_en	road_mm	township_en	township_mm	lat	lng
59	1	663	Thein Kyaung	သိမ်ကျောင်း	Ayar Wun Main Road	ဧရာဝဏ်လမ်းမကြီး	Thaketa	သာကေတ	16.83794696402446	96.24378874199466
59	2	732	Ayar Wun	ဧရာဝဏ်	Maungmakan Kantha Road	မောင်းမကန်ကန်သာလမ်း	South Dagon	တောင်ဒဂုံ	16.849249782051785	96.24598773429172
59	3	730	Awaiyar	အဝေရာ	Maungmakan Kantha Road	မောင်းမကန်ကန်သာလမ်း	South Dagon	တောင်ဒဂုံ	16.85056291077779	96.24438039958478
59	4	2136	Phone Gyi Kyaung Kwae	ဘုန်းကြီးကျောင်းကွေ့	Maungmakan Kantha Road	မောင်းမကန်ကန်သာလမ်း	South Dagon	တောင်ဒဂုံ	16.85390842379656	96.24016143148766
59	5	724	Tadar Htate	တံတားထိပ်	Maungmakan Kantha Road	မောင်းမကန်ကန်သာလမ်း	South Dagon	တောင်ဒဂုံ	16.856038641124687	96.23746423982085
59	6	720	Sae-shit Kwae	(၁၈) ကွေ့	Si Pin Road	စည်ပင်လမ်း	South Dagon	တောင်ဒဂုံ	16.858028354459456	96.23452187748626
59	7	713	Kyan Mar Yae	ကျန်းမာရေး	Si Pin Road	စည်ပင်လမ်း	South Dagon	တောင်ဒဂုံ	16.856347660123912	96.23307824134828
59	8	714	Kyaung Shae	ကျောင်းရှေ့	Si Pin Road	စည်ပင်လမ်း	South Dagon	တောင်ဒဂုံ	16.854353757739055	96.23134559718892
59	9	688	Gate Haung	ဂိတ်ဟောင်း	Si Pin Road	စည်ပင်လမ်း	South Dagon	တောင်ဒဂုံ	16.852380771600217	96.2296228017658
59	10	692	Kone Padaythar	ကုန်ပဒေသာ	Si Pin Road	စည်ပင်လမ်း	South Dagon	တောင်ဒဂုံ	16.849945354749266	96.22755198972301
59	11	648	Thit Saing Kwae	သစ်ဆိုင်ကွေ့	Pyi Htaung Su Main Road	ပြည်ထောင်စုလမ်းမကြီး	South Dagon	တောင်ဒဂုံ	16.847488848406	96.22321617789568
59	12	702	Yauk Kaw	ယောက်ကော်	Pyi Htaung Su Main Road	ပြည်ထောင်စုလမ်းမကြီး	South Dagon	တောင်ဒဂုံ	16.848345591882044	96.22222401201726
59	13	696	Pan Chan	ပန်းခြံ	Pyi Htaung Su Main Road	ပြည်ထောင်စုလမ်းမကြီး	South Dagon	တောင်ဒဂုံ	16.851441460122164	96.21855676174165
59	14	682	Than Lan	သံလမ်း	Pyi Htaung Su Main Road	ပြည်ထောင်စုလမ်းမကြီး	South Dagon	တောင်ဒဂုံ	16.854732930507534	96.21484707808123
59	15	678	Taung Myauk Lan Sone	တောင်/မြောက်လမ်းဆုံ	Pyi Htaung Su Main Road	ပြည်ထောင်စုလမ်းမကြီး	South Dagon	တောင်ဒဂုံ	16.858705846109032	96.21464063180612
59	16	674	Tadar Phyu	တံတားဖြူ	No. 2 Main Road	အမှတ်(၂)လမ်းမ	South Dagon	တောင်ဒဂုံ	16.857583069279	96.212414985057
59	17	628	Kar Gyi Gate	ကားကြီးဂိတ်	No. 2 Main Road	အမှတ်(၂)လမ်းမ	South Dagon	တောင်ဒဂုံ	16.847393204315072	96.20903999079022
59	18	630	Sanpya Zay Kwae	စံပြဈေးကွေ့	Thanthumar Road	သံသုမာလမ်း	Thingangyun	သင်္ဃန်းကျွန်း	16.83949687481868	96.20740019716325
59	19	626	Chan Aye/ Thwar Say	ချမ်းအေးသွားဆေး	Thanthumar Road	သံသုမာလမ်း	Thingangyun	သင်္ဃန်းကျွန်း	16.832865	96.20798
59	20	637	Waibula	ဝေဘူလ	Thanthumar Road	သံသုမာလမ်း	Thingangyun	သင်္ဃန်းကျွန်း	16.830512077460014	96.20798843912782
59	21	592	Thuwunna Zay	သုဝဏ္ဏဈေး	Thanthumar Road	သံသုမာလမ်း	Thingangyun	သင်္ဃန်းကျွန်း	16.82519428541537	96.20656682644041
59	22	582	Mee Don	မီးဒုံး	Thanthumar Road	သံသုမာလမ်း	Thingangyun	သင်္ဃန်းကျွန်း	16.823329107627952	96.205472946167
59	23	584	Min Din	မင်းဒင်	Thanthumar Road	သံသုမာလမ်း	Thingangyun	သင်္ဃန်းကျွန်း	16.82228408656182	96.20429570786656
59	24	563	Paw San Hmwe	ပေါ်ဆန်းမွှေး	Thanthumar Road	သံသုမာလမ်း	Thingangyun	သင်္ဃန်းကျွန်း	16.821337705697953	96.20287929195912
59	25	561	Kyaung Lan	ကျောင်းလမ်း	Thanthumar Road	သံသုမာလမ်း	Thingangyun	သင်္ဃန်းကျွန်း	16.81989519891245	96.20065764756875
59	26	566	Su Paung	စုပေါင်း	Thanthumar Road	သံသုမာလမ်း	Thingangyun	သင်္ဃန်းကျွန်း	16.818703899550005	96.19875895790759
59	27	574	Yae Set	ရေစက်	Thanthumar Road	သံသုမာလမ်း	Thingangyun	သင်္ဃန်းကျွန်း	16.816679873960126	96.19488132906555
59	28	570	Thuwunna Lan Sone	သုဝဏ္ဏလမ်းဆုံ	Thanthumar Road	သံသုမာလမ်း	Thingangyun	သင်္ဃန်းကျွန်း	16.81503896354181	96.19104266166688
59	29	359	Kaw Set	ကော်စက်	Thanthumar Road	သံသုမာလမ်း	Thingangyun	သင်္ဃန်းကျွန်း	16.81390294961131	96.18837193585934
59	30	392	Zay Lay	ဈေးလေး	Thanthumar Road	သံသုမာလမ်း	Thingangyun	သင်္ဃန်းကျွန်း	16.80992578411149	96.18358842562886
59	31	372	Arthawka	အာသောက	Thamain Bayan Road	သမိန်ဗရမ်းလမ်း	Tamwe	တာမွေ	16.807330066555078	96.18016288848594
59	32	380	Tamwe Bali	တာမွေဗလီ	Thamain Bayan Road	သမိန်ဗရမ်းလမ်း	Tamwe	တာမွေ	16.809529852271563	96.17703606141733
59	33	383	Tamwe Plaza	တာမွေပလာဇာ	Thamain Bayan Road	သမိန်ဗရမ်းလမ်း	Tamwe	တာမွေ	16.810901	96.175102
59	34	333	Awine Htate/ Tamwe	အဝိုင်းထိပ်/ တာမွေ	East Shwe Gon Daing Road	အရှေ့ရွှေဂုံတိုင်လမ်း	Bahan	ဗဟန်း	16.81164669784772	96.17015008338059
59	35	233	Chauk Htat Kyee	(၆) ထပ်ကြီး	East Shwe Gon Daing Road	အရှေ့ရွှေဂုံတိုင်လမ်း	Bahan	ဗဟန်း	16.811227	96.165963
59	36	235	Ngar Htat Kyee	(၅) ထပ်ကြီး	East Shwe Gon Daing Road	အရှေ့ရွှေဂုံတိုင်လမ်း	Bahan	ဗဟန်း	16.810709	96.163007
59	37	227	Bandar Pin	ဗန်ဒါပင်	East Shwe Gon Daing Road	အရှေ့ရွှေဂုံတိုင်လမ်း	Bahan	ဗဟန်း	16.810236	96.160738
59	38	2177	Shwe Gon Daing	ရွှေဂုံတိုင်	East Shwe Gon Daing Road	အရှေ့ရွှေဂုံတိုင်လမ်း	Bahan	ဗဟန်း	16.80679	96.156254
59	39	229	Shwe Gon Daing	ရွှေဂုံတိုင်	West Shwe Gon Daing Road	အနောက်ရွှေဂုံတိုင်လမ်း	Bahan	ဗဟန်း	16.80552882418637	96.15440628491342
59	40	225	Oak Lan	အုတ်လမ်း	West Shwe Gon Daing Road	အနောက်ရွှေဂုံတိုင်လမ်း	Bahan	ဗဟန်း	16.804480996918812	96.15122687187979
59	41	223	Link Lan	လင့်လမ်း	Shwe Gon Road	ရွှေဂုံလမ်း	Bahan	ဗဟန်း	16.806090939455864	96.14742122246754
59	42	274	Wizaya Plaza	ဝိဇယပလာဇာ	Dhamazedi Road	ဓမ္မစေတီလမ်း	Bahan	ဗဟန်း	16.805199662416154	96.14333391655238
59	43	266	Myaynigone	မြေနီကုန်း	Bargayar Road	ဗားဂရာလမ်း	San Chaung	စမ်းချောင်း	16.803804	96.138814
59	44	272	Shwe Man	ရွှေမန်း	Bargayar Road	ဗားဂရာလမ်း	San Chaung	စမ်းချောင်း	16.803697434586116	96.13618335686625
59	45	261	Shan Lan	ရှမ်းလမ်း	Bargayar Road	ဗားဂရာလမ်း	San Chaung	စမ်းချောင်း	16.80383891776587	96.13184186629952
59	46	255	Koe Htat Kyee	(၉) ထပ်ကြီး	Bargayar Road	ဗားဂရာလမ်း	San Chaung	စမ်းချောင်း	16.80385946248815	96.12814109193097
59	47	247	Kyaung Shae	ကျောင်းရှေ့	Lower Kyee Myin Daing Road	အောက်ကြည့်မြင်တိုင်လမ်း	Kyee Myin Daing	ကြည့်မြင်တိုင်	16.80060702485202	96.12604542402553
59	48	244	Home Lan	ဟုမ်းလမ်း	Lower Kyee Myin Daing Road	အောက်ကြည့်မြင်တိုင်လမ်း	Kyee Myin Daing	ကြည့်မြင်တိုင်	16.797192	96.126132
59	49	97	White Taw	ဝှိုက်တော	Lower Kyee Myin Daing Road	အောက်ကြည့်မြင်တိုင်လမ်း	Ahlone	အလုံ	16.793536	96.126588
59	50	95	Sin Min Zay	ဆင်မင်းဈေး	Lower Kyee Myin Daing Road	အောက်ကြည့်မြင်တိုင်လမ်း	Ahlone	အလုံ	16.790543070149177	96.12796158995481
59	51	93	Chan Mar Phee	ချန်မာဖီ	Lower Kyee Myin Daing Road	အောက်ကြည့်မြင်တိုင်လမ်း	Ahlone	အလုံ	16.78735983441184	96.12950640221246
59	52	99	Ahlone Sar Taik	အလုံစာတိုက်	Lower Kyee Myin Daing Road	အောက်ကြည့်မြင်တိုင်လမ်း	Ahlone	အလုံ	16.785148945106275	96.13131663529204
59	53	110	Jama Khar Nar	ဂျမခါနာ	Lower Kyee Myin Daing Road	အောက်ကြည့်မြင်တိုင်လမ်း	Ahlone	အလုံ	16.783100366432155	96.13329419866206
59	54	100	Ahlone Sar Taik	အလုံစာတိုက်	Lower Kyee Myin Daing Road	အောက်ကြည့်မြင်တိုင်လမ်း	Ahlone	အလုံ	16.785382566574427	96.13126657437533
59	55	94	Chan Mar Phee	ချန်မာဖီ	Lower Kyee Myin Daing Road	အောက်ကြည့်မြင်တိုင်လမ်း	Ahlone	အလုံ	16.78753614374465	96.12954945769162
59	56	96	Sin Min Zay	ဆင်မင်းဈေး	Lower Kyee Myin Daing Road	အောက်ကြည့်မြင်တိုင်လမ်း	Ahlone	အလုံ	16.790742	96.12801
59	57	98	White Taw	ဝှိုက်တော	Lower Kyee Myin Daing Road	အောက်ကြည့်မြင်တိုင်လမ်း	Ahlone	အလုံ	16.793685501607825	96.12661432474853
59	58	245	Home Lan	ဟုမ်းလမ်း	Lower Kyee Myin Daing Road	အောက်ကြည့်မြင်တိုင်လမ်း	Kyee Myin Daing	ကြည့်မြင်တိုင်	16.7980176794345	96.12623665714638
59	59	246	Kyaung Shae	ကျောင်းရှေ့	Lower Kyee Myin Daing Road	အောက်ကြည့်မြင်တိုင်လမ်း	Kyee Myin Daing	ကြည့်မြင်တိုင်	16.80036473598132	96.12621706444772
59	60	254	Koe Htat Kyee	(၉) ထပ်ကြီး	Bargayar Road	ဗားဂရာလမ်း	San Chaung	စမ်းချောင်း	16.80377692571842	96.12809622083661
59	61	260	Shan Lan	ရှမ်းလမ်း	Bargayar Road	ဗားဂရာလမ်း	San Chaung	စမ်းချောင်း	16.803776350638998	96.13150128861892
59	62	273	Shwe Man	ရွှေမန်း	Bargayar Road	ဗားဂရာလမ်း	San Chaung	စမ်းချောင်း	16.803827	96.136105
59	63	267	Myaynigone	မြေနီကုန်း	Bargayar Road	ဗားဂရာလမ်း	San Chaung	စမ်းချောင်း	16.8037478786025	96.13814299016668
59	64	2389	Wizaya Plaza	ဝိဇယပလာဇာ	Dhamazedi Road	ဓမ္မစေတီလမ်း	Bahan	ဗဟန်း	16.8050307383558	96.1434358686529
59	65	222	Link Lan	လင့်လမ်း	Shwe Gon Road	ရွှေဂုံလမ်း	Bahan	ဗဟန်း	16.805999079236297	96.14723340186174
59	66	224	Oak Lan	အုတ်လမ်း	West Shwe Gon Daing Road	အနောက်ရွှေဂုံတိုင်လမ်း	Bahan	ဗဟန်း	16.804344087884044	96.1511853185948
59	67	228	Shwe Gon Daing	ရွှေဂုံတိုင်	West Shwe Gon Daing Road	အနောက်ရွှေဂုံတိုင်လမ်း	Bahan	ဗဟန်း	16.805330733421666	96.15442281821743
59	68	231	Shwe Gon Daing	ရွှေဂုံတိုင်	East Shwe Gon Daing Road	အရှေ့ရွှေဂုံတိုင်လမ်း	Bahan	ဗဟန်း	16.806550186916283	96.15607654675843
59	69	226	Bandar Pin	ဗန်ဒါပင်	East Shwe Gon Daing Road	အရှေ့ရွှေဂုံတိုင်လမ်း	Bahan	ဗဟန်း	16.809993885588426	96.16076869424434
59	70	234	Ngar Htat Kyee	(၅) ထပ်ကြီး	East Shwe Gon Daing Road	အရှေ့ရွှေဂုံတိုင်လမ်း	Bahan	ဗဟန်း	16.810501025184656	96.1633197264746
59	71	232	Chauk Htat Kyee	(၆) ထပ်ကြီး	East Shwe Gon Daing Road	အရှေ့ရွှေဂုံတိုင်လမ်း	Bahan	ဗဟန်း	16.811207	96.165464
59	72	332	Awine Htate/ Tamwe	အဝိုင်းထိပ်/ တာမွေ	East Shwe Gon Daing Road	အရှေ့ရွှေဂုံတိုင်လမ်း	Bahan	ဗဟန်း	16.81149101866884	96.16997592855115
59	73	382	Tamwe Plaza	တာမွေပလာဇာ	Thamain Bayan Road	သမိန်ဗရမ်းလမ်း	Tamwe	တာမွေ	16.81067485889442	96.17535173892976
59	74	381	Tamwe Bali	တာမွေဗလီ	Thamain Bayan Road	သမိန်ဗရမ်းလမ်း	Tamwe	တာမွေ	16.809481208242932	96.17696179775523
59	75	373	Arthawka	အာသောက	Thamain Bayan Road	သမိန်ဗရမ်းလမ်း	Tamwe	တာမွေ	16.80724230568274	96.18010130245239
59	76	391	Zay Lay	ဈေးလေး	Thanthumar Road	သံသုမာလမ်း	Thingangyun	သင်္ဃန်းကျွန်း	16.809825	96.183666
59	77	358	Kaw Set	ကော်စက်	Thanthumar Road	သံသုမာလမ်း	Thingangyun	သင်္ဃန်းကျွန်း	16.81376522496099	96.18829467566685
59	78	569	Thuwunna Lan Sone	သုဝဏ္ဏလမ်းဆုံ	Thanthumar Road	သံသုမာလမ်း	Thingangyun	သင်္ဃန်းကျွန်း	16.814838154709474	96.19087100028993
59	79	573	Yae Set	ရေစက်	Thanthumar Road	သံသုမာလမ်း	Thingangyun	သင်္ဃန်းကျွန်း	16.816228747999638	96.19427456244011
59	80	565	Su Paung	စုပေါင်း	Thanthumar Road	သံသုမာလမ်း	Thingangyun	သင်္ဃန်းကျွန်း	16.818098	96.198024
59	81	562	Kyaung Lan	ကျောင်းလမ်း	Thanthumar Road	သံသုမာလမ်း	Thingangyun	သင်္ဃန်းကျွန်း	16.819662582733592	96.20058005210012
59	82	564	Paw San Hmwe	ပေါ်ဆန်းမွှေး	Thanthumar Road	သံသုမာလမ်း	Thingangyun	သင်္ဃန်းကျွန်း	16.821269788819052	96.20294043794276
59	83	585	Min Din	မင်းဒင်	Thanthumar Road	သံသုမာလမ်း	Thingangyun	သင်္ဃန်းကျွန်း	16.822083	96.204216
59	84	583	Mee Don	မီးဒုံး	Thanthumar Road	သံသုမာလမ်း	Thingangyun	သင်္ဃန်းကျွန်း	16.823235757995914	96.20547018013895
59	85	591	Thuwunna Zay	သုဝဏ္ဏဈေး	Thanthumar Road	သံသုမာလမ်း	Thingangyun	သင်္ဃန်းကျွန်း	16.824722	96.20649
59	86	636	Waibula	ဝေဘူလ	Thanthumar Road	သံသုမာလမ်း	Thingangyun	သင်္ဃန်းကျွန်း	16.8301749562444	96.2080962304026
59	87	627	Chan Aye/ Thwar Say	ချမ်းအေးသွားဆေး	Thanthumar Road	သံသုမာလမ်း	Thingangyun	သင်္ဃန်းကျွန်း	16.833007132875704	96.20810620486738
59	88	631	Sanpya Zay Kwae	စံပြဈေးကွေ့	Thanthumar Road	သံသုမာလမ်း	Thingangyun	သင်္ဃန်းကျွန်း	16.838397750744317	96.20758237782866
59	89	629	Kar Gyi Gate	ကားကြီးဂိတ်	No. 2 Main Road	အမှတ်(၂)လမ်းမ	South Dagon	တောင်ဒဂုံ	16.84738131147338	96.20909719727936
59	90	673	Tadar Phyu	တံတားဖြူ	No. 2 Main Road	အမှတ်(၂)လမ်းမ	South Dagon	တောင်ဒဂုံ	16.857554511951882	96.21246330672876
59	91	677	Taung Myauk Lan Sone	တောင်/မြောက်လမ်းဆုံ	Pyi Htaung Su Main Road	ပြည်ထောင်စုလမ်းမကြီး	South Dagon	တောင်ဒဂုံ	16.858665898173957	96.21454811654986
59	92	681	Than Lan	သံလမ်း	Pyi Htaung Su Main Road	ပြည်ထောင်စုလမ်းမကြီး	South Dagon	တောင်ဒဂုံ	16.854747570367522	96.21478148968893
59	93	695	Pan Chan	ပန်းခြံ	Pyi Htaung Su Main Road	ပြည်ထောင်စုလမ်းမကြီး	South Dagon	တောင်ဒဂုံ	16.85140732658994	96.21852030046286
59	94	701	Yauk Kaw	ယောက်ကော်	Pyi Htaung Su Main Road	ပြည်ထောင်စုလမ်းမကြီး	South Dagon	တောင်ဒဂုံ	16.848305521426965	96.22216035146268
59	95	2138	Thit Saing Kwae	သစ်ဆိုင်ကွေ့	Pyi Htaung Su Main Road	ပြည်ထောင်စုလမ်းမကြီး	South Dagon	တောင်ဒဂုံ	16.847183565294515	96.22347964206712
59	96	691	Kone Padaythar	ကုန်ပဒေသာ	Si Pin Road	စည်ပင်လမ်း	South Dagon	တောင်ဒဂုံ	16.84975661600442	96.22747806133705
59	97	687	Gate Haung	ဂိတ်ဟောင်း	Si Pin Road	စည်ပင်လမ်း	South Dagon	တောင်ဒဂုံ	16.85231094058949	96.2297002505511
59	98	715	Kyaung Shae	ကျောင်းရှေ့	Si Pin Road	စည်ပင်လမ်း	South Dagon	တောင်ဒဂုံ	16.854293994891357	96.23140462674202
59	99	712	Kyan Mar Yae	ကျန်းမာရေး	Si Pin Road	စည်ပင်လမ်း	South Dagon	တောင်ဒဂုံ	16.856130751260157	96.23298319056632
59	100	721	Sae-shit Kwae	(၁၈) ကွေ့	Si Pin Road	စည်ပင်လမ်း	South Dagon	တောင်ဒဂုံ	16.85800675602665	96.23459486290815
59	101	2134	Tadar Htate	တံတားထိပ်	Maungmakan Kantha Road	မောင်းမကန်ကန်သာလမ်း	South Dagon	တောင်ဒဂုံ	16.85598	96.237389
59	102	2135	Phone Gyi Kyaung Kwae	ဘုန်းကြီးကျောင်းကွေ့	Maungmakan Kantha Road	မောင်းမကန်ကန်သာလမ်း	South Dagon	တောင်ဒဂုံ	16.85407168896496	96.23980641597882
59	103	729	Awaiyar	အဝေရာ	Maungmakan Kantha Road	မောင်းမကန်ကန်သာလမ်း	South Dagon	တောင်ဒဂုံ	16.85052324189335	96.24428279232234
59	104	731	Ayar Wun	ဧရာဝဏ်	Maungmakan Kantha Road	မောင်းမကန်ကန်သာလမ်း	South Dagon	တောင်ဒဂုံ	16.849183980978832	96.24591349158436
59	105	664	Thein Kyaung	သိမ်ကျောင်း	Ayar Wun Main Road	ဧရာဝဏ်လမ်းမကြီး	Thaketa	သာကေတ	16.838579621501808	96.24387042364107