svc_name	sequence	stop_id	name_en	name_mm	road_en	road_mm	township_en	township_mm	lat	lng
26	1	1031	Dagon Takke Tho	ဒဂုံတက္ကသိုလ်	Dagon University	ဒဂုံတက္ကသိုလ်	North Dagon	မြောက်ဒဂုံ	16.916878098620895	96.2128589116037
26	2	1036	Yone Shae	ရုံးရှေ့	Dagon University	ဒဂုံတက္ကသိုလ်	North Dagon	မြောက်ဒဂုံ	16.914898	96.210383
26	3	5	Sal Mile	(၁၀) မိုင်	Dagon University	ဒဂုံတက္ကသိုလ်	North Dagon	မြောက်ဒဂုံ	16.91305	96.211413
26	4	1030	Awine	အဝိုင်း	Dagon University	ဒဂုံတက္ကသိုလ်	North Dagon	မြောက်ဒဂုံ	16.910484	96.212894
26	5	2405	Moke Wa	မုခ်ဝ	Kyan Sit Thar Road	ကျန်စစ်သားလမ်း	North Dagon	မြောက်ဒဂုံ	16.904439085828006	96.20448606088759
26	6	2412	Bhone Gyi Kyaung Kwae	ဘုန်းကြီးကျောင်းကွေ့	Min Ye Kyaw Swa Rd	မင်း​ရဲကျော်​စွာ လမ်း	North Dagon	မြောက်ဒဂုံ	16.89929117091002	96.21082443511114
26	7	2407	Gate Haung	ဂိတ်ဟောင်း	Min Ye Kyaw Swa Rd	မင်း​ရဲကျော်​စွာ လမ်း	North Dagon	မြောက်ဒဂုံ	16.8973209398579	96.2070433376357
26	8	2409	Kyaung Lan	ကျောင်းလမ်း	Min Ye Kyaw Swa Rd	မင်း​ရဲကျော်​စွာ လမ်း	North Dagon	မြောက်ဒဂုံ	16.8953468786695	96.2031126860529
26	9	2411	8 Tama	၈ သမ	Min Ye Kyaw Swa Rd	မင်း​ရဲကျော်​စွာ လမ်း	North Dagon	မြောက်ဒဂုံ	16.8934878866662	96.1995235551149
26	10	926	Khun/ Shit Lan Sone	(၇/၈) လမ်းဆုံ	Pyi Htaung Su Main Road	ပြည်ထောင်စုလမ်းမကြီး	North Dagon	မြောက်ဒဂုံ	16.890982561398648	96.19669476756827
26	11	880	Yone Shae	ရုံးရှေ့	Pyi Htaung Su Main Road	ပြည်ထောင်စုလမ်းမကြီး	North Dagon	မြောက်ဒဂုံ	16.887568327965283	96.19860955048354
26	12	928	Kone Padaythar	ကုန်ပဒေသာ	Pyi Htaung Su Main Road	ပြည်ထောင်စုလမ်းမကြီး	North Dagon	မြောက်ဒဂုံ	16.8842043419244	96.200472638011
26	13	1004	Swan In	စွမ်းအင်	Pyi Htaung Su Main Road	ပြည်ထောင်စုလမ်းမကြီး	North Dagon	မြောက်ဒဂုံ	16.88080835336168	96.202354375273
26	14	2346	Ma Wa Ta	မဝတ	Pyi Htaung Su Main Road	ပြည်ထောင်စုလမ်းမကြီး	North Dagon	မြောက်ဒဂုံ	16.877414870397843	96.2041931343265
26	15	172	Mandalay Lan	မန္တလေးလမ်း	Pin Lon Road	ပင်လုံလမ်း	North Dagon	မြောက်ဒဂုံ	16.8744	96.198868
26	16	1003	Sittaung Lan	စစ်တောင်းလမ်း	Pin Lon Road	ပင်လုံလမ်း	North Dagon	မြောက်ဒဂုံ	16.872970930494294	96.19630813132972
26	17	997	Kyaung Lan	ကျောင်းလမ်း	Pin Lon Road	ပင်လုံလမ်း	North Dagon	မြောက်ဒဂုံ	16.871300956933585	96.19305180385712
26	18	1001	Settwe Yae	ဆက်သွယ်ရေး	Pin Lon Road	ပင်လုံလမ်း	North Dagon	မြောက်ဒဂုံ	16.86985558238827	96.19017253629865
26	19	993	Thone-sae-ngar Kwae	(၃၅) ကွေ့	Pin Lon Road	ပင်လုံလမ်း	North Dagon	မြောက်ဒဂုံ	16.868299944520913	96.18713363539428
26	20	991	Thin Win	သင်းဝင်	Pin Lon Road	ပင်လုံလမ်း	North Dagon	မြောက်ဒဂုံ	16.866909573314597	96.1845249356702
26	21	978	Nar Yee Sin	နာရီစင်	Pin Lon Road	ပင်လုံလမ်း	North Dagon	မြောက်ဒဂုံ	16.866120273313303	96.18284151423723
26	22	2124	Bay Li	ဘေလီ	Thanthumar Road	သံသုမာလမ်း	South Okkalapa	တောင်ဥက္ကလာပ	16.859959	96.178682
26	23	1078	Myin Thar Zay	မြင်သာဈေး	Thanthumar Road	သံသုမာလမ်း	South Okkalapa	တောင်ဥက္ကလာပ	16.856729	96.18176
26	24	2128	Thanat Pyit Kwin	သေနတ်ပစ်ကွင်း	Thanthumar Road	သံသုမာလမ်း	South Okkalapa	တောင်ဥက္ကလာပ	16.85446	96.183724
26	25	1082	Taung Okkalar Paya	တောင်ဥက္ကလာပဘုရား	Thanthumar Road	သံသုမာလမ်း	South Okkalapa	တောင်ဥက္ကလာပ	16.852719277159586	96.18528316263111
26	26	2146	Kyaetamar	ကျေးတမာ	Thanthumar Road	သံသုမာလမ်း	South Okkalapa	တောင်ဥက္ကလာပ	16.85099840559265	96.1875297012739
26	27	1086	Moe Swe	မိုးစွေ	Thanthumar Road	သံသုမာလမ်း	South Okkalapa	တောင်ဥက္ကလာပ	16.850030909833936	96.18946552276613
26	28	2421	Gate Haung	ဂိတ်ဟောင်း	Metta Road	မေတ္တာလမ်း	South Okkalapa	တောင်ဥက္ကလာပ	16.8480979892245	96.1908516800031
26	29	2419	13 Lan	၁၃ လမ်း	Metta Road	မေတ္တာလမ်း	South Okkalapa	တောင်ဥက္ကလာပ	16.8475229625899	96.1901864921674
26	30	2417	Say Yone Shae	ဆေးရုံရှေ့	Metta Road	မေတ္တာလမ်း	South Okkalapa	တောင်ဥက္ကလာပ	16.8446797919989	96.1867720400915
26	31	2416	Zay Mat Tine	စျေးမှတ်တိုင်	Metta Road	မေတ္တာလမ်း	South Okkalapa	တောင်ဥက္ကလာပ	16.8435364750086	96.1853710259311
26	32	14	Padaythar	ပဒေသာ	Thu Mingalar Road	သုမင်္ဂလာလမ်း	South Okkalapa	တောင်ဥက္ကလာပ	16.841680924239533	96.18324872804807
26	33	12	(Sae-Lay/ Sae-Ngar) Lan Sone	(၁၄/၁၅) လမ်းဆုံ	Thu Mingalar Road	သုမင်္ဂလာလမ်း	South Okkalapa	တောင်ဥက္ကလာပ	16.836957339405043	96.18565733078869
26	34	1071	Yadanar Zay	ရတနာဈေး	Yadanar Road	ရတနာလမ်း	Thingangyun	သင်္ဃန်းကျွန်း	16.835962	96.183033
26	35	1056	Kalar Paya	ကုလားဘုရား	Yadanar Road	ရတနာလမ်း	Thingangyun	သင်္ဃန်းကျွန်း	16.834883	96.180404
26	36	1060	Sae-Chauk Kwae	(၁၆) ကွေ့	Yadanar Road	ရတနာလမ်း	Thingangyun	သင်္ဃန်းကျွန်း	16.833882	96.176488
26	37	1050	Than Lan	သံလမ်း	Yadanar Road	ရတနာလမ်း	Yankin	ရန်ကင်း	16.83370371459609	96.17289694842387
26	38	1041	Kyauk Kone	ကျောက်ကုန်း	Moe Kaung Road	မိုးကောင်းလမ်း	Yankin	ရန်ကင်း	16.831231329662653	96.16970203594975
26	39	337	Hmat Tan Yone	မှတ်တမ်းရုံး	Moe Kaung Road	မိုးကောင်းလမ်း	Yankin	ရန်ကင်း	16.827556	96.170742
26	40	334	Awine Lay	အဝိုင်းလေး	Moe Kaung Road	မိုးကောင်းလမ်း	Yankin	ရန်ကင်း	16.825246	96.171418
26	41	339	Kalar Zay	ကုလားဈေး	East Horse Race Course Road	အရှေ့မြင်းပြိုင်လမ်း	Tamwe	တာမွေ	16.82238	96.171954
26	42	345	Lan Sone	လမ်းဆုံ	East Horse Race Course Road	အရှေ့မြင်းပြိုင်လမ်း	Tamwe	တာမွေ	16.819269	96.172287
26	43	343	Kyaung Shae	ကျောင်းရှေ့	East Horse Race Course Road	အရှေ့မြင်းပြိုင်လမ်း	Tamwe	တာမွေ	16.815445555142144	96.17246560541389
26	44	2414	Tamwe Zay Haung/ Akhun Lut Zay	တာမွေဈေးဟောင်း/ အခွန်လွတ်ဈေး	Kyaikkasan Road	ကျိုက္ကဆံလမ်း	Tamwe	တာမွေ	16.8132196008765	96.1745333508588
26	45	385	Tamwe Zay/ Tamwe Bali	တာမွေဈေး/ တာမွေဗလီ	Kyaikkasan Road	ကျိုက္ကဆံလမ်း	Tamwe	တာမွေ	16.807725	96.176172
26	46	379	Kyauk Myaung Zay	ကျောက်မြောင်းဈေး	Kyaikkasan Road	ကျိုက္ကဆံလမ်း	Tamwe	တာမွေ	16.804151	96.175646
26	47	388	Thida	သီတာ	Banyardala Road	ဗညားဒလလမ်း	Mingalar Taung Nyunt	မင်္ဂလာတောင်ညွန့်	16.799380471876457	96.17574831492675
26	48	374	Aung Mingalar	အောင်မင်္ဂလာ	Banyardala Road	ဗညားဒလလမ်း	Mingalar Taung Nyunt	မင်္ဂလာတောင်ညွန့်	16.79630927025884	96.17657147347929
26	49	454	Yuzana Plaza/ Lan Kyal	ယုဇနပလာဇာ/လမ်းကျယ်	Banyardala Road	ဗညားဒလလမ်း	Mingalar Taung Nyunt	မင်္ဂလာတောင်ညွန့်	16.794481844001602	96.17555068340155
26	50	444	Mingalar Zay	မင်္ဂလာဈေး	Mill Road	စက်ရုံလမ်း	Mingalar Taung Nyunt	မင်္ဂလာတောင်ညွန့်	16.791853797107102	96.17441874928774
26	51	450	Sar Taik	စာတိုက်	Upper Pazundaung Road	အထက်ပုဇွန်တောင်လမ်း	Pazundaung	ပုဇွန်တောင်	16.78450974968351	96.17482652887703
26	52	448	Pazundaung Zay	ပုဇွန်တောင်ဈေး	Upper Pazundaung Road	အထက်ပုဇွန်တောင်လမ်း	Pazundaung	ပုဇွန်တောင်	16.78161309073329	96.17429679259658
26	53	445	Nyaung Tan	ညောင်တန်း	Lower Pazundaung Road	အောက်ပုဇွန်တောင်လမ်း	Pazundaung	ပုဇွန်တောင်	16.77814227405194	96.17549379123376
26	54	424	Thida Seik	သီတာဆိပ်	Lower Pazundaung Road	အောက်ပုဇွန်တောင်လမ်း	Pazundaung	ပုဇွန်တောင်	16.774333	96.180194
26	55	422	Lin Sadaung	လင်းစဒေါင်း	Strand Road	ကမ်းနားလမ်း	Pazundaung	ပုဇွန်တောင်	16.7691504242463	96.18046187097208
26	56	413	Botahtaung Zay	ဗိုလ်တထောင်ဈေး	Strand Road	ကမ်းနားလမ်း	Pazundaung	ပုဇွန်တောင်	16.769349354982467	96.17495725840854
26	57	167	Botahtaung Paya	ဗိုလ်တထောင်ဘုရား	Strand Road	ကမ်းနားလမ်း	Seikkan	ဆိပ်ကမ်း	16.769591556452138	96.17250742390753
26	58	166	Baho Yone	ဗဟိုရုံး	Strand Road	ကမ်းနားလမ်း	Seikkan	ဆိပ်ကမ်း	16.76919046440348	96.16704849991949
26	59	168	Botahtaung Paya	ဗိုလ်တထောင်ဘုရား	Strand Road	ကမ်းနားလမ်း	Seikkan	ဆိပ်ကမ်း	16.76925240088782	96.1718310881406
26	60	414	Botahtaung Zay	ဗိုလ်တထောင်ဈေး	Strand Road	ကမ်းနားလမ်း	Pazundaung	ပုဇွန်တောင်	16.769167136957893	96.17486310900858
26	61	421	Lin Sadaung	လင်းစဒေါင်း	Strand Road	ကမ်းနားလမ်း	Pazundaung	ပုဇွန်တောင်	16.768980658676362	96.18034081533553
26	62	425	Thida Seik	သီတာဆိပ်	Lower Pazundaung Road	အောက်ပုဇွန်တောင်လမ်း	Pazundaung	ပုဇွန်တောင်	16.77462	96.180076
26	63	446	Nyaung Tan	ညောင်တန်း	Lower Pazundaung Road	အောက်ပုဇွန်တောင်လမ်း	Pazundaung	ပုဇွန်တောင်	16.77857725311318	96.1752471746877
26	64	447	Pazundaung Zay	ပုဇွန်တောင်ဈေး	Upper Pazundaung Road	အထက်ပုဇွန်တောင်လမ်း	Pazundaung	ပုဇွန်တောင်	16.78022529329327	96.17454728577287
26	65	449	Sar Taik	စာတိုက်	Upper Pazundaung Road	အထက်ပုဇွန်တောင်လမ်း	Pazundaung	ပုဇွန်တောင်	16.784401976400744	96.17494081612678
26	66	443	Mingalar Zay	မင်္ဂလာဈေး	Mill Road	စက်ရုံလမ်း	Mingalar Taung Nyunt	မင်္ဂလာတောင်ညွန့်	16.791772569051048	96.17468064185232
26	67	453	Yuzana Plaza/ Lan Kyal	ယုဇနပလာဇာ/လမ်းကျယ်	Banyardala Road	ဗညားဒလလမ်း	Mingalar Taung Nyunt	မင်္ဂလာတောင်ညွန့်	16.794241794144632	96.1756777111441
26	68	375	Aung Mingalar	အောင်မင်္ဂလာ	Banyardala Road	ဗညားဒလလမ်း	Mingalar Taung Nyunt	မင်္ဂလာတောင်ညွန့်	16.796450819129205	96.17687573656441
26	69	387	Thida	သီတာ	Banyardala Road	ဗညားဒလလမ်း	Mingalar Taung Nyunt	မင်္ဂလာတောင်ညွန့်	16.79938512590402	96.17606068030003
26	70	378	Kyauk Myaung Zay	ကျောက်မြောင်းဈေး	Kyaikkasan Road	ကျိုက္ကဆံလမ်း	Tamwe	တာမွေ	16.804056	96.175654
26	71	384	Tamwe Zay/ Tamwe Bali	တာမွေဈေး/ တာမွေဗလီ	Kyaikkasan Road	ကျိုက္ကဆံလမ်း	Tamwe	တာမွေ	16.807535	96.176161
26	72	363	Tamwe Zay Haung/ Akhun Lut Zay	တာမွေဈေးဟောင်း/ အခွန်လွတ်ဈေး	Kyaikkasan Road	ကျိုက္ကဆံလမ်း	Tamwe	တာမွေ	16.813353	96.174892
26	73	342	Kyaung Shae	ကျောင်းရှေ့	East Horse Race Course Road	အရှေ့မြင်းပြိုင်လမ်း	Tamwe	တာမွေ	16.81540650761808	96.17265560187664
26	74	344	Lan Sone	လမ်းဆုံ	East Horse Race Course Road	အရှေ့မြင်းပြိုင်လမ်း	Tamwe	တာမွေ	16.81895	96.17248
26	75	338	Kalar Zay	ကုလားဈေး	East Horse Race Course Road	အရှေ့မြင်းပြိုင်လမ်း	Tamwe	တာမွေ	16.822483	96.172094
26	76	335	Awine Lay	အဝိုင်းလေး	Moe Kaung Road	မိုးကောင်းလမ်း	Yankin	ရန်ကင်း	16.825667	96.171504
26	77	336	Hmat Tan Yone	မှတ်တမ်းရုံး	Moe Kaung Road	မိုးကောင်းလမ်း	Yankin	ရန်ကင်း	16.82733	96.171032
26	78	1042	Kyauk Kone	ကျောက်ကုန်း	Moe Kaung Road	မိုးကောင်းလမ်း	Yankin	ရန်ကင်း	16.831338604999342	96.1698322556913
26	79	1049	Than Lan	သံလမ်း	Yadanar Road	ရတနာလမ်း	Yankin	ရန်ကင်း	16.833596995452847	96.1729488882702
26	80	1059	Sae-Chauk Kwae	(၁၆) ကွေ့	Yadanar Road	ရတနာလမ်း	Thingangyun	သင်္ဃန်းကျွန်း	16.833764	96.176424
26	81	1055	Kalar Paya	ကုလားဘုရား	Yadanar Road	ရတနာလမ်း	Thingangyun	သင်္ဃန်းကျွန်း	16.834791	96.180452
26	82	1070	Yadanar Zay	ရတနာဈေး	Yadanar Road	ရတနာလမ်း	Thingangyun	သင်္ဃန်းကျွန်း	16.835869	96.18307
26	83	13	(Sae-Lay/ Sae-Ngar) Lan Sone	(၁၄/၁၅) လမ်းဆုံ	Thu Mingalar Road	သုမင်္ဂလာလမ်း	South Okkalapa	တောင်ဥက္ကလာပ	16.83699628909975	96.1858079954982
26	84	2415	Zay Mat Tine	စျေးမှတ်တိုင်	Metta Road	မေတ္တာလမ်း	South Okkalapa	တောင်ဥက္ကလာပ	16.843560501844	96.1855576070957
26	85	2418	Say Yone Shae	ဆေးရုံရှေ့	Metta Road	မေတ္တာလမ်း	South Okkalapa	တောင်ဥက္ကလာပ	16.8445925097062	96.186873964034
26	86	2420	13 Lan	၁၃ လမ်း	Metta Road	မေတ္တာလမ်း	South Okkalapa	တောင်ဥက္ကလာပ	16.8474254132553	96.1902615940198
26	87	2422	Gate Haung	ဂိတ်ဟောင်း	Metta Road	မေတ္တာလမ်း	South Okkalapa	တောင်ဥက္ကလာပ	16.8480363793115	96.1909267818555
26	88	1087	Moe Swe	မိုးစွေ	Thanthumar Road	သံသုမာလမ်း	South Okkalapa	တောင်ဥက္ကလာပ	16.850145665093024	96.18961987551303
26	89	2129	Kyaetamar	ကျေးတမာ	Thanthumar Road	သံသုမာလမ်း	South Okkalapa	တောင်ဥက္ကလာပ	16.851082075031954	96.18764438666405
26	90	1083	Taung Okkalar Paya	တောင်ဥက္ကလာပဘုရား	Thanthumar Road	သံသုမာလမ်း	South Okkalapa	တောင်ဥက္ကလာပ	16.8528135748857	96.18543030694127
26	91	2127	Thanat Pyit Kwin	သေနတ်ပစ်ကွင်း	Thanthumar Road	သံသုမာလမ်း	South Okkalapa	တောင်ဥက္ကလာပ	16.854523480112608	96.18384222965688
26	92	1079	Myin Thar Zay	မြင်သာဈေး	Thanthumar Road	သံသုမာလမ်း	South Okkalapa	တောင်ဥက္ကလာပ	16.856863	96.181911
26	93	1075	Bay Li	ဘေလီ	Thanthumar Road	သံသုမာလမ်း	South Okkalapa	တောင်ဥက္ကလာပ	16.85981610253591	96.17896331241356
26	94	977	Nar Yee Sin	နာရီစင်	Pin Lon Road	ပင်လုံလမ်း	North Dagon	မြောက်ဒဂုံ	16.866016115948014	96.18298748508097
26	95	990	Thin Win	သင်းဝင်	Pin Lon Road	ပင်လုံလမ်း	North Dagon	မြောက်ဒဂုံ	16.866484	96.184355
26	96	992	Thone-sae-ngar Kwae	(၃၅) ကွေ့	Pin Lon Road	ပင်လုံလမ်း	North Dagon	မြောက်ဒဂုံ	16.867983	96.186951
26	97	1000	Settwe Yae	ဆက်သွယ်ရေး	Pin Lon Road	ပင်လုံလမ်း	North Dagon	မြောက်ဒဂုံ	16.869461	96.19002
26	98	996	Kyaung Lan	ကျောင်းလမ်း	Pin Lon Road	ပင်လုံလမ်း	North Dagon	မြောက်ဒဂုံ	16.871449989624473	96.19379330892117
26	99	1002	Sittaung Lan	စစ်တောင်းလမ်း	Pin Lon Road	ပင်လုံလမ်း	North Dagon	မြောက်ဒဂုံ	16.872829	96.196371
26	100	173	Mandalay Lan	မန္တလေးလမ်း	Pin Lon Road	ပင်လုံလမ်း	North Dagon	မြောက်ဒဂုံ	16.874343	96.199035
26	101	1008	Ma Wa Ta	မဝတ	Pyi Htaung Su Main Road	ပြည်ထောင်စုလမ်းမကြီး	North Dagon	မြောက်ဒဂုံ	16.87735960653568	96.2043057032861
26	102	1005	Swan In	စွမ်းအင်	Pyi Htaung Su Main Road	ပြည်ထောင်စုလမ်းမကြီး	North Dagon	မြောက်ဒဂုံ	16.88079154992208	96.20245808037
26	103	929	Kone Padaythar	ကုန်ပဒေသာ	Pyi Htaung Su Main Road	ပြည်ထောင်စုလမ်းမကြီး	North Dagon	မြောက်ဒဂုံ	16.88423259445147	96.20055408915506
26	104	881	Yone Shae	ရုံးရှေ့	Pyi Htaung Su Main Road	ပြည်ထောင်စုလမ်းမကြီး	North Dagon	မြောက်ဒဂုံ	16.88746103440087	96.19877320714295
26	105	925	Khun/ Shit Lan Sone	(၇/၈) လမ်းဆုံ	Pyi Htaung Su Main Road	ပြည်ထောင်စုလမ်းမကြီး	North Dagon	မြောက်ဒဂုံ	16.891066012624623	96.19677429087463
26	106	2410	8 Tama	၈ သမ	Yarzardirit Road	ရာဇာဓိရာဇ်လမ်း	North Dagon	မြောက်ဒဂုံ	16.8930468956899	96.2006957642734
26	107	2408	Kyaung Lan	ကျောင်းလမ်း	Yarzardirit Road	ရာဇာဓိရာဇ်လမ်း	North Dagon	မြောက်ဒဂုံ	16.8945449454988	96.2036208808422
26	108	2406	Gate Haung	ဂိတ်ဟောင်း	Yarzardirit Road	ရာဇာဓိရာဇ်လမ်း	North Dagon	မြောက်ဒဂုံ	16.8965190952803	96.207487997599
26	109	2413	Bhone Gyi Kyaung Kwae	ဘုန်းကြီးကျောင်းကွေ့	Kyan Sit Thar Road	ကျန်စစ်သားလမ်း	North Dagon	မြောက်ဒဂုံ	16.899175703659544	96.21128644561398
26	110	2404	Moke Wa	မုခ်ဝ	Kyan Sit Thar Road	ကျန်စစ်သားလမ်း	North Dagon	မြောက်ဒဂုံ	16.904594107145346	96.20447759516537
26	111	1029	Awine	အဝိုင်း	Dagon University	ဒဂုံတက္ကသိုလ်	North Dagon	မြောက်ဒဂုံ	16.910341	96.213602
26	112	2122	Sal Mile	(၁၀) မိုင်	Dagon University	ဒဂုံတက္ကသိုလ်	North Dagon	မြောက်ဒဂုံ	16.913297	96.211864
26	113	2123	Yone Shae	ရုံးရှေ့	Dagon University	ဒဂုံတက္ကသိုလ်	North Dagon	မြောက်ဒဂုံ	16.915206	96.210791
