svc_name	sequence	stop_id	name_en	name_mm	road_en	road_mm	township_en	township_mm	lat	lng
3A	1	792	Sae-Tit Lan	(၁၁) လမ်း	Kyun Shwe Wah Road	ကျွန်းရွှေဝါလမ်း	Dagon Seikkan	ဒဂုံဆိပ်ကမ်း	16.823533397541077	96.26791923539714
3A	2	789	Padauk Kwae	ပိတောက်ကွေ့	Kyun Shwe Wah Road	ကျွန်းရွှေဝါလမ်း	Dagon Seikkan	ဒဂုံဆိပ်ကမ်း	16.827114903920087	96.2692688475363
3A	3	782	Moke Oo (Yuzana Garden)	မုခ်ဦး (ယုဇနဥယျာဉ်)	Bago River Road	ပဲခူးမြစ်လမ်း	Dagon Seikkan	ဒဂုံဆိပ်ကမ်း	16.83233149473826	96.2701914855279
3A	4	780	Ma Wa Ta Yone Shae/Oh Eain	မဝတရုံးရှေ့/အိုးအိမ်	Bago River Road	ပဲခူးမြစ်လမ်း	Dagon Seikkan	ဒဂုံဆိပ်ကမ်း	16.832435189283327	96.26510626869276
3A	5	772	Mya Nandar	မြနန္ဒာ	Bago River Road	ပဲခူးမြစ်လမ်း	Dagon Seikkan	ဒဂုံဆိပ်ကမ်း	16.83504769143127	96.2554765935056
3A	6	773	Yadanar Lan	ရတနာလမ်း	Bago River Road	ပဲခူးမြစ်လမ်း	Dagon Seikkan	ဒဂုံဆိပ်ကမ်း	16.836587958714585	96.24994466314095
3A	7	666	Thein Kyaung	သိမ်ကျောင်း	Ayar Wun Main Road	ဧရာဝဏ်လမ်းမကြီး	Thaketa	သာကေတ	16.838174523605293	96.24415834201501
3A	8	732	Ayar Wun	ဧရာဝဏ်	Maungmakan Kantha Road	မောင်းမကန်ကန်သာလမ်း	South Dagon	တောင်ဒဂုံ	16.849249782051785	96.24598773429172
3A	9	730	Awaiyar	အဝေရာ	Maungmakan Kantha Road	မောင်းမကန်ကန်သာလမ်း	South Dagon	တောင်ဒဂုံ	16.85056291077779	96.24438039958478
3A	10	2136	Phone Gyi Kyaung Kwae	ဘုန်းကြီးကျောင်းကွေ့	Maungmakan Kantha Road	မောင်းမကန်ကန်သာလမ်း	South Dagon	တောင်ဒဂုံ	16.85390842379656	96.24016143148766
3A	11	724	Tadar Htate	တံတားထိပ်	Maungmakan Kantha Road	မောင်းမကန်ကန်သာလမ်း	South Dagon	တောင်ဒဂုံ	16.856038641124687	96.23746423982085
3A	12	720	Sae-shit Kwae	(၁၈) ကွေ့	Si Pin Road	စည်ပင်လမ်း	South Dagon	တောင်ဒဂုံ	16.858028354459456	96.23452187748626
3A	13	713	Kyan Mar Yae	ကျန်းမာရေး	Si Pin Road	စည်ပင်လမ်း	South Dagon	တောင်ဒဂုံ	16.856347660123912	96.23307824134828
3A	14	714	Kyaung Shae	ကျောင်းရှေ့	Si Pin Road	စည်ပင်လမ်း	South Dagon	တောင်ဒဂုံ	16.854353757739055	96.23134559718892
3A	15	688	Gate Haung	ဂိတ်ဟောင်း	Si Pin Road	စည်ပင်လမ်း	South Dagon	တောင်ဒဂုံ	16.852380771600217	96.2296228017658
3A	16	692	Kone Padaythar	ကုန်ပဒေသာ	Si Pin Road	စည်ပင်လမ်း	South Dagon	တောင်ဒဂုံ	16.849945354749266	96.22755198972301
3A	17	648	Thit Saing Kwae	သစ်ဆိုင်ကွေ့	Pyi Htaung Su Main Road	ပြည်ထောင်စုလမ်းမကြီး	South Dagon	တောင်ဒဂုံ	16.847488848406	96.22321617789568
3A	18	702	Yauk Kaw	ယောက်ကော်	Pyi Htaung Su Main Road	ပြည်ထောင်စုလမ်းမကြီး	South Dagon	တောင်ဒဂုံ	16.848345591882044	96.22222401201726
3A	19	696	Pan Chan	ပန်းခြံ	Pyi Htaung Su Main Road	ပြည်ထောင်စုလမ်းမကြီး	South Dagon	တောင်ဒဂုံ	16.851441460122164	96.21855676174165
3A	20	682	Than Lan	သံလမ်း	Pyi Htaung Su Main Road	ပြည်ထောင်စုလမ်းမကြီး	South Dagon	တောင်ဒဂုံ	16.854732930507534	96.21484707808123
3A	21	678	Taung Myauk Lan Sone	တောင်/မြောက်လမ်းဆုံ	Pyi Htaung Su Main Road	ပြည်ထောင်စုလမ်းမကြီး	South Dagon	တောင်ဒဂုံ	16.858705846109032	96.21464063180612
3A	22	674	Tadar Phyu	တံတားဖြူ	No. 2 Main Road	အမှတ်(၂)လမ်းမ	South Dagon	တောင်ဒဂုံ	16.857583069279	96.212414985057
3A	23	628	Kar Gyi Gate	ကားကြီးဂိတ်	No. 2 Main Road	အမှတ်(၂)လမ်းမ	South Dagon	တောင်ဒဂုံ	16.847393204315072	96.20903999079022
3A	24	634	Sanpya Zay/ Nga Moe Yeik	စံပြဈေး/ ငမိုးရိပ်	Lay Daung Kan Road	လေးထောင့်ကန်လမ်း	Thingangyun	သင်္ဃန်းကျွန်း	16.84191124705454	96.20437290519476
3A	25	2160	Myittar Shwe Yi	မေတ္တာရွှေရည်	Lay Daung Kan Road	လေးထောင့်ကန်လမ်း	Thingangyun	သင်္ဃန်းကျွန်း	16.838714941415013	96.20109388371932
3A	26	597	Bawa Myint	ဘဝမြင့်	Lay Daung Kan Road	လေးထောင့်ကန်လမ်း	Thingangyun	သင်္ဃန်းကျွန်း	16.837495855328342	96.19981845142321
3A	27	609	Kalar Su	ကုလားစု	Lay Daung Kan Road	လေးထောင့်ကန်လမ်း	Thingangyun	သင်္ဃန်းကျွန်း	16.835010345871222	96.19727026904003
3A	28	602	B.O.C	ဘီအိုစီ	Lay Daung Kan Road	လေးထောင့်ကန်လမ်း	Thingangyun	သင်္ဃန်းကျွန်း	16.83286665425466	96.1950981616974
3A	29	616	Paya Lan	ဘုရားလမ်း	Lay Daung Kan Road	လေးထောင့်ကန်လမ်း	Thingangyun	သင်္ဃန်းကျွန်း	16.83113763950624	96.19334714021535
3A	30	367	Zawana	ဇဝန	Lay Daung Kan Road	လေးထောင့်ကန်လမ်း	Thingangyun	သင်္ဃန်းကျွန်း	16.82807920732785	96.18817041395235
3A	31	361	Khap Chee Yar	ခပ်ချီးယား	Lay Daung Kan Road	လေးထောင့်ကန်လမ်း	Thingangyun	သင်္ဃန်းကျွန်း	16.826197871436484	96.18649849668148
3A	32	356	Athin Taik	အသင်းတိုက်	Lay Daung Kan Road	လေးထောင့်ကန်လမ်း	Thingangyun	သင်္ဃန်းကျွန်း	16.82307152350803	96.1833661585115
3A	33	365	Than Lan	သံလမ်း	Lay Daung Kan Road	လေးထောင့်ကန်လမ်း	Thingangyun	သင်္ဃန်းကျွန်း	16.819962494477046	96.17833246942611
3A	34	345	Lan Sone	လမ်းဆုံ	East Horse Race Course Road	အရှေ့မြင်းပြိုင်လမ်း	Tamwe	တာမွေ	16.819240515122235	96.17228088201956
3A	35	343	Kyaung Shae	ကျောင်းရှေ့	East Horse Race Course Road	အရှေ့မြင်းပြိုင်လမ်း	Tamwe	တာမွေ	16.815445555142144	96.17246560541389
3A	36	238	Byaing Yae Oh Sin	ဗျိုင်းရေအိုးစင်	Banyardala Road	ဗညားဒလလမ်း	Tamwe	တာမွေ	16.80649379907491	96.17212619399655
3A	37	388	Thida	သီတာ	Banyardala Road	ဗညားဒလလမ်း	Mingalar Taung Nyunt	မင်္ဂလာတောင်ညွန့်	16.799386810982924	96.17579292040321
3A	38	374	Aung Mingalar	အောင်မင်္ဂလာ	Banyardala Road	ဗညားဒလလမ်း	Mingalar Taung Nyunt	မင်္ဂလာတောင်ညွန့်	16.79630894928623	96.1766241118312
3A	39	454	Yuzana Plaza/ Lan Kyal	ယုဇနပလာဇာ/လမ်းကျယ်	Banyardala Road	ဗညားဒလလမ်း	Mingalar Taung Nyunt	မင်္ဂလာတောင်ညွန့်	16.79446266570228	96.17558569880204
3A	40	444	Mingalar Zay	မင်္ဂလာဈေး	Mill Road	စက်ရုံလမ်း	Mingalar Taung Nyunt	မင်္ဂလာတောင်ညွန့်	16.79177780504188	96.17451729951428
3A	41	450	Sar Taik	စာတိုက်	Upper Pazundaung Road	အထက်ပုဇွန်တောင်လမ်း	Pazundaung	ပုဇွန်တောင်	16.784480218365655	96.17485465016216
3A	42	448	Pazundaung Zay	ပုဇွန်တောင်ဈေး	Upper Pazundaung Road	အထက်ပုဇွန်တောင်လမ်း	Pazundaung	ပုဇွန်တောင်	16.78161309073329	96.17429679259658
3A	43	161	Si Saing	ဆီဆိုင်	Botahtaung Pagoda Road	ဗိုလ်တထောင်ဘုရားလမ်း	Botahtaung	ဗိုလ်တထောင်	16.775845153839875	96.17261703104306
3A	44	2221	Ngar-sae Kwae	(၅၀) ကွေ့	Botahtaung Pagoda Road	ဗိုလ်တထောင်ဘုရားလမ်း	Botahtaung	ဗိုလ်တထောင်	16.774431620031898	96.17256648489276
3A	45	162	Ye Sa Khan	ရဲစခန်း	Botahtaung Pagoda Road	ဗိုလ်တထောင်ဘုရားလမ်း	Botahtaung	ဗိုလ်တထောင်	16.771446709027767	96.17255423683675
3A	46	155	Lan Ngar Sae	လမ်း(၅၀)	Merchant Road	ကုန်သည်လမ်း	Botahtaung	ဗိုလ်တထောင်	16.771425522061257	96.1712548742071
3A	47	147	Bokalay Zay	ဘိုကလေးဈေး	Merchant Road	ကုန်သည်လမ်း	Kyauktada	ကျောက်တံတား	16.77159734508142	96.16637403616551
3A	48	151	Pansodan (Seikkanthar)	ပန်းဆိုးတန်း (ဆိပ်ကမ်းသာလမ်း)	Merchant Road	ကုန်သည်လမ်း	Kyauktada	ကျောက်တံတား	16.77165175700966	96.16308339871469
3A	49	152	Sule Pan Chan	ဆူးလေပန်းခြံ	Mahabandoola Road / Mahabandoola Garden	မဟာဗန္ဓုလလမ်း / မဟာဗန္ဓုလဥယျာဉ်	Kyauktada	ကျောက်တံတား	16.774245735327835	96.15955352783205
3A	50	141	Sule Myodaw Khan Ma	ဆူးလေမြို့တော်ခန်းမ	Sule Pagoda Road	ဆူးလေးဘုရားလမ်း	Kyauktada	ကျောက်တံတား	16.775683412852157	96.15891139023006
3A	51	174	Pansodan	ပန်းဆိုးတန်း	Bogyoke Aung San Road	ဗိုလ်ချုပ်အောင်ဆန်းလမ်း	Kyauktada	ကျောက်တံတား	16.779170806025874	96.16235559118651
3A	52	176	Lay-sae-chauk Lan	(၄၆) လမ်း	Bogyoke Aung San Road	ဗိုလ်ချုပ်အောင်ဆန်းလမ်း	Kyauktada	ကျောက်တံတား	16.778879536993166	96.16815350716934
3A	53	156	Lan Ngar Sae	လမ်း(၅၀)	Bogyoke Aung San Road	ဗိုလ်ချုပ်အောင်ဆန်းလမ်း	Kyauktada	ကျောက်တံတား	16.778733641495005	96.17131233215333
3A	54	447	Pazundaung Zay	ပုဇွန်တောင်ဈေး	Upper Pazundaung Road	အထက်ပုဇွန်တောင်လမ်း	Pazundaung	ပုဇွန်တောင်	16.78022529329327	96.17454728577287
3A	55	449	Sar Taik	စာတိုက်	Upper Pazundaung Road	အထက်ပုဇွန်တောင်လမ်း	Pazundaung	ပုဇွန်တောင်	16.784401976400744	96.17494081612678
3A	56	443	Mingalar Zay	မင်္ဂလာဈေး	Mill Road	စက်ရုံလမ်း	Mingalar Taung Nyunt	မင်္ဂလာတောင်ညွန့်	16.791772569051048	96.17468064185232
3A	57	453	Yuzana Plaza/ Lan Kyal	ယုဇနပလာဇာ/လမ်းကျယ်	Banyardala Road	ဗညားဒလလမ်း	Mingalar Taung Nyunt	မင်္ဂလာတောင်ညွန့်	16.794241794144632	96.1756777111441
3A	58	375	Aung Mingalar	အောင်မင်္ဂလာ	Banyardala Road	ဗညားဒလလမ်း	Mingalar Taung Nyunt	မင်္ဂလာတောင်ညွန့်	16.796485925479523	96.17683447664605
3A	59	387	Thida	သီတာ	Banyardala Road	ဗညားဒလလမ်း	Mingalar Taung Nyunt	မင်္ဂလာတောင်ညွန့်	16.79939878707904	96.1760182469152
3A	60	239	Byaing Yae Oh Sin	ဗျိုင်းရေအိုးစင်	Banyardala Road	ဗညားဒလလမ်း	Tamwe	တာမွေ	16.806694055071702	96.17217367747799
3A	61	342	Kyaung Shae	ကျောင်းရှေ့	East Horse Race Course Road	အရှေ့မြင်းပြိုင်လမ်း	Tamwe	တာမွေ	16.81540650761808	96.17265560187664
3A	62	344	Lan Sone	လမ်းဆုံ	East Horse Race Course Road	အရှေ့မြင်းပြိုင်လမ်း	Tamwe	တာမွေ	16.818935326878414	96.17252718424426
3A	63	364	Than Lan	သံလမ်း	Lay Daung Kan Road	လေးထောင့်ကန်လမ်း	Thingangyun	သင်္ဃန်းကျွန်း	16.81978945155671	96.17808243725449
3A	64	357	Athin Taik	အသင်းတိုက်	Lay Daung Kan Road	လေးထောင့်ကန်လမ်း	Thingangyun	သင်္ဃန်းကျွန်း	16.823051124563765	96.18346382863821
3A	65	360	Khap Chee Yar	ခပ်ချီးယား	Lay Daung Kan Road	လေးထောင့်ကန်လမ်း	Thingangyun	သင်္ဃန်းကျွန်း	16.826177192022	96.18658434832471
3A	66	366	Zawana	ဇဝန	Lay Daung Kan Road	လေးထောင့်ကန်လမ်း	Thingangyun	သင်္ဃန်းကျွန်း	16.827762389884697	96.18795190133825
3A	67	615	Paya Lan	ဘုရားလမ်း	Lay Daung Kan Road	လေးထောင့်ကန်လမ်း	Thingangyun	သင်္ဃန်းကျွန်း	16.830733889574624	96.1931522190571
3A	68	601	B.O.C	ဘီအိုစီ	Lay Daung Kan Road	လေးထောင့်ကန်လမ်း	Thingangyun	သင်္ဃန်းကျွန်း	16.832662314235495	96.19507358176634
3A	69	610	Kalar Su	ကုလားစု	Lay Daung Kan Road	လေးထောင့်ကန်လမ်း	Thingangyun	သင်္ဃန်းကျွန်း	16.834930861177277	96.19739677291366
3A	70	598	Bawa Myint	ဘဝမြင့်	Lay Daung Kan Road	လေးထောင့်ကန်လမ်း	Thingangyun	သင်္ဃန်းကျွန်း	16.837140047336906	96.19967010581604
3A	71	2161	Myittar Shwe Yi	မေတ္တာရွှေရည်	Lay Daung Kan Road	လေးထောင့်ကန်လမ်း	Thingangyun	သင်္ဃန်းကျွန်း	16.838646395702437	96.20123337233963
3A	72	635	Sanpya Zay/ Nga Moe Yeik	စံပြဈေး/ ငမိုးရိပ်	Lay Daung Kan Road	လေးထောင့်ကန်လမ်း	Thingangyun	သင်္ဃန်းကျွန်း	16.84200212059943	96.20458014775069
3A	73	629	Kar Gyi Gate	ကားကြီးဂိတ်	No. 2 Main Road	အမှတ်(၂)လမ်းမ	South Dagon	တောင်ဒဂုံ	16.84738131147338	96.20909719727936
3A	74	673	Tadar Phyu	တံတားဖြူ	No. 2 Main Road	အမှတ်(၂)လမ်းမ	South Dagon	တောင်ဒဂုံ	16.857554511951882	96.21246330672876
3A	75	677	Taung Myauk Lan Sone	တောင်/မြောက်လမ်းဆုံ	Pyi Htaung Su Main Road	ပြည်ထောင်စုလမ်းမကြီး	South Dagon	တောင်ဒဂုံ	16.858665898173957	96.21454811654986
3A	76	681	Than Lan	သံလမ်း	Pyi Htaung Su Main Road	ပြည်ထောင်စုလမ်းမကြီး	South Dagon	တောင်ဒဂုံ	16.854747570367522	96.21478148968893
3A	77	695	Pan Chan	ပန်းခြံ	Pyi Htaung Su Main Road	ပြည်ထောင်စုလမ်းမကြီး	South Dagon	တောင်ဒဂုံ	16.85140732658994	96.21852030046286
3A	78	701	Yauk Kaw	ယောက်ကော်	Pyi Htaung Su Main Road	ပြည်ထောင်စုလမ်းမကြီး	South Dagon	တောင်ဒဂုံ	16.848305521426965	96.22216035146268
3A	79	2138	Thit Saing Kwae	သစ်ဆိုင်ကွေ့	Pyi Htaung Su Main Road	ပြည်ထောင်စုလမ်းမကြီး	South Dagon	တောင်ဒဂုံ	16.847183565294515	96.22347964206712
3A	80	691	Kone Padaythar	ကုန်ပဒေသာ	Si Pin Road	စည်ပင်လမ်း	South Dagon	တောင်ဒဂုံ	16.84975661600442	96.22747806133705
3A	81	687	Gate Haung	ဂိတ်ဟောင်း	Si Pin Road	စည်ပင်လမ်း	South Dagon	တောင်ဒဂုံ	16.85231094058949	96.2297002505511
3A	82	715	Kyaung Shae	ကျောင်းရှေ့	Si Pin Road	စည်ပင်လမ်း	South Dagon	တောင်ဒဂုံ	16.854293994891357	96.23140462674202
3A	83	712	Kyan Mar Yae	ကျန်းမာရေး	Si Pin Road	စည်ပင်လမ်း	South Dagon	တောင်ဒဂုံ	16.856130751260157	96.23298319056632
3A	84	721	Sae-shit Kwae	(၁၈) ကွေ့	Si Pin Road	စည်ပင်လမ်း	South Dagon	တောင်ဒဂုံ	16.85800675602665	96.23459486290815
3A	85	2134	Tadar Htate	တံတားထိပ်	Maungmakan Kantha Road	မောင်းမကန်ကန်သာလမ်း	South Dagon	တောင်ဒဂုံ	16.85598	96.237389
3A	86	2135	Phone Gyi Kyaung Kwae	ဘုန်းကြီးကျောင်းကွေ့	Maungmakan Kantha Road	မောင်းမကန်ကန်သာလမ်း	South Dagon	တောင်ဒဂုံ	16.85407168896496	96.23980641597882
3A	87	729	Awaiyar	အဝေရာ	Maungmakan Kantha Road	မောင်းမကန်ကန်သာလမ်း	South Dagon	တောင်ဒဂုံ	16.85052324189335	96.24428279232234
3A	88	731	Ayar Wun	ဧရာဝဏ်	Maungmakan Kantha Road	မောင်းမကန်ကန်သာလမ်း	South Dagon	တောင်ဒဂုံ	16.849183980978832	96.24591349158436
3A	89	664	Thein Kyaung	သိမ်ကျောင်း	Ayar Wun Main Road	ဧရာဝဏ်လမ်းမကြီး	Thaketa	သာကေတ	16.838579621501808	96.24387042364107
3A	90	774	Yadanar Lan	ရတနာလမ်း	Bago River Road	ပဲခူးမြစ်လမ်း	Dagon Seikkan	ဒဂုံဆိပ်ကမ်း	16.83661172569713	96.24944820301609
3A	91	771	Mya Nandar	မြနန္ဒာ	Bago River Road	ပဲခူးမြစ်လမ်း	Dagon Seikkan	ဒဂုံဆိပ်ကမ်း	16.835173105870915	96.25461451476441
3A	92	779	Ma Wa Ta Yone Shae/Oh Eain	မဝတရုံးရှေ့/အိုးအိမ်	Bago River Road	ပဲခူးမြစ်လမ်း	Dagon Seikkan	ဒဂုံဆိပ်ကမ်း	16.832399568107512	96.26484779175372
3A	93	781	Moke Oo (Yuzana Garden)	မုခ်ဦး (ယုဇနဥယျာဉ်)	Bago River Road	ပဲခူးမြစ်လမ်း	Dagon Seikkan	ဒဂုံဆိပ်ကမ်း	16.83207512627888	96.27043889835477
3A	94	790	Padauk Kwae	ပိတောက်ကွေ့	Kyun Shwe Wah Road	ကျွန်းရွှေဝါလမ်း	Dagon Seikkan	ဒဂုံဆိပ်ကမ်း	16.827135683519842	96.26922913827003
3A	95	791	Sae-Tit Lan	(၁၁) လမ်း	Kyun Shwe Wah Road	ကျွန်းရွှေဝါလမ်း	Dagon Seikkan	ဒဂုံဆိပ်ကမ်း	16.823556905408946	96.26786213368177
