svc_name	sequence	stop_id	name_en	name_mm	road_en	road_mm	township_en	township_mm	lat	lng
69	1	1587	Auk Gate	အောက်ဂိတ်	Hlawga Road	လှော်ကားလမ်း	Shwe Pyithar	ရွှေပြည်သာ	17.00111897368812	96.0666501056403
69	2	1597	Kyaung Shae	ကျောင်းရှေ့	Hlawga Road	လှော်ကားလမ်း	Shwe Pyithar	ရွှေပြည်သာ	17.00511328793802	96.08280961867425
69	3	1601	Tar Sone	တာဆုံ	No. 4 Main Road	အမှတ်(၄)လမ်းမ	Shwe Pyithar	ရွှေပြည်သာ	17.005483360212537	96.08344220090657
69	4	1596	Kwet Thit	ကွက်သစ်	No. 4 Main Road	အမှတ်(၄)လမ်းမ	Shwe Pyithar	ရွှေပြည်သာ	17.003676094867924	96.08468389604242
69	5	1600	Padonmar	ပဒုမ္မာ	No. 4 Main Road	အမှတ်(၄)လမ်းမ	Shwe Pyithar	ရွှေပြည်သာ	17.001617062783314	96.08615349512549
69	6	2249	Computer	ကွန်ပျူတာ	No. 4 Main Road	အမှတ်(၄)လမ်းမ	Shwe Pyithar	ရွှေပြည်သာ	16.998620693034137	96.08830445911737
69	7	68	Nwar Chan	နွားခြံ	No. 4 Main Road	အမှတ်(၄)လမ်းမ	Shwe Pyithar	ရွှေပြည်သာ	16.994694916471154	96.09105066396297
69	8	1493	Thabarwa	သဘာဝ	No. 4 Main Road	အမှတ်(၄)လမ်းမ	Shwe Pyithar	ရွှေပြည်သာ	16.988871	96.092581
69	9	1496	Thardukan	သာဓုကန်	No. 4 Main Road	အမှတ်(၄)လမ်းမ	Shwe Pyithar	ရွှေပြည်သာ	16.98379324224211	96.09319077339023
69	10	1491	Ponnya	ပုည	No. 4 Main Road	အမှတ်(၄)လမ်းမ	Shwe Pyithar	ရွှေပြည်သာ	16.97908187590623	96.09351490158589
69	11	1489	Oak Pho	အုတ်ဖို	No. 4 Main Road	အမှတ်(၄)လမ်းမ	Shwe Pyithar	ရွှေပြည်သာ	16.974234226742837	96.09422648325565
69	12	1495	Than Phyu	သံဖြူ	No. 4 Main Road	အမှတ်(၄)လမ်းမ	Shwe Pyithar	ရွှေပြည်သာ	16.972031450019877	96.0945617593825
69	13	1499	Ye Chauk	ရဲ (၆)	No. 4 Main Road	အမှတ်(၄)လမ်းမ	Shwe Pyithar	ရွှေပြည်သာ	16.968733249216562	96.09524251660332
69	14	72	Gate Haung	ဂိတ်ဟောင်း	No. 4 Main Road	အမှတ်(၄)လမ်းမ	Shwe Pyithar	ရွှေပြည်သာ	16.964731405762105	96.09605692327023
69	15	1517	Shwe Pyi Thar Kwae	ရွှေပြည်သာကွေ့	No. 4 Main Road/ Bogyoke Aung San Road	အမှတ်(၄)လမ်းမ/ဗိုလ်ချုပ်အောင်ဆန်းလမ်း	Shwe Pyithar	ရွှေပြည်သာ	16.961429849782906	96.09672259306538
69	16	1518	Sit Tat	စစ်တပ်	No. 4 Main Road	အမှတ်(၄)လမ်းမ	Shwe Pyithar	ရွှေပြည်သာ	16.958026253880583	96.09734735917301
69	17	1509	Kyaung Lan	ကျောင်းလမ်း	No. 4 Main Road	အမှတ်(၄)လမ်းမ	Shwe Pyithar	ရွှေပြည်သာ	16.951929487848194	96.0998342279345
69	18	1506	Kan Tharyar	ကန်သာယာ	No. 4 Main Road	အမှတ်(၄)လမ်းမ	Shwe Pyithar	ရွှေပြည်သာ	16.950086889460792	96.10064140520991
69	19	1511	Myin Hlae Gate	မြင်းလှည်းဂိတ်	No. 4 Main Road	အမှတ်(၄)လမ်းမ	Shwe Pyithar	ရွှေပြည်သာ	16.944725	96.102603
69	20	1513	Phone Gyi Kyaung	ဘုန်းကြီးကျောင်း	No. 4 Main Road	အမှတ်(၄)လမ်းမ	Shwe Pyithar	ရွှေပြည်သာ	16.942929	96.102614
69	21	1515	Sauk Lote Yae	ဆောက်လုပ်ရေး	No. 4 Main Road	အမှတ်(၄)လမ်းမ	Shwe Pyithar	ရွှေပြည်သာ	16.94143	96.102625
69	22	70	Danyin Gone Lan Sone	ဒညင်းကုန်းလမ်းဆုံ	Lower Mingalardon Road	အောက်မင်္ဂလာဒုံလမ်း	Insein	အင်းစိန်	16.93334660815077	96.10175833571702
69	23	1379	Bo Chan	ဘိုခြံ	Lower Mingalardon Road	အောက်မင်္ဂလာဒုံလမ်း	Insein	အင်းစိန်	16.930069803122507	96.10099055338652
69	24	1383	Ywar Thit	ရွာသစ်	Lower Mingalardon Road	အောက်မင်္ဂလာဒုံလမ်း	Insein	အင်းစိန်	16.92549591591529	96.09853390138596
69	25	1377	Aung San Zay	အောင်ဆန်းဈေး	Lower Mingalardon Road	အောက်မင်္ဂလာဒုံလမ်း	Insein	အင်းစိန်	16.92158657359925	96.09760954510422
69	26	1382	Kyaung Gate	ကျောင်းဂိတ်	Lower Mingalardon Road	အောက်မင်္ဂလာဒုံလမ်း	Insein	အင်းစိန်	16.917977527826658	96.0973806353286
69	27	41	Tit Gate	(၁) ဂိတ်	Lower Mingalardon Road	အောက်မင်္ဂလာဒုံလမ်း	Insein	အင်းစိန်	16.91550135721653	96.09722418710592
69	28	1363	Saung Hnit	ဆောင် (၂)	Lower Mingalardon Road	အောက်မင်္ဂလာဒုံလမ်း	Insein	အင်းစိန်	16.911949854431207	96.09726368682459
69	29	1355	Phot Kan Zay	ဖော့ကန်ဈေး	Lower Mingalardon Road	အောက်မင်္ဂလာဒုံလမ်း	Insein	အင်းစိန်	16.907714315111864	96.09755581710488
69	30	43	Japan Lan	ဂျပန်လမ်း	Lower Mingalardon Road	အောက်မင်္ဂလာဒုံလမ်း	Insein	အင်းစိန်	16.905062077475037	96.09768565278502
69	31	1358	Pyi Taw Thar	ပြည်တော်သာ	Bayint Naung Road	ဘုရင့်နောင်လမ်း	Insein	အင်းစိန်	16.900814	96.095425
69	32	1335	Ywarma	ရွာမ	Bayint Naung Road	ဘုရင့်နောင်လမ်း	Insein	အင်းစိန်	16.898545795380826	96.09539680648597
69	33	1333	Sayardaw Gyi	ဆရာတော်ကြီး	Bayint Naung Road	ဘုရင့်နောင်လမ်း	Insein	အင်းစိန်	16.894617928856686	96.09454614808783
69	34	1328	Min Zedi	မင်းစေတီ	Bayint Naung Road	ဘုရင့်နောင်လမ်း	Insein	အင်းစိန်	16.890683724701926	96.09557161107661
69	35	2201	Lay-sae-shit Gate	(၄၈) ဂိတ်	Bayint Naung Road	ဘုရင့်နောင်လမ်း	Insein	အင်းစိန်	16.886358940891423	96.09739128034565
69	36	1332	Pauk Taw Wa	ပေါက်တောဝ	Hlaing River Road	လှိုင်မြစ်လမ်း	Insein	အင်းစိန်	16.885151591308578	96.09710751101375
69	37	1323	Insein Kannar	အင်းစိန်ကမ်းနား	Hlaing River Road	လှိုင်မြစ်လမ်း	Insein	အင်းစိန်	16.88350071428124	96.09398344997318
69	38	31	Tit Htate	(၁) ထိပ်	Nyaung Done Road	ညောင်တန်းလမ်း	Hlaing Tharyar	လှိုင်သာယာ	16.878179559370544	96.07839642092587
69	39	1139	Thone Htate	(၃) ထိပ်	Nyaung Done Road	ညောင်တန်းလမ်း	Hlaing Tharyar	လှိုင်သာယာ	16.87769609222099	96.0750614047356
69	40	1135	Ngar Htate	(၅) ထိပ်	Nyaung Done Road	ညောင်တန်းလမ်း	Hlaing Tharyar	လှိုင်သာယာ	16.87705918419795	96.0712819453329
69	41	2229	Yone Shae	ရုံးရှေ့	Nyaung Done Road	ညောင်တန်းလမ်း	Hlaing Tharyar	လှိုင်သာယာ	16.875691697065914	96.06260942062363
69	42	1131	Mee Khwat Zay	မီးခွက်ဈေး	Nyaung Done Road	ညောင်တန်းလမ်း	Hlaing Tharyar	လှိုင်သာယာ	16.874082055613908	96.05199716635981
69	43	1124	Sanay Ma	စနေမ	No. 5 Main Road	အမှတ်(၅)လမ်းမ	Hlaing Tharyar	လှိုင်သာယာ	16.872406206400104	96.04160020127894
69	44	1121	B.O.C	ဘီအိုစီ	No. 5 Main Road	အမှတ်(၅)လမ်းမ	Hlaing Tharyar	လှိုင်သာယာ	16.87264850336244	96.03750987444076
69	45	1126	Thama Kone	သမကုန်း	No. 5 Main Road	အမှတ်(၅)လမ်းမ	Hlaing Tharyar	လှိုင်သာယာ	16.874178979592063	96.03369491407649
69	46	25	Dagon Ayar A Way Pyay	ဒဂုံဧရာအဝေးပြေး	No. 5 Main Road	အမှတ်(၅)လမ်းမ	Hlaing Tharyar	လှိုင်သာယာ	16.878047836977906	96.0241029993631
69	47	1125	Thama Kone	သမကုန်း	No. 5 Main Road	အမှတ်(၅)လမ်းမ	Hlaing Tharyar	လှိုင်သာယာ	16.874114310138687	96.0335786570795
69	48	1122	B.O.C	ဘီအိုစီ	No. 5 Main Road	အမှတ်(၅)လမ်းမ	Hlaing Tharyar	လှိုင်သာယာ	16.872540258842154	96.03740002959967
69	49	1123	Sanay Ma	စနေမ	No. 5 Main Road	အမှတ်(၅)လမ်းမ	Hlaing Tharyar	လှိုင်သာယာ	16.872309492066083	96.04157363064589
69	50	1130	Mee Khwat Zay	မီးခွက်ဈေး	Nyaung Done Road	ညောင်တန်းလမ်း	Hlaing Tharyar	လှိုင်သာယာ	16.8737204576502	96.05064585344736
69	51	2228	Yone Shae	ရုံးရှေ့	Nyaung Done Road	ညောင်တန်းလမ်း	Hlaing Tharyar	လှိုင်သာယာ	16.87554135084313	96.06214673956858
69	52	1134	Ngar Htate	(၅) ထိပ်	Nyaung Done Road	ညောင်တန်းလမ်း	Hlaing Tharyar	လှိုင်သာယာ	16.876926030577906	96.0713158154249
69	53	1138	Thone Htate	(၃) ထိပ်	Nyaung Done Road	ညောင်တန်းလမ်း	Hlaing Tharyar	လှိုင်သာယာ	16.8775803210003	96.07509382534774
69	54	30	Tit Htate	(၁) ထိပ်	Nyaung Done Road	ညောင်တန်းလမ်း	Hlaing Tharyar	လှိုင်သာယာ	16.87808727951249	96.07841787859799
69	55	1322	Insein Kannar	အင်းစိန်ကမ်းနား	Hlaing River Road	လှိုင်မြစ်လမ်း	Insein	အင်းစိန်	16.883421651001527	96.09407741110773
69	56	2395	Pauk Taw Wa	ပေါက်တောဝ	Hlaing River Road	လှိုင်မြစ်လမ်း	Insein	အင်းစိန်	16.885452461951	96.0977136483416
69	57	1326	Lay-sae-shit Gate	(၄၈) ဂိတ်	Bayint Naung Road	ဘုရင့်နောင်လမ်း	Insein	အင်းစိန်	16.886319	96.097508
69	58	1327	Min Zedi	မင်းစေတီ	Bayint Naung Road	ဘုရင့်နောင်လမ်း	Insein	အင်းစိန်	16.890691905422955	96.09579406678678
69	59	1334	Sayardaw Gyi	ဆရာတော်ကြီး	Bayint Naung Road	ဘုရင့်နောင်လမ်း	Insein	အင်းစိန်	16.894571973404968	96.09472344629468
69	60	1336	Ywarma	ရွာမ	Bayint Naung Road	ဘုရင့်နောင်လမ်း	Insein	အင်းစိန်	16.898276805037824	96.095501286909
69	61	1357	Pyi Taw Thar	ပြည်တော်သာ	Bayint Naung Road	ဘုရင့်နောင်လမ်း	Insein	အင်းစိန်	16.900696842175126	96.09556369017811
69	62	44	Japan Lan	ဂျပန်လမ်း	Lower Mingalardon Road	အောက်မင်္ဂလာဒုံလမ်း	Insein	အင်းစိန်	16.90502450516036	96.09781016595663
69	63	1356	Phot Kan Zay	ဖော့ကန်ဈေး	Lower Mingalardon Road	အောက်မင်္ဂလာဒုံလမ်း	Insein	အင်းစိန်	16.907637768103342	96.0976756573655
69	64	1364	Saung Hnit	ဆောင် (၂)	Lower Mingalardon Road	အောက်မင်္ဂလာဒုံလမ်း	Insein	အင်းစိန်	16.911906288978923	96.09734033932911
69	65	42	Tit Gate	(၁) ဂိတ်	Lower Mingalardon Road	အောက်မင်္ဂလာဒုံလမ်း	Insein	အင်းစိန်	16.915288559472796	96.0973123995973
69	66	1381	Kyaung Gate	ကျောင်းဂိတ်	Lower Mingalardon Road	အောက်မင်္ဂလာဒုံလမ်း	Insein	အင်းစိန်	16.91788444547496	96.09746233792977
69	67	1378	Aung San Zay	အောင်ဆန်းဈေး	Lower Mingalardon Road	အောက်မင်္ဂလာဒုံလမ်း	Insein	အင်းစိန်	16.92132490016646	96.0976821674194
69	68	1384	Ywar Thit	ရွာသစ်	Lower Mingalardon Road	အောက်မင်္ဂလာဒုံလမ်း	Insein	အင်းစိန်	16.925462798129	96.09860481228681
69	69	1380	Bo Chan	ဘိုခြံ	Lower Mingalardon Road	အောက်မင်္ဂလာဒုံလမ်း	Insein	အင်းစိန်	16.930007017169302	96.10109809320423
69	70	69	Danyin Gone Lan Sone	ဒညင်းကုန်းလမ်းဆုံ	Lower Mingalardon Road	အောက်မင်္ဂလာဒုံလမ်း	Insein	အင်းစိန်	16.933232955911787	96.10197149799207
69	71	1514	Sauk Lote Yae	ဆောက်လုပ်ရေး	No. 4 Main Road	အမှတ်(၄)လမ်းမ	Shwe Pyithar	ရွှေပြည်သာ	16.941071	96.102753
69	72	1512	Phone Gyi Kyaung	ဘုန်းကြီးကျောင်း	No. 4 Main Road	အမှတ်(၄)လမ်းမ	Shwe Pyithar	ရွှေပြည်သာ	16.942795	96.102796
69	73	1510	Myin Hlae Gate	မြင်းလှည်းဂိတ်	No. 4 Main Road	အမှတ်(၄)လမ်းမ	Shwe Pyithar	ရွှေပြည်သာ	16.94414	96.10285
69	74	1507	Kan Tharyar	ကန်သာယာ	No. 4 Main Road	အမှတ်(၄)လမ်းမ	Shwe Pyithar	ရွှေပြည်သာ	16.950132390389058	96.10075741074981
69	75	1508	Kyaung Lan	ကျောင်းလမ်း	No. 4 Main Road	အမှတ်(၄)လမ်းမ	Shwe Pyithar	ရွှေပြည်သာ	16.95163170997072	96.10013970639558
69	76	1519	Sit Tat	စစ်တပ်	No. 4 Main Road	အမှတ်(၄)လမ်းမ	Shwe Pyithar	ရွှေပြည်သာ	16.958198027604034	96.09759164974095
69	77	1516	Shwe Pyi Thar Kwae	ရွှေပြည်သာကွေ့	No. 4 Main Road/ Bogyoke Aung San Road	အမှတ်(၄)လမ်းမ/ဗိုလ်ချုပ်အောင်ဆန်းလမ်း	Shwe Pyithar	ရွှေပြည်သာ	16.961084945144684	96.09701604349542
69	78	71	Gate Haung	ဂိတ်ဟောင်း	No. 4 Main Road	အမှတ်(၄)လမ်းမ	Shwe Pyithar	ရွှေပြည်သာ	16.963966005856975	96.09650778584184
69	79	1498	Ye Chauk	ရဲ (၆)	No. 4 Main Road	အမှတ်(၄)လမ်းမ	Shwe Pyithar	ရွှေပြည်သာ	16.96787122038794	96.09573139110582
69	80	1494	Than Phyu	သံဖြူ	No. 4 Main Road	အမှတ်(၄)လမ်းမ	Shwe Pyithar	ရွှေပြည်သာ	16.971547071368082	96.09499946236612
69	81	1488	Oak Pho	အုတ်ဖို	No. 4 Main Road	အမှတ်(၄)လမ်းမ	Shwe Pyithar	ရွှေပြည်သာ	16.973700470429442	96.09446526272224
69	82	1490	Ponnya	ပုည	No. 4 Main Road	အမှတ်(၄)လမ်းမ	Shwe Pyithar	ရွှေပြည်သာ	16.97904652292607	96.0937109333463
69	83	1497	Thardukan	သာဓုကန်	No. 4 Main Road	အမှတ်(၄)လမ်းမ	Shwe Pyithar	ရွှေပြည်သာ	16.983833965279114	96.09342852607371
69	84	1492	Thabarwa	သဘာဝ	No. 4 Main Road	အမှတ်(၄)လမ်းမ	Shwe Pyithar	ရွှေပြည်သာ	16.988892	96.092881
69	85	67	Nwar Chan	နွားခြံ	No. 4 Main Road	အမှတ်(၄)လမ်းမ	Shwe Pyithar	ရွှေပြည်သာ	16.99481507448492	96.09122194815427
69	86	1594	Computer	ကွန်ပျူတာ	No. 4 Main Road	အမှတ်(၄)လမ်းမ	Shwe Pyithar	ရွှေပြည်သာ	16.998733834786997	96.0884768748656
69	87	1599	Padonmar	ပဒုမ္မာ	No. 4 Main Road	အမှတ်(၄)လမ်းမ	Shwe Pyithar	ရွှေပြည်သာ	17.001721145121724	96.08629917260261
69	88	1595	Kwet Thit	ကွက်သစ်	No. 4 Main Road	အမှတ်(၄)လမ်းမ	Shwe Pyithar	ရွှေပြည်သာ	17.003742182625896	96.08490278944375
69	89	1602	Tar Sone	တာဆုံ	No. 4 Main Road	အမှတ်(၄)လမ်းမ	Shwe Pyithar	ရွှေပြည်သာ	17.005592009189613	96.0833665332757
69	90	1598	Kyaung Shae	ကျောင်းရှေ့	Hlawga Road	လှော်ကားလမ်း	Shwe Pyithar	ရွှေပြည်သာ	17.005203722063058	96.08272584155203
69	91	1586	Auk Gate	အောက်ဂိတ်	Hlawga Road	လှော်ကားလမ်း	Shwe Pyithar	ရွှေပြည်သာ	17.001290988514025	96.0665893368423
