svc_name	sequence	stop_id	name_en	name_mm	road_en	road_mm	township_en	township_mm	lat	lng
35	1	1971	Htauk Kyant Lan Sone	ထောက်ကြန့်လမ်းဆုံ	No. 1 Main Road	အမှတ်(၁)လမ်းမ	Mingalardon	မင်္ဂလာဒုံ	17.04259003163401	96.13333130953836
35	2	2207	Lan Thit	လမ်းသစ်	No. 1 Main Road	အမှတ်(၁)လမ်းမ	Mingalardon	မင်္ဂလာဒုံ	17.037858185780333	96.1312585277483
35	3	1468	Kyaung Shae	ကျောင်းရှေ့	No. 1 Main Road	အမှတ်(၁)လမ်းမ	Mingalardon	မင်္ဂလာဒုံ	17.031038	96.13187
35	4	65	Tit Yat Kwat	(၁) ရပ်ကွက်	No. 3 Set Thwe Road	အမှတ်(၃)စက်သွယ်လမ်း	Mingalardon	မင်္ဂလာဒုံ	17.026319	96.13614
35	5	1470	Lay Yat Kwet	(၄) ရပ်ကွက်	No. 3 Set Thwe Road	အမှတ်(၃)စက်သွယ်လမ်း	Mingalardon	မင်္ဂလာဒုံ	17.024106080620214	96.13848494365811
35	6	62	Nwe Khwe	နွယ်ခွေ	No. 3 Set Thwe Road	အမှတ်(၃)စက်သွယ်လမ်း	Mingalardon	မင်္ဂလာဒုံ	17.022687	96.140088
35	7	1481	War Saing	ဝါးဆိုင်	No. 3 Set Thwe Road	အမှတ်(၃)စက်သွယ်လမ်း	Mingalardon	မင်္ဂလာဒုံ	17.020123	96.142577
35	8	1477	Site Thit	ဆိုက်သစ်	No. 3 Set Thwe Road	အမှတ်(၃)စက်သွယ်လမ်း	Mingalardon	မင်္ဂလာဒုံ	17.015301	96.145109
35	9	1483	Yae Set	ရေစက်	No. 3 Main Road	အမှတ်(၃)လမ်းမ	Mingalardon	မင်္ဂလာဒုံ	17.006469234153574	96.14451098721477
35	10	1478	Tat Yin Koe	တပ်ရင်း (၉)	No. 3 Main Road	အမှတ်(၃)လမ်းမ	Mingalardon	မင်္ဂလာဒုံ	17.002538	96.144294
35	11	1464	Kon Ta La Paung	ကုန်းတလပေါင်	No. 3 Main Road	အမှတ်(၃)လမ်းမ	Mingalardon	မင်္ဂလာဒုံ	17.000527	96.144336
35	12	1433	London Set Yon	လန်ဒန်စက်ရုံ	No. 3 Main Road	အမှတ်(၃)လမ်းမ	Mingalardon	မင်္ဂလာဒုံ	16.99698455866258	96.14451358560474
35	13	1441	Saing Bote	ဆိုင်းဘုတ်	No. 3 Main Road	အမှတ်(၃)လမ်းမ	Mingalardon	မင်္ဂလာဒုံ	16.994658	96.143864
35	14	56	Nilar	နီလာ	No. 3 Main Road	အမှတ်(၃)လမ်းမ	Mingalardon	မင်္ဂလာဒုံ	16.99277	96.143972
35	15	1429	Hmoe Yon	မှိုုရုံ	No. 3 Main Road	အမှတ်(၃)လမ်းမ	Mingalardon	မင်္ဂလာဒုံ	16.989097	96.144401
35	16	1456	Thone Thone Lone	သုံးသုံးလုံး	No. 3 Main Road	အမှတ်(၃)လမ်းမ	Mingalardon	မင်္ဂလာဒုံ	16.983823	96.146332
35	17	1452	Palae Lan Sone	ပုလဲလမ်းဆုံ	No. 3 Main Road	အမှတ်(၃)လမ်းမ	Mingalardon	မင်္ဂလာဒုံ	16.981853	96.146933
35	18	1455	Tadar Phyu	တံတားဖြူ	No. 3 Main Road	အမှတ်(၃)လမ်းမ	Mingalardon	မင်္ဂလာဒုံ	16.977440741057922	96.14751631859691
35	19	1459	Yakhine Kyaung	ရခိုင်ကျောင်း	No. 3 Main Road	အမှတ်(၃)လမ်းမ	Mingalardon	မင်္ဂလာဒုံ	16.974957	96.147534
35	20	1449	Chauk Lan	(၆) လမ်း	No. 3 Main Road	အမှတ်(၃)လမ်းမ	Mingalardon	မင်္ဂလာဒုံ	16.970791	96.147684
35	21	1451	Palae Eain Yar	ပုလဲအိမ်ယာ	No. 3 Main Road	အမှတ်(၃)လမ်းမ	Mingalardon	မင်္ဂလာဒုံ	16.968842	96.147727
35	22	52	Sae-Hnit Lan	(၁၂) လမ်း	No. 3 Main Road	အမှတ်(၃)လမ်းမ	Mingalardon	မင်္ဂလာဒုံ	16.964983	96.147943
35	23	1425	Thingangyun	သင်္ဃန်းကျွန်း	No. 3 Main Road	အမှတ်(၃)လမ်းမ	Mingalardon	မင်္ဂလာဒုံ	16.962554092600918	96.14797807764262
35	24	1421	Nyaung Pin	ညောင်ပင်	No. 3 Main Road	အမှတ်(၃)လမ်းမ	Mingalardon	မင်္ဂလာဒုံ	16.957061	96.148778
35	25	1422	Oh Eain	အိုးအိမ်	No. 3 Main Road	အမှတ်(၃)လမ်းမ	Mingalardon	မင်္ဂလာဒုံ	16.953038	96.149508
35	26	589	Ta Yar Yone	တရားရုံး	No. 3 Main Road	အမှတ်(၃)လမ်းမ	Mingalardon	မင်္ဂလာဒုံ	16.947966453810754	96.15033205132933
35	27	1415	Alal Pauk	အလယ်ပေါက်	No. 3 Main Road	အမှတ်(၃)လမ်းမ	Mingalardon	မင်္ဂလာဒုံ	16.940763	96.151611
35	28	1417	Ah-Hmat-Thone Lan Sone	အမှတ် (၃) လမ်းဆုံ	No. 3 Main Road	အမှတ်(၃)လမ်းမ	Mingalardon	မင်္ဂလာဒုံ	16.935217538537646	96.15312103891485
35	29	814	Tat Htate	တပ်ထိပ်	Thudhamar Road	သုဓမ္မာလမ်း	North Okkalapa	မြောက်ဥက္ကလာပ	16.9295660314581	96.1546517489478
35	30	812	Aung Mingalar A Way Pyay	အောင်မင်္ဂလာအဝေးပြေး	Thudhamar Road	သုဓမ္မာလမ်း	North Okkalapa	မြောက်ဥက္ကလာပ	16.926507148276386	96.15607757354157
35	31	809	Dhamar Yon	ဓမ္မာရုံ	Thudhamar Road	သုဓမ္မာလမ်း	North Okkalapa	မြောက်ဥက္ကလာပ	16.924183749482854	96.1578971380368
35	32	819	Chauk Kwae	(၆) ကွေ့	Thudhamar Road	သုဓမ္မာလမ်း	North Okkalapa	မြောက်ဥက္ကလာပ	16.918460340415336	96.16298958426344
35	33	2401	Ayar	ဧရာ	Thudhamar Road	သုဓမ္မာလမ်း	North Okkalapa	မြောက်ဥက္ကလာပ	16.9173295590306	96.163487280719
35	34	850	Kan Tharyar	ကန်သာယာ	Thudhamar Road	သုဓမ္မာလမ်း	North Okkalapa	မြောက်ဥက္ကလာပ	16.913219783941475	96.16519050439821
35	35	858	Ou Zanar	ဥဇ္ဇနာ	Thudhamar Road	သုဓမ္မာလမ်း	North Okkalapa	မြောက်ဥက္ကလာပ	16.910967	96.165856
35	36	843	Eindar	က္ကန္ဒာ	Thudhamar Road	သုဓမ္မာလမ်း	North Okkalapa	မြောက်ဥက္ကလာပ	16.90722	96.166135
35	37	864	Thu Nandar	သုနန္ဒာ	Thudhamar Road	သုဓမ္မာလမ်း	North Okkalapa	မြောက်ဥက္ကလာပ	16.903951	96.165427
35	38	866	Waziyar	ဝဇီယာ	Thudhamar Road	သုဓမ္မာလမ်း	North Okkalapa	မြောက်ဥက္ကလာပ	16.901323	96.164128
35	39	862	Thandar	သန္တာ	Thudhamar Road	သုဓမ္မာလမ်း	North Okkalapa	မြောက်ဥက္ကလာပ	16.899026	96.162241
35	40	883	Ga-gyi Zay	(ဃ) ဈေး	Thudhamar Road	သုဓမ္မာလမ်း	North Okkalapa	မြောက်ဥက္ကလာပ	16.89677	96.159541
35	41	888	Myauk Okkalar Awine	မြောက်ဥက္ကလာအဝိုင်း	Thudhamar Road	သုဓမ္မာလမ်း	North Okkalapa	မြောက်ဥက္ကလာပ	16.892733405297037	96.15468894364314
35	42	886	Kyauk Yae Twin	ကျောက်ရေတွင်း	Thudhamar Road	သုဓမ္မာလမ်း	North Okkalapa	မြောက်ဥက္ကလာပ	16.889507722313613	96.15371194900948
35	43	890	Phone Gyi Lan	ဘုန်းကြီးလမ်း	Thudhamar Road	သုဓမ္မာလမ်း	North Okkalapa	မြောက်ဥက္ကလာပ	16.882091345698665	96.15521738072859
35	44	1275	Hnit Zay	(၂) ဈေး	Thudhamar Road	သုဓမ္မာလမ်း	North Okkalapa	မြောက်ဥက္ကလာပ	16.87902250832039	96.15584973245862
35	45	1821	Ngar Lan	(၅) လမ်း	Thudhamar Road	သုဓမ္မာလမ်း	North Okkalapa	မြောက်ဥက္ကလာပ	16.874205	96.156698
35	46	1280	Lan Wa/ Nawaday	လမ်းဝ/နဝဒေး	Thudhamar Road	သုဓမ္မာလမ်း	North Okkalapa	မြောက်ဥက္ကလာပ	16.86719996509984	96.1546583287418
35	47	1819	Nawaday	နဝဒေး	Kabar Aye Pagoda Road	ကမ္ဘာအေးဘုရားလမ်း	Mayangone	မရမ်းကုန်း	16.866798658414414	96.15263734711336
35	48	1265	Myaing Hay Wun	မြိုင်ဟေဝန်ပန်းခြံ	Kabar Aye Pagoda Road	ကမ္ဘာအေးဘုရားလမ်း	Mayangone	မရမ်းကုန်း	16.866761660028782	96.14343701396139
35	49	1234	Khun-hnat Mile	(၇) မိုင်	Pyay Road	ပြည်လမ်း	Mayangone	မရမ်းကုန်း	16.856072	96.141118
35	50	1228	A.D	အေဒီ	Pyay Road	ပြည်လမ်း	Hlaing	လှိုင်	16.85307127898036	96.14055942278357
35	51	2193	Kyaung Kwae	ကျောင်းကွေ့	Pyay Road	ပြည်လမ်း	Hlaing	လှိုင်	16.848012	96.136442
35	52	1187	Chauk Mile Khawe	(၆) မိုင်ခွဲ	Pyay Road	ပြည်လမ်း	Mayangone	မရမ်းကုန်း	16.844405	96.135706
35	53	1191	Tadar Phyu	တံတားဖြူ	Pyay Road	ပြည်လမ်း	Hlaing	လှိုင်	16.837024	96.13421
35	54	1188	Marlar	မာလာ	Pyay Road	ပြည်လမ်း	Kamayut	ကမာရွတ်	16.832547	96.132826
35	55	320	Saik Pyoe Yay	စိုက်ပျိုးရေး	Pyay Road	ပြည်လမ်း	Kamayut	ကမာရွတ်	16.817302720172133	96.1332632484846
35	56	263	Hantharwaddy	ဟံသာဝတီ	Pyay Road	ပြည်လမ်း	San Chaung	စမ်းချောင်း	16.81193620836817	96.13480080384763
35	57	265	Mahar Myaing	မဟာမြိုင်	Pyay Road	ပြည်လမ်း	San Chaung	စမ်းချောင်း	16.80813755165241	96.13589079341183
35	58	269	Myaynigone	မြေနီကုန်း (ပြည်လမ်း)	Pyay Road	ပြည်လမ်း	San Chaung	စမ်းချောင်း	16.805399	96.136748
35	59	199	Halpin	ဟယ်(လ်)ပင်	Pyay Road	ပြည်လမ်း	Dagon	ဒဂုံ	16.79105778473302	96.14084245869891
35	60	197	Bago Kalat	ပဲခူးကလပ်	Pyay Road	ပြည်လမ်း	Dagon	ဒဂုံ	16.78724498784618	96.14205184159802
35	61	118	Sein Gyun	စိန်ဂျွန်း	Pyay Road	ပြည်လမ်း	Dagon	ဒဂုံ	16.78301131037706	96.14358860068025
35	62	125	Sanpya	စံပြ	Phone Gyi Road	ဘုန်းကြီးလမ်း	Lanmadaw	လမ်းမတော်	16.778647	96.144935
35	63	2423	Phone Gyi Lan	ဘုန်းကြီးလမ်း	Phone Gyi Road	ဘုန်းကြီးလမ်း	Lanmadaw	လမ်းမတော်	16.7752417060581	96.1447477340698
35	64	121	Maw Tin	မော်တင်	Mahabandoola Road	မဟာဗန္ဓုလလမ်း	Lanmadaw	လမ်းမတော်	16.774861611885502	96.14233911037446
35	65	122	Maw Tin	မော်တင်	Strand Road	ကမ်းနားလမ်း	Lanmadaw	လမ်းမတော်	16.774464463322296	96.14219447343204
35	66	1284	Phone Gyi Lan	ဘုန်းကြီးလမ်း	Phone Gyi Road	ဘုန်းကြီးလမ်း	Lanmadaw	လမ်းမတော်	16.77531801226666	96.14491745320267
35	67	126	Sanpya	စံပြ	Phone Gyi Road	ဘုန်းကြီးလမ်း	Lanmadaw	လမ်းမတော်	16.777905085915634	96.14501520060006
35	68	117	Sein Gyun	စိန်ဂျွန်း	Pyay Road	ပြည်လမ်း	Dagon	ဒဂုံ	16.781941992465832	96.14384621847422
35	69	196	Bago Kalat	ပဲခူးကလပ်	Pyay Road	ပြည်လမ်း	Dagon	ဒဂုံ	16.786334463253585	96.14242921583356
35	70	198	Halpin	ဟယ်(လ်)ပင်	Pyay Road	ပြည်လမ်း	Dagon	ဒဂုံ	16.79028	96.141303
35	71	268	Myaynigone	မြေနီကုန်း (ပြည်လမ်း)	Pyay Road	ပြည်လမ်း	San Chaung	စမ်းချောင်း	16.7995437639817	96.13851143047215
35	72	264	Mahar Myaing	မဟာမြိုင်	Pyay Road	ပြည်လမ်း	San Chaung	စမ်းချောင်း	16.806672	96.13654
35	73	262	Hantharwaddy	ဟံသာဝတီ	Pyay Road	ပြည်လမ်း	San Chaung	စမ်းချောင်း	16.811922855564923	96.13503597189266
35	74	319	Saik Pyoe Yay	စိုက်ပျိုးရေး	Pyay Road	ပြည်လမ်း	Kamayut	ကမာရွတ်	16.817862	96.133326
35	75	1189	Marlar	မာလာ	Pyay Road	ပြည်လမ်း	Kamayut	ကမာရွတ်	16.832085	96.132472
35	76	1190	Tadar Phyu	တံတားဖြူ	Pyay Road	ပြည်လမ်း	Hlaing	လှိုင်	16.83915	96.134757
35	77	1186	Chauk Mile Khawe	(၆) မိုင်ခွဲ	Pyay Road	ပြည်လမ်း	Mayangone	မရမ်းကုန်း	16.844326	96.135839
35	78	1235	Kyaung Kwae	ကျောင်းကွေ့	Pyay Road	ပြည်လမ်း	Hlaing	လှိုင်	16.84793	96.136581
35	79	1229	A.D	အေဒီ	Pyay Road	ပြည်လမ်း	Hlaing	လှိုင်	16.85360553755692	96.14090073388071
35	80	1233	Khun-hnat Mile	(၇) မိုင်	Pyay Road	ပြည်လမ်း	Mayangone	မရမ်းကုန်း	16.856031	96.141375
35	81	1262	Myaing Hay Wun	မြိုင်ဟေဝန်ပန်းခြံ	Kabar Aye Pagoda Road	ကမ္ဘာအေးဘုရားလမ်း	Mayangone	မရမ်းကုန်း	16.866588278879597	96.14353745011616
35	82	1820	Nawaday	နဝဒေး	Kabar Aye Pagoda Road	ကမ္ဘာအေးဘုရားလမ်း	Mayangone	မရမ်းကုန်း	16.866678037634564	96.15251949755476
35	83	38	Lan Wa/ Nawaday	လမ်းဝ/နဝဒေး	Thudhamar Road	သုဓမ္မာလမ်း	North Okkalapa	မြောက်ဥက္ကလာပ	16.86722711724037	96.15476446459071
35	84	1281	Ngar Lan	(၅) လမ်း	Thudhamar Road	သုဓမ္မာလမ်း	North Okkalapa	မြောက်ဥက္ကလာပ	16.874128	96.156913
35	85	1274	Hnit Zay	(၂) ဈေး	Thudhamar Road	သုဓမ္မာလမ်း	North Okkalapa	မြောက်ဥက္ကလာပ	16.878721968315737	96.15608145017178
35	86	889	Phone Gyi Lan	ဘုန်းကြီးလမ်း	Thudhamar Road	သုဓမ္မာလမ်း	North Okkalapa	မြောက်ဥက္ကလာပ	16.88188224645447	96.15551120834425
35	87	885	Kyauk Yae Twin	ကျောက်ရေတွင်း	Thudhamar Road	သုဓမ္မာလမ်း	North Okkalapa	မြောက်ဥက္ကလာပ	16.88791116167424	96.15428918972613
35	88	887	Myauk Okkalar Awine	မြောက်ဥက္ကလာအဝိုင်း	Thudhamar Road	သုဓမ္မာလမ်း	North Okkalapa	မြောက်ဥက္ကလာပ	16.892739761327437	96.15506128873677
35	89	882	Ga-gyi Zay	(ဃ) ဈေး	Thudhamar Road	သုဓမ္မာလမ်း	North Okkalapa	မြောက်ဥက္ကလာပ	16.896452	96.159434
35	90	861	Thandar	သန္တာ	Thudhamar Road	သုဓမ္မာလမ်း	North Okkalapa	မြောက်ဥက္ကလာပ	16.898997	96.162273
35	91	865	Waziyar	ဝဇီယာ	Thudhamar Road	သုဓမ္မာလမ်း	North Okkalapa	မြောက်ဥက္ကလာပ	16.901507	96.16437
35	92	863	Thu Nandar	သုနန္ဒာ	Thudhamar Road	သုဓမ္မာလမ်း	North Okkalapa	မြောက်ဥက္ကလာပ	16.90436155507222	96.16570844314994
35	93	842	Eindar	က္ကန္ဒာ	Thudhamar Road	သုဓမ္မာလမ်း	North Okkalapa	မြောက်ဥက္ကလာပ	16.906969	96.16621
35	94	857	Ou Zanar	ဥဇ္ဇနာ	Thudhamar Road	သုဓမ္မာလမ်း	North Okkalapa	မြောက်ဥက္ကလာပ	16.910726	96.166001
35	95	848	Kan Tharyar	ကန်သာယာ	Thudhamar Road	သုဓမ္မာလမ်း	North Okkalapa	မြောက်ဥက္ကလာပ	16.91255523875324	96.1656310572289
35	96	1823	Ayar	ဧရာ	Thudhamar Road	သုဓမ္မာလမ်း	North Okkalapa	မြောက်ဥက္ကလာပ	16.91730520076527	96.16367541253568
35	97	818	Chauk Kwae	(၆) ကွေ့	Thudhamar Road	သုဓမ္မာလမ်း	North Okkalapa	မြောက်ဥက္ကလာပ	16.919091	96.162873
35	98	810	Dhamar Yon	ဓမ္မာရုံ	Thudhamar Road	သုဓမ္မာလမ်း	North Okkalapa	မြောက်ဥက္ကလာပ	16.92416237914078	96.15815366618338
35	99	813	Aung Mingalar A Way Pyay	အောင်မင်္ဂလာအဝေးပြေး	Thudhamar Road	သုဓမ္မာလမ်း	North Okkalapa	မြောက်ဥက္ကလာပ	16.926473729963266	96.15626067621635
35	100	815	Tat Htate	တပ်ထိပ်	Thudhamar Road	သုဓမ္မာလမ်း	North Okkalapa	မြောက်ဥက္ကလာပ	16.9300066563304	96.154864858836
35	101	1419	Ah-Hmat-Thone Lan Sone	အမှတ် (၃) လမ်းဆုံ	No. 3 Main Road	အမှတ်(၃)လမ်းမ	Mingalardon	မင်္ဂလာဒုံ	16.936410575360362	96.15300512406976
35	102	1416	Alal Pauk	အလယ်ပေါက်	No. 3 Main Road	အမှတ်(၃)လမ်းမ	Mingalardon	မင်္ဂလာဒုံ	16.940866	96.15189
35	103	590	Ta Yar Yone	တရားရုံး	No. 3 Main Road	အမှတ်(၃)လမ်းမ	Mingalardon	မင်္ဂလာဒုံ	16.948091	96.150602
35	104	1423	Oh Eain	အိုးအိမ်	No. 3 Main Road	အမှတ်(၃)လမ်းမ	Mingalardon	မင်္ဂလာဒုံ	16.953099	96.149787
35	105	1420	Nyaung Pin	ညောင်ပင်	No. 3 Main Road	အမှတ်(၃)လမ်းမ	Mingalardon	မင်္ဂလာဒုံ	16.957102	96.1491
35	106	1424	Thingangyun	သင်္ဃန်းကျွန်း	No. 3 Main Road	အမှတ်(၃)လမ်းမ	Mingalardon	မင်္ဂလာဒုံ	16.96252	96.148303
35	107	51	Sae-Hnit Lan	(၁၂) လမ်း	No. 3 Main Road	အမှတ်(၃)လမ်းမ	Mingalardon	မင်္ဂလာဒုံ	16.964706	96.148168
35	108	1450	Palae Eain Yar	ပုလဲအိမ်ယာ	No. 3 Main Road	အမှတ်(၃)လမ်းမ	Mingalardon	မင်္ဂလာဒုံ	16.96878	96.14807
35	109	1448	Chauk Lan	(၆) လမ်း	No. 3 Main Road	အမှတ်(၃)လမ်းမ	Mingalardon	မင်္ဂလာဒုံ	16.970627	96.147941
35	110	1458	Yakhine Kyaung	ရခိုင်ကျောင်း	No. 3 Main Road	အမှတ်(၃)လမ်းမ	Mingalardon	မင်္ဂလာဒုံ	16.974013	96.147877
35	111	1454	Tadar Phyu	တံတားဖြူ	No. 3 Main Road	အမှတ်(၃)လမ်းမ	Mingalardon	မင်္ဂလာဒုံ	16.977277	96.14777
35	112	1453	Palae Lan Sone	ပုလဲလမ်းဆုံ	No. 3 Main Road	အမှတ်(၃)လမ်းမ	Mingalardon	မင်္ဂလာဒုံ	16.981915	96.147276
35	113	1457	Thone Thone Lone	သုံးသုံးလုံး	No. 3 Main Road	အမှတ်(၃)လမ်းမ	Mingalardon	မင်္ဂလာဒုံ	16.984069	96.146611
35	114	1428	Hmoe Yon	မှိုုရုံ	No. 3 Main Road	အမှတ်(၃)လမ်းမ	Mingalardon	မင်္ဂလာဒုံ	16.988995	96.144723
35	115	55	Nilar	နီလာ	No. 3 Main Road	အမှတ်(၃)လမ်းမ	Mingalardon	မင်္ဂလာဒုံ	16.992381	96.144336
35	116	1440	Saing Bote	ဆိုင်းဘုတ်	No. 3 Main Road	အမှတ်(၃)လမ်းမ	Mingalardon	မင်္ဂလာဒုံ	16.99431	96.144186
35	117	1432	London Set Yon	လန်ဒန်စက်ရုံ	No. 3 Main Road	အမှတ်(၃)လမ်းမ	Mingalardon	မင်္ဂလာဒုံ	16.99669	96.144723
35	118	1465	Kon Ta La Paung	ကုန်းတလပေါင်	No. 3 Main Road	အမှတ်(၃)လမ်းမ	Mingalardon	မင်္ဂလာဒုံ	17.000732	96.144658
35	119	1479	Tat Yin Koe	တပ်ရင်း (၉)	No. 3 Main Road	အမှတ်(၃)လမ်းမ	Mingalardon	မင်္ဂလာဒုံ	17.003503	96.14453
35	120	1482	Yae Set	ရေစက်	No. 3 Main Road	အမှတ်(၃)လမ်းမ	Mingalardon	မင်္ဂလာဒုံ	17.006313735772967	96.14486009348187
35	121	1476	Site Thit	ဆိုက်သစ်	No. 3 Set Thwe Road	အမှတ်(၃)စက်သွယ်လမ်း	Mingalardon	မင်္ဂလာဒုံ	17.015137	96.145474
35	122	1480	War Saing	ဝါးဆိုင်	No. 3 Set Thwe Road	အမှတ်(၃)စက်သွယ်လမ်း	Mingalardon	မင်္ဂလာဒုံ	17.019897	96.142963
35	123	61	Nwe Khwe	နွယ်ခွေ	No. 3 Set Thwe Road	အမှတ်(၃)စက်သွယ်လမ်း	Mingalardon	မင်္ဂလာဒုံ	17.022462	96.14071
35	124	1471	Lay Yat Kwet	(၄) ရပ်ကွက်	No. 3 Set Thwe Road	အမှတ်(၃)စက်သွယ်လမ်း	Mingalardon	မင်္ဂလာဒုံ	17.02437	96.13865
35	125	66	Tit Yat Kwat	(၁) ရပ်ကွက်	No. 3 Set Thwe Road	အမှတ်(၃)စက်သွယ်လမ်း	Mingalardon	မင်္ဂလာဒုံ	17.026483	96.136247
35	126	1469	Kyaung Shae	ကျောင်းရှေ့	No. 1 Main Road	အမှတ်(၁)လမ်းမ	Mingalardon	မင်္ဂလာဒုံ	17.03120950570694	96.1321399686858
35	127	2206	Lan Thit	လမ်းသစ်	No. 1 Main Road	အမှတ်(၁)လမ်းမ	Mingalardon	မင်္ဂလာဒုံ	17.037527726843194	96.13150835037233
35	128	1970	Htauk Kyant Lan Sone	ထောက်ကြန့်လမ်းဆုံ	No. 1 Main Road	အမှတ်(၁)လမ်းမ	Mingalardon	မင်္ဂလာဒုံ	17.042337215160796	96.133386567235
