svc_name	sequence	stop_id	name_en	name_mm	road_en	road_mm	township_en	township_mm	lat	lng
30-Pyi	1	1031	Dagon Takke Tho	ဒဂုံတက္ကသိုလ်	Dagon University	ဒဂုံတက္ကသိုလ်	North Dagon	မြောက်ဒဂုံ	16.916878098620895	96.2128589116037
30-Pyi	2	1036	Yone Shae	ရုံးရှေ့	Dagon University	ဒဂုံတက္ကသိုလ်	North Dagon	မြောက်ဒဂုံ	16.914898	96.210383
30-Pyi	3	5	Sal Mile	(၁၀) မိုင်	Dagon University	ဒဂုံတက္ကသိုလ်	North Dagon	မြောက်ဒဂုံ	16.91305	96.211413
30-Pyi	4	1030	Awine	အဝိုင်း	Dagon University	ဒဂုံတက္ကသိုလ်	North Dagon	မြောက်ဒဂုံ	16.910484	96.212894
30-Pyi	5	1033	Moke Wa	မုခ်ဝ	Min Ye Kyaw Swar Road	မင်းရဲကျော်စွာလမ်း	North Dagon	မြောက်ဒဂုံ	16.90255784827584	96.21715528657663
30-Pyi	6	926	Khun/ Shit Lan Sone	(၇/၈) လမ်းဆုံ	Pyi Htaung Su Main Road	ပြည်ထောင်စုလမ်းမကြီး	North Dagon	မြောက်ဒဂုံ	16.890982561398648	96.19669476756827
30-Pyi	7	880	Yone Shae	ရုံးရှေ့	Pyi Htaung Su Main Road	ပြည်ထောင်စုလမ်းမကြီး	North Dagon	မြောက်ဒဂုံ	16.887568327965283	96.19860955048354
30-Pyi	8	928	Kone Padaythar	ကုန်ပဒေသာ	Pyi Htaung Su Main Road	ပြည်ထောင်စုလမ်းမကြီး	North Dagon	မြောက်ဒဂုံ	16.8842043419244	96.200472638011
30-Pyi	9	1004	Swan In	စွမ်းအင်	Pyi Htaung Su Main Road	ပြည်ထောင်စုလမ်းမကြီး	North Dagon	မြောက်ဒဂုံ	16.88080835336168	96.202354375273
30-Pyi	10	2346	Ma Wa Ta	မဝတ	Pyi Htaung Su Main Road	ပြည်ထောင်စုလမ်းမကြီး	North Dagon	မြောက်ဒဂုံ	16.877414870397843	96.2041931343265
30-Pyi	11	172	Mandalay Lan	မန္တလေးလမ်း	Pin Lon Road	ပင်လုံလမ်း	North Dagon	မြောက်ဒဂုံ	16.8744	96.198868
30-Pyi	12	1003	Sittaung Lan	စစ်တောင်းလမ်း	Pin Lon Road	ပင်လုံလမ်း	North Dagon	မြောက်ဒဂုံ	16.872970930494294	96.19630813132972
30-Pyi	13	997	Kyaung Lan	ကျောင်းလမ်း	Pin Lon Road	ပင်လုံလမ်း	North Dagon	မြောက်ဒဂုံ	16.871300956933585	96.19305180385712
30-Pyi	14	1001	Settwe Yae	ဆက်သွယ်ရေး	Pin Lon Road	ပင်လုံလမ်း	North Dagon	မြောက်ဒဂုံ	16.86985558238827	96.19017253629865
30-Pyi	15	993	Thone-sae-ngar Kwae	(၃၅) ကွေ့	Pin Lon Road	ပင်လုံလမ်း	North Dagon	မြောက်ဒဂုံ	16.868299944520913	96.18713363539428
30-Pyi	16	991	Thin Win	သင်းဝင်	Pin Lon Road	ပင်လုံလမ်း	North Dagon	မြောက်ဒဂုံ	16.866909573314597	96.1845249356702
30-Pyi	17	978	Nar Yee Sin	နာရီစင်	Pin Lon Road	ပင်လုံလမ်း	North Dagon	မြောက်ဒဂုံ	16.866120273313303	96.18284151423723
30-Pyi	18	1074	Bay Li	ဘေလီ	Parami Road	ပါရမီလမ်း	South Okkalapa	တောင်ဥက္ကလာပ	16.86095	96.177093
30-Pyi	19	2352	Pinya	ပင်းယ	Parami Road	ပါရမီလမ်း	South Okkalapa	တောင်ဥက္ကလာပ	16.85950512390363	96.17608593078333
30-Pyi	20	1247	Kaytu Marlar Kwae	ကေတုမာလာကွေ့	Parami Road	ပါရမီလမ်း	South Okkalapa	တောင်ဥက္ကလာပ	16.856264313885067	96.17213245946915
30-Pyi	21	1249	Nyaung Pin	ညောင်ပင်	Parami Road	ပါရမီလမ်း	Mayangone	မရမ်းကုန်း	16.854191214781956	96.16845406126232
30-Pyi	22	1816	Mit Zu Lan	မဉ္ဇူလမ်း	Parami Road	ပါရမီလမ်း	Mayangone	မရမ်းကုန်း	16.850940045535186	96.16227886173876
30-Pyi	23	1817	Chaw Twin Kone	ချော်တွင်းကုန်း	Kabar Aye Pagoda Road	ကမ္ဘာအေးဘုရားလမ်း	Mayangone	မရမ်းကုန်း	16.85072782334624	96.1577095091343
30-Pyi	24	1238	Kabar Aye Paya/ Paya Lan	ကမ္ဘာအေးဘုရားလမ်း	Kabar Aye Pagoda Road	ကမ္ဘာအေးဘုရားလမ်း	Mayangone	မရမ်းကုန်း	16.856873	96.156653
30-Pyi	25	1240	Sar Taik	စာတိုက်	Kabar Aye Pagoda Road	ကမ္ဘာအေးဘုရားလမ်း	Mayangone	မရမ်းကုန်း	16.862603	96.155366
30-Pyi	26	1819	Nawaday	နဝဒေး	Kabar Aye Pagoda Road	ကမ္ဘာအေးဘုရားလမ်း	Mayangone	မရမ်းကုန်း	16.866798658414414	96.15263734711336
30-Pyi	27	1265	Myaing Hay Wun	မြိုင်ဟေဝန်ပန်းခြံ	Kabar Aye Pagoda Road	ကမ္ဘာအေးဘုရားလမ်း	Mayangone	မရမ်းကုန်း	16.866771	96.143438
30-Pyi	28	1234	Khun-hnat Mile	(၇) မိုင်	Pyay Road	ပြည်လမ်း	Mayangone	မရမ်းကုန်း	16.856072	96.141118
30-Pyi	29	1228	A.D	အေဒီ	Pyay Road	ပြည်လမ်း	Hlaing	လှိုင်	16.85307127898036	96.14055942278357
30-Pyi	30	2193	Kyaung Kwae	ကျောင်းကွေ့	Pyay Road	ပြည်လမ်း	Hlaing	လှိုင်	16.848012	96.136442
30-Pyi	31	1187	Chauk Mile Khawe	(၆) မိုင်ခွဲ	Pyay Road	ပြည်လမ်း	Mayangone	မရမ်းကုန်း	16.844405	96.135706
30-Pyi	32	1191	Tadar Phyu	တံတားဖြူ	Pyay Road	ပြည်လမ်း	Hlaing	လှိုင်	16.837024	96.13421
30-Pyi	33	1189	Marlar	မာလာ	Pyay Road	ပြည်လမ်း	Kamayut	ကမာရွတ်	16.832085	96.132472
30-Pyi	34	290	Hledan Zay	လှည်းတန်းဈေး	Hledan Road	လှည်းတန်းလမ်း	Kamayut	ကမာရွတ်	16.826593902284788	96.12880632519592
30-Pyi	35	295	Kyaung Shae/ Kone Sin	ကျောင်းရှေ့/ကုန်းဆင်း	Hledan Road	လှည်းတန်းလမ်း	Kamayut	ကမာရွတ်	16.825525	96.126583
30-Pyi	36	302	Sinmalite	ဆင်မလိုက်	Kyee Myin Daing Kannar Road	ကြည့်မြင်တိုင်ကမ်းနားလမ်း	Kyee Myin Daing	ကြည့်မြင်တိုင်	16.81968916689901	96.12181771779436
30-Pyi	37	278	Nat Sin Lan	နတ်စင်လမ်း	Kyee Myin Daing Kannar Road	ကြည့်မြင်တိုင်ကမ်းနားလမ်း	Kyee Myin Daing	ကြည့်မြင်တိုင်	16.81470006967928	96.12178073264658
30-Pyi	38	292	Kannar Zay	ကမ်းနားဈေး	Kyee Myin Daing Kannar Road	ကြည့်မြင်တိုင်ကမ်းနားလမ်း	Kyee Myin Daing	ကြည့်မြင်တိုင်	16.81251231920376	96.12181011121723
30-Pyi	39	259	Kyee Myin Daing Nya Zay	ကြည့်မြင်တိုင်ညဈေး	Kyee Myin Daing Kannar Road	ကြည့်မြင်တိုင်ကမ်းနားလမ်း	Kyee Myin Daing	ကြည့်မြင်တိုင်	16.809123167748957	96.12182549200953
30-Pyi	40	252	Sar Taik	စာတိုက်	Kyee Myin Daing Kannar Road	ကြည့်မြင်တိုင်ကမ်းနားလမ်း	Kyee Myin Daing	ကြည့်မြင်တိုင်	16.80417773402748	96.12214895317268
30-Pyi	41	242	Thal Kwin	သဲကွင်း	Kyee Myin Daing Kannar Road	ကြည့်မြင်တိုင်ကမ်းနားလမ်း	Kyee Myin Daing	ကြည့်မြင်တိုင်	16.80093324235627	96.12209948942565
30-Pyi	42	240	Home Lan	ဟုမ်းလမ်း	Kyee Myin Daing Kannar Road	ကြည့်မြင်တိုင်ကမ်းနားလမ်း	Kyee Myin Daing	ကြည့်မြင်တိုင်	16.797407638738495	96.12237939960325
30-Pyi	43	91	Thiri Mingalar Zay	သီရိမင်္ဂလာဈေး	Kyee Myin Daing Kannar Road	ကြည့်မြင်တိုင်ကမ်းနားလမ်း	Ahlone	အလုံ	16.793428	96.122795
30-Pyi	44	88	Kwin Kyaung	ကွင်းကျောင်း	Kyee Myin Daing Kannar Road	ကြည့်မြင်တိုင်ကမ်းနားလမ်း	Ahlone	အလုံ	16.791815	96.122913
30-Pyi	45	90	Sin Min Zay	ဆင်မင်းဈေး	Kyee Myin Daing Kannar Road	ကြည့်မြင်တိုင်ကမ်းနားလမ်း	Ahlone	အလုံ	16.789089342355922	96.12395543150343
30-Pyi	46	103	Thit Taw	သစ်တော	Kyee Myin Daing Kannar Road	ကြည့်မြင်တိုင်ကမ်းနားလမ်း	Ahlone	အလုံ	16.782208533496107	96.12772663112992
30-Pyi	47	102	Htaw Li Kwae	ထော်လီကွေ့	Kyee Myin Daing Kannar Road	ကြည့်မြင်တိုင်ကမ်းနားလမ်း	Ahlone	အလုံ	16.781329094605752	96.13000275101513
30-Pyi	48	114	Thakhin Mya Pan Chan	သခင်မြပန်းခြံ	Kyee Myin Daing Kannar Road	ကြည့်မြင်တိုင်ကမ်းနားလမ်း	Ahlone	အလုံ	16.77828194398644	96.13544789397567
30-Pyi	49	115	Thakhin Mya Pan Chan	သခင်မြပန်းခြံ	Kyee Myin Daing Kannar Road	ကြည့်မြင်တိုင်ကမ်းနားလမ်း	Ahlone	အလုံ	16.778411	96.135751
30-Pyi	50	101	Htaw Li Kwae	ထော်လီကွေ့	Kyee Myin Daing Kannar Road	ကြည့်မြင်တိုင်ကမ်းနားလမ်း	Ahlone	အလုံ	16.78144456699472	96.13020934397356
30-Pyi	51	104	Thit Taw	သစ်တော	Kyee Myin Daing Kannar Road	ကြည့်မြင်တိုင်ကမ်းနားလမ်း	Ahlone	အလုံ	16.782335032700068	96.12792007857935
30-Pyi	52	89	Sin Min Zay	ဆင်မင်းဈေး	Kyee Myin Daing Kannar Road	ကြည့်မြင်တိုင်ကမ်းနားလမ်း	Ahlone	အလုံ	16.788381214980394	96.12434903847318
30-Pyi	53	87	Kwin Kyaung	ကွင်းကျောင်း	Kyee Myin Daing Kannar Road	ကြည့်မြင်တိုင်ကမ်းနားလမ်း	Ahlone	အလုံ	16.791499113712398	96.12318266881633
30-Pyi	54	92	Thiri Mingalar Zay	သီရိမင်္ဂလာဈေး	Kyee Myin Daing Kannar Road	ကြည့်မြင်တိုင်ကမ်းနားလမ်း	Ahlone	အလုံ	16.793387246927256	96.12304329872131
30-Pyi	55	241	Home Lan	ဟုမ်းလမ်း	Kyee Myin Daing Kannar Road	ကြည့်မြင်တိုင်ကမ်းနားလမ်း	Kyee Myin Daing	ကြည့်မြင်တိုင်	16.79766915959169	96.12243203091568
30-Pyi	56	243	Thal Kwin	သဲကွင်း	Kyee Myin Daing Kannar Road	ကြည့်မြင်တိုင်ကမ်းနားလမ်း	Kyee Myin Daing	ကြည့်မြင်တိုင်	16.80093620461995	96.12225324844077
30-Pyi	57	253	Sar Taik	စာတိုက်	Kyee Myin Daing Kannar Road	ကြည့်မြင်တိုင်ကမ်းနားလမ်း	Kyee Myin Daing	ကြည့်မြင်တိုင်	16.80426559990839	96.12227894601347
30-Pyi	58	258	Kyee Myin Daing Nya Zay	ကြည့်မြင်တိုင်ညဈေး	Kyee Myin Daing Kannar Road	ကြည့်မြင်တိုင်ကမ်းနားလမ်း	Kyee Myin Daing	ကြည့်မြင်တိုင်	16.80935599745288	96.12198447575794
30-Pyi	59	291	Kannar Zay	ကမ်းနားဈေး	Kyee Myin Daing Kannar Road	ကြည့်မြင်တိုင်ကမ်းနားလမ်း	Kyee Myin Daing	ကြည့်မြင်တိုင်	16.812434	96.121964
30-Pyi	60	277	Nat Sin Lan	နတ်စင်လမ်း	Kyee Myin Daing Kannar Road	ကြည့်မြင်တိုင်ကမ်းနားလမ်း	Kyee Myin Daing	ကြည့်မြင်တိုင်	16.81453683073846	96.1219596862793
30-Pyi	61	301	Sinmalite	ဆင်မလိုက်	Kyee Myin Daing Kannar Road	ကြည့်မြင်တိုင်ကမ်းနားလမ်း	Kyee Myin Daing	ကြည့်မြင်တိုင်	16.81928919676379	96.12197063186613
30-Pyi	62	296	Kyaung Shae/ Kone Sin	ကျောင်းရှေ့/ကုန်းဆင်း	Hledan Road	လှည်းတန်းလမ်း	Kamayut	ကမာရွတ်	16.82535746158587	96.12666466528029
30-Pyi	63	289	Hledan Zay	လှည်းတန်းဈေး	Hledan Road	လှည်းတန်းလမ်း	Kamayut	ကမာရွတ်	16.826457	96.128887
30-Pyi	64	1188	Marlar	မာလာ	Pyay Road	ပြည်လမ်း	Kamayut	ကမာရွတ်	16.832547	96.132826
30-Pyi	65	1190	Tadar Phyu	တံတားဖြူ	Pyay Road	ပြည်လမ်း	Hlaing	လှိုင်	16.83915	96.134757
30-Pyi	66	1186	Chauk Mile Khawe	(၆) မိုင်ခွဲ	Pyay Road	ပြည်လမ်း	Mayangone	မရမ်းကုန်း	16.844326	96.135839
30-Pyi	67	1235	Kyaung Kwae	ကျောင်းကွေ့	Pyay Road	ပြည်လမ်း	Hlaing	လှိုင်	16.84793	96.136581
30-Pyi	68	1229	A.D	အေဒီ	Pyay Road	ပြည်လမ်း	Hlaing	လှိုင်	16.85360553755692	96.14090073388071
30-Pyi	69	1233	Khun-hnat Mile	(၇) မိုင်	Pyay Road	ပြည်လမ်း	Mayangone	မရမ်းကုန်း	16.856031	96.141375
30-Pyi	70	1262	Myaing Hay Wun	မြိုင်ဟေဝန်ပန်းခြံ	Kabar Aye Pagoda Road	ကမ္ဘာအေးဘုရားလမ်း	Mayangone	မရမ်းကုန်း	16.866588278879597	96.14353745011616
30-Pyi	71	1820	Nawaday	နဝဒေး	Kabar Aye Pagoda Road	ကမ္ဘာအေးဘုရားလမ်း	Mayangone	မရမ်းကုန်း	16.866678037634564	96.15251949755476
30-Pyi	72	1818	Sar Taik	စာတိုက်	Kabar Aye Pagoda Road	ကမ္ဘာအေးဘုရားလမ်း	Mayangone	မရမ်းကုန်း	16.861586	96.155325
30-Pyi	73	1239	Kabar Aye Paya/ Paya Lan	ကမ္ဘာအေးဘုရားလမ်း	Kabar Aye Pagoda Road	ကမ္ဘာအေးဘုရားလမ်း	Mayangone	မရမ်းကုန်း	16.85825079611413	96.15602290257813
30-Pyi	74	1237	Chaw Twin Kone	ချော်တွင်းကုန်း	Parami Road	ပါရမီလမ်း	Mayangone	မရမ်းကုန်း	16.850164577041834	96.15806391695516
30-Pyi	75	1815	Mit Zu Lan	မဉ္ဇူလမ်း	Parami Road	ပါရမီလမ်း	Mayangone	မရမ်းကုန်း	16.85072120518684	96.16200858727099
30-Pyi	76	1248	Nyaung Pin	ညောင်ပင်	Parami Road	ပါရမီလမ်း	Mayangone	မရမ်းကုန်း	16.853851007207716	96.16816387977454
30-Pyi	77	2125	Kaytu Marlar Kwae	ကေတုမာလာကွေ့	Parami Road	ပါရမီလမ်း	South Okkalapa	တောင်ဥက္ကလာပ	16.856129688374033	96.1720715649426
30-Pyi	78	1081	Pinya	ပင်းယ	Parami Road	ပါရမီလမ်း	South Okkalapa	တောင်ဥက္ကလာပ	16.85943	96.176149
30-Pyi	79	1073	Bay Li	ဘေလီ	Parami Road	ပါရမီလမ်း	South Okkalapa	တောင်ဥက္ကလာပ	16.860898	96.177126
30-Pyi	80	977	Nar Yee Sin	နာရီစင်	Pin Lon Road	ပင်လုံလမ်း	North Dagon	မြောက်ဒဂုံ	16.866016115948014	96.18298748508097
30-Pyi	81	990	Thin Win	သင်းဝင်	Pin Lon Road	ပင်လုံလမ်း	North Dagon	မြောက်ဒဂုံ	16.866484	96.184355
30-Pyi	82	992	Thone-sae-ngar Kwae	(၃၅) ကွေ့	Pin Lon Road	ပင်လုံလမ်း	North Dagon	မြောက်ဒဂုံ	16.867983	96.186951
30-Pyi	83	1000	Settwe Yae	ဆက်သွယ်ရေး	Pin Lon Road	ပင်လုံလမ်း	North Dagon	မြောက်ဒဂုံ	16.869461	96.19002
30-Pyi	84	996	Kyaung Lan	ကျောင်းလမ်း	Pin Lon Road	ပင်လုံလမ်း	North Dagon	မြောက်ဒဂုံ	16.871449989624473	96.19379330892117
30-Pyi	85	1002	Sittaung Lan	စစ်တောင်းလမ်း	Pin Lon Road	ပင်လုံလမ်း	North Dagon	မြောက်ဒဂုံ	16.872829	96.196371
30-Pyi	86	173	Mandalay Lan	မန္တလေးလမ်း	Pin Lon Road	ပင်လုံလမ်း	North Dagon	မြောက်ဒဂုံ	16.874343	96.199035
30-Pyi	87	1008	Ma Wa Ta	မဝတ	Pyi Htaung Su Main Road	ပြည်ထောင်စုလမ်းမကြီး	North Dagon	မြောက်ဒဂုံ	16.87735960653568	96.2043057032861
30-Pyi	88	1005	Swan In	စွမ်းအင်	Pyi Htaung Su Main Road	ပြည်ထောင်စုလမ်းမကြီး	North Dagon	မြောက်ဒဂုံ	16.88079154992208	96.20245808037
30-Pyi	89	929	Kone Padaythar	ကုန်ပဒေသာ	Pyi Htaung Su Main Road	ပြည်ထောင်စုလမ်းမကြီး	North Dagon	မြောက်ဒဂုံ	16.88423259445147	96.20055408915506
30-Pyi	90	881	Yone Shae	ရုံးရှေ့	Pyi Htaung Su Main Road	ပြည်ထောင်စုလမ်းမကြီး	North Dagon	မြောက်ဒဂုံ	16.88746103440087	96.19877320714295
30-Pyi	91	925	Khun/ Shit Lan Sone	(၇/၈) လမ်းဆုံ	Pyi Htaung Su Main Road	ပြည်ထောင်စုလမ်းမကြီး	North Dagon	မြောက်ဒဂုံ	16.891066012624623	96.19677429087463
30-Pyi	92	1032	Moke Wa	မုခ်ဝ	Min Ye Kyaw Swar Road	မင်းရဲကျော်စွာလမ်း	North Dagon	မြောက်ဒဂုံ	16.902334	96.217293
30-Pyi	93	1029	Awine	အဝိုင်း	Dagon University	ဒဂုံတက္ကသိုလ်	North Dagon	မြောက်ဒဂုံ	16.910341	96.213602
30-Pyi	94	2122	Sal Mile	(၁၀) မိုင်	Dagon University	ဒဂုံတက္ကသိုလ်	North Dagon	မြောက်ဒဂုံ	16.913297	96.211864
30-Pyi	95	2123	Yone Shae	ရုံးရှေ့	Dagon University	ဒဂုံတက္ကသိုလ်	North Dagon	မြောက်ဒဂုံ	16.915206	96.210791
30-Pyi	96	1031	Dagon Takke Tho	ဒဂုံတက္ကသိုလ်	Dagon University	ဒဂုံတက္ကသိုလ်	North Dagon	မြောက်ဒဂုံ	16.916878098620895	96.2128589116037
