svc_name	sequence	stop_id	name_en	name_mm	road_en	road_mm	township_en	township_mm	lat	lng
6A	1	666	Thein Kyaung	သိမ်ကျောင်း	Ayar Wun Main Road	ဧရာဝဏ်လမ်းမကြီး	Thaketa	သာကေတ	16.83820260250518	96.2441692594439
6A	2	732	Ayar Wun	ဧရာဝဏ်	Maungmakan Kantha Road	မောင်းမကန်ကန်သာလမ်း	South Dagon	တောင်ဒဂုံ	16.849192043165782	96.24611821956933
6A	3	730	Awaiyar	အဝေရာ	Maungmakan Kantha Road	မောင်းမကန်ကန်သာလမ်း	South Dagon	တောင်ဒဂုံ	16.850601637066966	96.24439376872034
6A	4	718	Phone Gyi Kyaung Kwae	ဘုန်းကြီးကျောင်းကွေ့	Hlawga Road	လှော်ကားလမ်း	South Dagon	တောင်ဒဂုံ	16.85421004610765	96.24012379674242
6A	5	724	Tadar Htate	တံတားထိပ်	Maungmakan Kantha Road	မောင်းမကန်ကန်သာလမ်း	South Dagon	တောင်ဒဂုံ	16.856038641124687	96.23746423982085
6A	6	720	Sae-shit Kwae	(၁၈) ကွေ့	Si Pin Road	စည်ပင်လမ်း	South Dagon	တောင်ဒဂုံ	16.858028354459456	96.23452187748626
6A	7	713	Kyan Mar Yae	ကျန်းမာရေး	Si Pin Road	စည်ပင်လမ်း	South Dagon	တောင်ဒဂုံ	16.85637663877632	96.23302459716798
6A	8	714	Kyaung Shae	ကျောင်းရှေ့	Si Pin Road	စည်ပင်လမ်း	South Dagon	တောင်ဒဂုံ	16.85445	96.23124
6A	9	688	Gate Haung	ဂိတ်ဟောင်း	Si Pin Road	စည်ပင်လမ်း	South Dagon	တောင်ဒဂုံ	16.852594536156595	96.22968792915346
6A	10	692	Kone Padaythar	ကုန်ပဒေသာ	Si Pin Road	စည်ပင်လမ်း	South Dagon	တောင်ဒဂုံ	16.850062396341524	96.22753457631917
6A	11	648	Thit Saing Kwae	သစ်ဆိုင်ကွေ့	Pyi Htaung Su Main Road	ပြည်ထောင်စုလမ်းမကြီး	South Dagon	တောင်ဒဂုံ	16.84753359193457	96.22320997528735
6A	12	702	Yauk Kaw	ယောက်ကော်	Pyi Htaung Su Main Road	ပြည်ထောင်စုလမ်းမကြီး	South Dagon	တောင်ဒဂုံ	16.848344950113066	96.22227447107436
6A	13	696	Pan Chan	ပန်းခြံ	Pyi Htaung Su Main Road	ပြည်ထောင်စုလမ်းမကြီး	South Dagon	တောင်ဒဂုံ	16.851439454626906	96.21860755607487
6A	14	682	Than Lan	သံလမ်း	Pyi Htaung Su Main Road	ပြည်ထောင်စုလမ်းမကြီး	South Dagon	တောင်ဒဂုံ	16.854899303424997	96.2148838536814
6A	15	678	Taung Myauk Lan Sone	တောင်/မြောက်လမ်းဆုံ	Pyi Htaung Su Main Road	ပြည်ထောင်စုလမ်းမကြီး	South Dagon	တောင်ဒဂုံ	16.85871307235143	96.21468201745303
6A	16	674	Tadar Phyu	တံတားဖြူ	No. 2 Main Road	အမှတ်(၂)လမ်းမ	South Dagon	တောင်ဒဂုံ	16.857509683996202	96.21210170422273
6A	17	628	Kar Gyi Gate	ကားကြီးဂိတ်	No. 2 Main Road	အမှတ်(၂)လမ်းမ	South Dagon	တောင်ဒဂုံ	16.847406480977263	96.20899594388904
6A	18	632	Sanpya Zay/ Nga Moe Yeik	စံပြဈေး/ ငမိုးရိပ်	Thanthumar Road	သံသုမာလမ်း	Thingangyun	သင်္ဃန်းကျွန်း	16.843237	96.204109
6A	19	613	Lai Sin Yone	လိုင်စင်ရုံး	Thanthumar Road	သံသုမာလမ်း	Thingangyun	သင်္ဃန်းကျွန်း	16.845855511844686	96.20105572510512
6A	20	1090	Se Man Kane	စီမံကိန်း	Thanthumar Road	သံသုမာလမ်း	South Okkalapa	တောင်ဥက္ကလာပ	16.847528417649873	96.19850509101526
6A	21	1088	Thone-sae-tit Gate/ Tit Gate	(၃၁) ဂိတ်/(၁) ဂိတ်	Thanthumar Road	သံသုမာလမ်း	South Okkalapa	တောင်ဥက္ကလာပ	16.84893896654162	96.19427426252517
6A	22	1087	Moe Swe	မိုးစွေ	Thanthumar Road	သံသုမာလမ်း	South Okkalapa	တောင်ဥက္ကလာပ	16.850145665093024	96.18961987551303
6A	23	1083	Taung Okkalar Paya	တောင်ဥက္ကလာပဘုရား	Thanthumar Road	သံသုမာလမ်း	South Okkalapa	တောင်ဥက္ကလာပ	16.8528135748857	96.18543030694127
6A	24	1079	Myin Thar Zay	မြင်သာဈေး	Thanthumar Road	သံသုမာလမ်း	South Okkalapa	တောင်ဥက္ကလာပ	16.856863	96.181911
6A	25	1075	Bay Li	ဘေလီ	Thanthumar Road	သံသုမာလမ်း	South Okkalapa	တောင်ဥက္ကလာပ	16.85981610253591	96.17896331241356
6A	26	2352	Pinya	ပင်းယ	Parami Road	ပါရမီလမ်း	South Okkalapa	တောင်ဥက္ကလာပ	16.85955	96.176045
6A	27	2125	Kaytu Marlar Kwae	ကေတုမာလာကွေ့	Parami Road	ပါရမီလမ်း	South Okkalapa	တောင်ဥက္ကလာပ	16.856129688374033	96.1720715649426
6A	28	1249	Nyaung Pin	ညောင်ပင်	Parami Road	ပါရမီလမ်း	Mayangone	မရမ်းကုန်း	16.854191214781956	96.16845406126232
6A	29	1816	Mit Zu Lan	မဉ္ဇူလမ်း	Parami Road	ပါရမီလမ်း	Mayangone	မရမ်းကုန်း	16.850940045535186	96.16227886173876
6A	30	1817	Chaw Twin Kone	ချော်တွင်းကုန်း	Kabar Aye Pagoda Road	ကမ္ဘာအေးဘုရားလမ်း	Mayangone	မရမ်းကုန်း	16.850729427748476	96.15774345584215
6A	31	1238	Kabar Aye Paya/ Paya Lan	ကမ္ဘာအေးဘုရားလမ်း	Kabar Aye Pagoda Road	ကမ္ဘာအေးဘုရားလမ်း	Mayangone	မရမ်းကုန်း	16.856873	96.156653
6A	32	1240	Sar Taik	စာတိုက်	Kabar Aye Pagoda Road	ကမ္ဘာအေးဘုရားလမ်း	Mayangone	မရမ်းကုန်း	16.862603	96.155366
6A	33	1819	Nawaday	နဝဒေး	Kabar Aye Pagoda Road	ကမ္ဘာအေးဘုရားလမ်း	Mayangone	မရမ်းကုန်း	16.866879	96.152638
6A	34	1265	Myaing Hay Wun	မြိုင်ဟေဝန်ပန်းခြံ	Kabar Aye Pagoda Road	ကမ္ဘာအေးဘုရားလမ်း	Mayangone	မရမ်းကုန်း	16.866771	96.143438
6A	35	1267	Shit Mile	(၈) မိုင်	Kyaik Wine Pagoda Road	ကျိုက်ဝိုင်းဘုရားလမ်း	Mayangone	မရမ်းကုန်း	16.86567957937846	96.14160246681422
6A	36	1261	Mahar Si	မဟာစည်	Pyay Road	ပြည်လမ်း	Mayangone	မရမ်းကုန်း	16.87252746521005	96.13994339480998
6A	37	1259	A One	အေဝမ်း	Pyay Road	ပြည်လမ်း	Mayangone	မရမ်းကုန်း	16.877625558710985	96.13767097704114
6A	38	1299	Koe Mile	(၉) မိုင်	Pyay Road	ပြည်လမ်း	Mayangone	မရမ်းကုန်း	16.88177976207406	96.13486798480155
6A	39	1300	Koe Mile Khawe	(၉) မိုင်ခွဲ	Pyay Road	ပြည်လမ်း	Mayangone	မရမ်းကုန်း	16.883855	96.135783
6A	40	40	Sae-Mile Kone	(၁၀) မိုင်ကုန်း	Pyay Road	ပြည်လမ်း	Insein	အင်းစိန်	16.889317	96.130621
6A	41	1295	A Way Pyay	အဝေးပြေး	Pyay Road	ပြည်လမ်း	Insein	အင်းစိန်	16.888701	96.123154
6A	42	1340	Ar Lain Ngar Sint	အာလိန်ငါးဆင့်	Lan Thit Road	လမ်းသစ်လမ်း	Insein	အင်းစိန်	16.891615642891004	96.11658841604368
6A	43	1354	Workshop	ဝပ်ရှော့	Lan Thit Road	လမ်းသစ်လမ်း	Insein	အင်းစိန်	16.89126222912923	96.1147232539952
6A	44	1352	Oakyin Wa	အုတ်ကျင်းဝ	Lan Thit Road	လမ်းသစ်လမ်း	Insein	အင်းစိန်	16.890684205920813	96.11147069837901
6A	45	2196	Insein Pan Chan	အင်းစိန်ပန်းခြံ	Lan Thit Road	လမ်းသစ်လမ်း	Insein	အင်းစိန်	16.888620447310966	96.10765274148436
6A	46	1324	Insein Zay	အင်းစိန်ဈေး	Hlaing River Road	လှိုင်မြစ်လမ်း	Insein	အင်းစိန်	16.886986	96.102529
6A	47	1321	Htaung Boo Wa	ထောင်ဘူးဝ	Hlaing River Road	လှိုင်မြစ်လမ်း	Insein	အင်းစိန်	16.88626137149945	96.10031425952913
6A	48	1332	Pauk Taw Wa	ပေါက်တောဝ	Hlaing River Road	လှိုင်မြစ်လမ်း	Insein	အင်းစိန်	16.885151591308578	96.09710751101375
6A	49	1323	Insein Kannar	အင်းစိန်ကမ်းနား	Hlaing River Road	လှိုင်မြစ်လမ်း	Insein	အင်းစိန်	16.88350071428124	96.09398344997318
6A	50	31	Tit Htate	(၁) ထိပ်	Nyaung Done Road	ညောင်တန်းလမ်း	Hlaing Tharyar	လှိုင်သာယာ	16.87822689567304	96.07839097268881
6A	51	1139	Thone Htate	(၃) ထိပ်	Nyaung Done Road	ညောင်တန်းလမ်း	Hlaing Tharyar	လှိုင်သာယာ	16.87769609222099	96.0750614047356
6A	52	1135	Ngar Htate	(၅) ထိပ်	Nyaung Done Road	ညောင်တန်းလမ်း	Hlaing Tharyar	လှိုင်သာယာ	16.877163485866696	96.07127779629083
6A	53	2229	Yone Shae	ရုံးရှေ့	Nyaung Done Road	ညောင်တန်းလမ်း	Hlaing Tharyar	လှိုင်သာယာ	16.875759159838704	96.06262076402346
6A	54	1131	Mee Khwat Zay	မီးခွက်ဈေး	Nyaung Done Road	ညောင်တန်းလမ်း	Hlaing Tharyar	လှိုင်သာယာ	16.874082055613908	96.05199716635981
6A	55	1124	Sanay Ma	စနေမ	No. 5 Main Road	အမှတ်(၅)လမ်းမ	Hlaing Tharyar	လှိုင်သာယာ	16.872406206400104	96.04160020127894
6A	56	1121	B.O.C	ဘီအိုစီ	No. 5 Main Road	အမှတ်(၅)လမ်းမ	Hlaing Tharyar	လှိုင်သာယာ	16.872660575089096	96.03753967210653
6A	57	1126	Thama Kone	သမကုန်း	No. 5 Main Road	အမှတ်(၅)လမ်းမ	Hlaing Tharyar	လှိုင်သာယာ	16.87418313046785	96.03370373602957
6A	58	25	Dagon Ayar A Way Pyay	ဒဂုံဧရာအဝေးပြေး	No. 5 Main Road	အမှတ်(၅)လမ်းမ	Hlaing Tharyar	လှိုင်သာယာ	16.8781015165209	96.0241266153753
6A	59	1122	B.O.C	ဘီအိုစီ	No. 5 Main Road	အမှတ်(၅)လမ်းမ	Hlaing Tharyar	လှိုင်သာယာ	16.872540258842154	96.03740002959967
6A	60	1123	Sanay Ma	စနေမ	No. 5 Main Road	အမှတ်(၅)လမ်းမ	Hlaing Tharyar	လှိုင်သာယာ	16.872309492066083	96.04157363064589
6A	61	1130	Mee Khwat Zay	မီးခွက်ဈေး	Nyaung Done Road	ညောင်တန်းလမ်း	Hlaing Tharyar	လှိုင်သာယာ	16.8737204576502	96.05064585344736
6A	62	2228	Yone Shae	ရုံးရှေ့	Nyaung Done Road	ညောင်တန်းလမ်း	Hlaing Tharyar	လှိုင်သာယာ	16.87554135084313	96.06214673956858
6A	63	1134	Ngar Htate	(၅) ထိပ်	Nyaung Done Road	ညောင်တန်းလမ်း	Hlaing Tharyar	လှိုင်သာယာ	16.876926030577906	96.0713158154249
6A	64	1138	Thone Htate	(၃) ထိပ်	Nyaung Done Road	ညောင်တန်းလမ်း	Hlaing Tharyar	လှိုင်သာယာ	16.87758565487986	96.07507484033705
6A	65	30	Tit Htate	(၁) ထိပ်	Nyaung Done Road	ညောင်တန်းလမ်း	Hlaing Tharyar	လှိုင်သာယာ	16.87805870194198	96.07841479824857
6A	66	1322	Insein Kannar	အင်းစိန်ကမ်းနား	Hlaing River Road	လှိုင်မြစ်လမ်း	Insein	အင်းစိန်	16.883421651001527	96.09407741110773
6A	67	1331	Pauk Taw Wa	ပေါက်တောဝ	Hlaing River Road	လှိုင်မြစ်လမ်း	Insein	အင်းစိန်	16.885269032175547	96.09815135132523
6A	68	1320	Htaung Boo Wa	ထောင်ဘူးဝ	Hlaing River Road	လှိုင်မြစ်လမ်း	Insein	အင်းစိန်	16.88611064613942	96.10037052305418
6A	69	1325	Insein Zay	အင်းစိန်ဈေး	Hlaing River Road	လှိုင်မြစ်လမ်း	Insein	အင်းစိန်	16.886806885212575	96.10254005296157
6A	70	2195	Insein Pan Chan	အင်းစိန်ပန်းခြံ	Lan Thit Road	လမ်းသစ်လမ်း	Insein	အင်းစိန်	16.888451657862788	96.10784619580956
6A	71	1351	Oakyin Wa	အုတ်ကျင်းဝ	Lan Thit Road	လမ်းသစ်လမ်း	Insein	အင်းစိန်	16.89028908469433	96.11137598287316
6A	72	1353	Workshop	ဝပ်ရှော့	Lan Thit Road	လမ်းသစ်လမ်း	Insein	အင်းစိန်	16.89100285276214	96.11467744689438
6A	73	1339	Ar Lain Ngar Sint	အာလိန်ငါးဆင့်	Lan Thit Road	လမ်းသစ်လမ်း	Insein	အင်းစိန်	16.891395686712873	96.11660694004969
6A	74	1294	A Way Pyay	အဝေးပြေး	Pyay Road	ပြည်လမ်း	Insein	အင်းစိန်	16.888537	96.122725
6A	75	1820	Nawaday	နဝဒေး	Kabar Aye Pagoda Road	ကမ္ဘာအေးဘုရားလမ်း	Mayangone	မရမ်းကုန်း	16.866648920187888	96.15249755792323
6A	76	1818	Sar Taik	စာတိုက်	Kabar Aye Pagoda Road	ကမ္ဘာအေးဘုရားလမ်း	Mayangone	မရမ်းကုန်း	16.861586	96.155325
6A	77	1239	Kabar Aye Paya/ Paya Lan	ကမ္ဘာအေးဘုရားလမ်း	Kabar Aye Pagoda Road	ကမ္ဘာအေးဘုရားလမ်း	Mayangone	မရမ်းကုန်း	16.85825079611413	96.15602290257813
6A	78	1237	Chaw Twin Kone	ချော်တွင်းကုန်း	Parami Road	ပါရမီလမ်း	Mayangone	မရမ်းကုန်း	16.850228933807884	96.15807387046517
6A	79	1815	Mit Zu Lan	မဉ္ဇူလမ်း	Parami Road	ပါရမီလမ်း	Mayangone	မရမ်းကုန်း	16.85072120518684	96.16200858727099
6A	80	1248	Nyaung Pin	ညောင်ပင်	Parami Road	ပါရမီလမ်း	Mayangone	မရမ်းကုန်း	16.853851007207716	96.16816387977454
6A	81	1247	Kaytu Marlar Kwae	ကေတုမာလာကွေ့	Parami Road	ပါရမီလမ်း	South Okkalapa	တောင်ဥက္ကလာပ	16.856264313885067	96.17213245946915
6A	82	2124	Bay Li	ဘေလီ	Thanthumar Road	သံသုမာလမ်း	South Okkalapa	တောင်ဥက္ကလာပ	16.859959	96.178682
6A	83	1078	Myin Thar Zay	မြင်သာဈေး	Thanthumar Road	သံသုမာလမ်း	South Okkalapa	တောင်ဥက္ကလာပ	16.856729	96.18176
6A	84	1082	Taung Okkalar Paya	တောင်ဥက္ကလာပဘုရား	Thanthumar Road	သံသုမာလမ်း	South Okkalapa	တောင်ဥက္ကလာပ	16.852719277159586	96.18528316263111
6A	85	1086	Moe Swe	မိုးစွေ	Thanthumar Road	သံသုမာလမ်း	South Okkalapa	တောင်ဥက္ကလာပ	16.850030909833936	96.18946552276613
6A	86	2126	Thone-sae-tit Gate/ Tit Gate	(၃၁) ဂိတ်/(၁) ဂိတ်	Thanthumar Road	သံသုမာလမ်း	South Okkalapa	တောင်ဥက္ကလာပ	16.84888036518613	96.1940199136734
6A	87	1089	Se Man Kane	စီမံကိန်း	Thanthumar Road	သံသုမာလမ်း	South Okkalapa	တောင်ဥက္ကလာပ	16.847384520334618	96.1984035652131
6A	88	614	Lai Sin Yone	လိုင်စင်ရုံး	Thanthumar Road	သံသုမာလမ်း	Thingangyun	သင်္ဃန်းကျွန်း	16.845867625393243	96.20077338069677
6A	89	633	Sanpya Zay/ Nga Moe Yeik	စံပြဈေး/ ငမိုးရိပ်	Thanthumar Road	သံသုမာလမ်း	Thingangyun	သင်္ဃန်းကျွန်း	16.843309	96.203744
6A	90	629	Kar Gyi Gate	ကားကြီးဂိတ်	No. 2 Main Road	အမှတ်(၂)လမ်းမ	South Dagon	တောင်ဒဂုံ	16.847180777593348	96.20910117868335
6A	91	673	Tadar Phyu	တံတားဖြူ	No. 2 Main Road	အမှတ်(၂)လမ်းမ	South Dagon	တောင်ဒဂုံ	16.857341615494583	96.21233842357469
6A	92	677	Taung Myauk Lan Sone	တောင်/မြောက်လမ်းဆုံ	Pyi Htaung Su Main Road	ပြည်ထောင်စုလမ်းမကြီး	South Dagon	တောင်ဒဂုံ	16.858630783290327	96.2144668120891
6A	93	681	Than Lan	သံလမ်း	Pyi Htaung Su Main Road	ပြည်ထောင်စုလမ်းမကြီး	South Dagon	တောင်ဒဂုံ	16.854656883435776	96.21476328000428
6A	94	695	Pan Chan	ပန်းခြံ	Pyi Htaung Su Main Road	ပြည်ထောင်စုလမ်းမကြီး	South Dagon	တောင်ဒဂုံ	16.851523565079887	96.21824570931496
6A	95	701	Yauk Kaw	ယောက်ကော်	Pyi Htaung Su Main Road	ပြည်ထောင်စုလမ်းမကြီး	South Dagon	တောင်ဒဂုံ	16.84817339716358	96.2220901111141
6A	96	2138	Thit Saing Kwae	သစ်ဆိုင်ကွေ့	Pyi Htaung Su Main Road	ပြည်ထောင်စုလမ်းမကြီး	South Dagon	တောင်ဒဂုံ	16.84716076229892	96.22348121367396
6A	97	691	Kone Padaythar	ကုန်ပဒေသာ	Si Pin Road	စည်ပင်လမ်း	South Dagon	တောင်ဒဂုံ	16.84956857210762	96.22752003371717
6A	98	687	Gate Haung	ဂိတ်ဟောင်း	Si Pin Road	စည်ပင်လမ်း	South Dagon	တောင်ဒဂုံ	16.852236877975855	96.22972862329335
6A	99	715	Kyaung Shae	ကျောင်းရှေ့	Si Pin Road	စည်ပင်လမ်း	South Dagon	တောင်ဒဂုံ	16.85420667003113	96.23146698810163
6A	100	712	Kyan Mar Yae	ကျန်းမာရေး	Si Pin Road	စည်ပင်လမ်း	South Dagon	တောင်ဒဂုံ	16.856036501877288	96.23299812443294
6A	101	721	Sae-shit Kwae	(၁၈) ကွေ့	Si Pin Road	စည်ပင်လမ်း	South Dagon	တောင်ဒဂုံ	16.85800675602665	96.23459486290815
6A	102	2134	Tadar Htate	တံတားထိပ်	Maungmakan Kantha Road	မောင်းမကန်ကန်သာလမ်း	South Dagon	တောင်ဒဂုံ	16.85598	96.237389
6A	103	719	Phone Gyi Kyaung Kwae	ဘုန်းကြီးကျောင်းကွေ့	Hlawga Road	လှော်ကားလမ်း	South Dagon	တောင်ဒဂုံ	16.854238142682732	96.24026182573289
6A	104	729	Awaiyar	အဝေရာ	Maungmakan Kantha Road	မောင်းမကန်ကန်သာလမ်း	South Dagon	တောင်ဒဂုံ	16.850287494635474	96.24454011674972
6A	105	731	Ayar Wun	ဧရာဝဏ်	Maungmakan Kantha Road	မောင်းမကန်ကန်သာလမ်း	South Dagon	တောင်ဒဂုံ	16.849152	96.245892
6A	106	664	Thein Kyaung	သိမ်ကျောင်း	Ayar Wun Main Road	ဧရာဝဏ်လမ်းမကြီး	Thaketa	သာကေတ	16.838579621501808	96.24387042364107
