svc_name	sequence	stop_id	name_en	name_mm	road_en	road_mm	township_en	township_mm	lat	lng
41	1	1735	Equator	အီကွေတာ	Yangon-Pyay Main Road	ရန်ကုန်-ပြည်လမ်းမကြီး	Hmaw Bi	မှော်ဘီ	17.142307727230026	95.9992613643408
41	2	1733	Japan Site	ဂျပန်ဆိုက်	Yangon-Pyay Main Road	ရန်ကုန်-ပြည်လမ်းမကြီး	Hmaw Bi	မှော်ဘီ	17.140421310220514	95.9997989377007
41	3	1730	Lan Ni Lay	လမ်းနီလေး	Yangon-Pyay Main Road	ရန်ကုန်-ပြည်လမ်းမကြီး	Hmaw Bi	မှော်ဘီ	17.13836060281555	96.00069475360216
41	4	1728	Myo Chaung	မြို့ချောင်း	Yangon-Pyay Main Road	ရန်ကုန်-ပြည်လမ်းမကြီး	Hmaw Bi	မှော်ဘီ	17.137264	96.001232
41	5	1726	Oak Set	အုတ်စက်	Yangon-Pyay Main Road	ရန်ကုန်-ပြည်လမ်းမကြီး	Hmaw Bi	မှော်ဘီ	17.13377648762936	96.00268872454764
41	6	1725	Aung Chan Thar	အောင်ချမ်းသာ	Yangon-Pyay Main Road	ရန်ကုန်-ပြည်လမ်းမကြီး	Hmaw Bi	မှော်ဘီ	17.131276	96.003807
41	7	1722	G.T.C Alal Pauk	ဂျီတီစီအလယ်ပေါက်	Yangon-Pyay Main Road	ရန်ကုန်-ပြည်လမ်းမကြီး	Hmaw Bi	မှော်ဘီ	17.12902	96.004665
41	8	1720	G.T.C Yae Oh	ဂျီတီစီရေအိုး	Yangon-Pyay Main Road	ရန်ကုန်-ပြည်လမ်းမကြီး	Hmaw Bi	မှော်ဘီ	17.126929	96.005523
41	9	1718	G.T.C Site Thit	ဂျီတီစီဆိုက်သစ်	Yangon-Pyay Main Road	ရန်ကုန်-ပြည်လမ်းမကြီး	Hmaw Bi	မှော်ဘီ	17.124427	96.006639
41	10	1716	Own Chan	အုန်းခြံ	Yangon-Pyay Main Road	ရန်ကုန်-ပြည်လမ်းမကြီး	Hmaw Bi	မှော်ဘီ	17.120777	96.008184
41	11	1714	Daung Lay Kwae	ဒေါင်းလေးကွေ့	Yangon-Pyay Main Road	ရန်ကုန်-ပြည်လမ်းမကြီး	Hmaw Bi	မှော်ဘီ	17.115281	96.01063
41	12	1712	U Thu Mingala	ဦးသုမင်္ဂလ	Yangon-Pyay Main Road	ရန်ကုန်-ပြည်လမ်းမကြီး	Hmaw Bi	မှော်ဘီ	17.10958	96.015694
41	13	1711	Su Paung Yone	စုပေါင်းရုံး	Yangon-Pyay Main Road	ရန်ကုန်-ပြည်လမ်းမကြီး	Hmaw Bi	မှော်ဘီ	17.105724	96.019127
41	14	1709	Htan Ta Pin Tar Sone	ထန်းတပင်တာဆုံ	Yangon-Pyay Main Road	ရန်ကုန်-ပြည်လမ်းမကြီး	Hmaw Bi	မှော်ဘီ	17.097849	96.036361
41	15	1707	Mee Sat (Hmaw Bi)	မီးစက် (မှော်ဘီ)	Yangon-Pyay Main Road	ရန်ကုန်-ပြည်လမ်းမကြီး	Hmaw Bi	မှော်ဘီ	17.098033	96.038142
41	16	1705	Thayet Taw Pauk	သရက်တောပေါက်	Yangon-Pyay Main Road	ရန်ကုန်-ပြည်လမ်းမကြီး	Hmaw Bi	မှော်ဘီ	17.098981026611735	96.03889339137824
41	17	1703	Hmaw Bi Kar Lay Gate	မှော်ဘီကားလေးဂိတ်	Yangon-Pyay Main Road	ရန်ကုန်-ပြည်လမ်းမကြီး	Hmaw Bi	မှော်ဘီ	17.10053631487457	96.04010650422427
41	18	1701	Hmaw Bi Zay	မှော်ဘီဈေး	Yangon-Pyay Main Road	ရန်ကုန်-ပြည်လမ်းမကြီး	Hmaw Bi	မှော်ဘီ	17.100765899750144	96.04262164095418
41	19	1699	Yoke Shin Yon	ရုပ်ရှင်ရုံ	Yangon-Pyay Main Road	ရန်ကုန်-ပြည်လမ်းမကြီး	Hmaw Bi	မှော်ဘီ	17.100894	96.04603
41	20	1697	A Hmat Lay	အမှတ် (၄)	Yangon-Pyay Main Road	ရန်ကုန်-ပြည်လမ်းမကြီး	Hmaw Bi	မှော်ဘီ	17.10361280479879	96.04985088575633
41	21	1695	Yone Pauk	ရုံးပေါက်	Yangon-Pyay Main Road	ရန်ကုန်-ပြည်လမ်းမကြီး	Htauk Kyant	ထောက်ကြန့်	17.106032	96.052519
41	22	1693	Sae-Chauk Gate	(၁၆) ဂိတ်	Yangon-Pyay Main Road	ရန်ကုန်-ပြည်လမ်းမကြီး	Htauk Kyant	ထောက်ကြန့်	17.106545	96.053785
41	23	1691	Supplies	ဆပ်ပလိုင်း	Yangon-Pyay Main Road	ရန်ကုန်-ပြည်လမ်းမကြီး	Htauk Kyant	ထောက်ကြန့်	17.106442	96.060094
41	24	1687	Lay Tat	လေတပ်	Yangon-Pyay Main Road	ရန်ကုန်-ပြည်လမ်းမကြီး	Htauk Kyant	ထောက်ကြန့်	17.108718	96.073033
41	25	1685	Maw Taw Yin	မော်တော်ယာဉ်	Yangon-Pyay Main Road	ရန်ကုန်-ပြည်လမ်းမကြီး	Htauk Kyant	ထောက်ကြန့်	17.108185	96.074188
41	26	1683	Say Tat	ဆေးတပ်	Yangon-Pyay Main Road	ရန်ကုန်-ပြည်လမ်းမကြီး	Htauk Kyant	ထောက်ကြန့်	17.106627	96.076248
41	27	1681	Bo Thin Tan	ဗိုလ်သင်တန်း	Yangon-Pyay Main Road	ရန်ကုန်-ပြည်လမ်းမကြီး	Htauk Kyant	ထောက်ကြန့်	17.105355	96.077921
41	28	1679	Set Thwe Yae	ဆက်သွယ်ရေး	Yangon-Pyay Main Road	ရန်ကုန်-ပြည်လမ်းမကြီး	Htauk Kyant	ထောက်ကြန့်	17.10433	96.079509
41	29	1677	Koe-Sae-Tit Gate	(၉၁) ဂိတ်	Yangon-Pyay Main Road	ရန်ကုန်-ပြည်လမ်းမကြီး	Htauk Kyant	ထောက်ကြန့်	17.100884	96.084144
41	30	1675	Sae-Thit Taw	ဆယ့်တစ်တော	Yangon-Pyay Main Road	ရန်ကုန်-ပြည်လမ်းမကြီး	Htauk Kyant	ထောက်ကြန့်	17.09789	96.088436
41	31	1673	Main Ma Line	မိန်းမလိုင်း	Yangon-Pyay Main Road	ရန်ကုန်-ပြည်လမ်းမကြီး	Htauk Kyant	ထောက်ကြန့်	17.096659	96.090753
41	32	1671	San Chaung Pauk	စမ်းချောင်းပေါက်	Yangon-Pyay Main Road	ရန်ကုန်-ပြည်လမ်းမကြီး	Htauk Kyant	ထောက်ကြန့်	17.095716	96.092513
41	33	1669	Ye Baw Zay	ရဲဘော်ဈေး	Yangon-Pyay Main Road	ရန်ကုန်-ပြည်လမ်းမကြီး	Htauk Kyant	ထောက်ကြန့်	17.094129775295237	96.09478605911137
41	34	1667	Kyat Phyu Kan	ကြက်ဖြူကန်	Yangon-Pyay Main Road	ရန်ကုန်-ပြည်လမ်းမကြီး	Htauk Kyant	ထောက်ကြန့်	17.086257894915484	96.10054895281795
41	35	1665	Say Khan	ဆေးခန်း	Yangon-Pyay Main Road	ရန်ကုန်-ပြည်လမ်းမကြီး	Htauk Kyant	ထောက်ကြန့်	17.08319431832644	96.10276043415071
41	36	1662	Mee Sat	မီးစက်	Yangon-Pyay Main Road	ရန်ကုန်-ပြည်လမ်းမကြီး	Htauk Kyant	ထောက်ကြန့်	17.076985087829687	96.1072783637792
41	37	1660	Ta-Sae-Ngar	တစ်ဆယ့်ငါး	Yangon-Pyay Main Road	ရန်ကုန်-ပြည်လမ်းမကြီး	Htauk Kyant	ထောက်ကြန့်	17.07418	96.108813
41	38	1659	Yoke Than	ရုပ်သံ	Yangon-Pyay Main Road	ရန်ကုန်-ပြည်လမ်းမကြီး	Htauk Kyant	ထောက်ကြန့်	17.069564	96.11185
41	39	1657	Hnit Gate	(၂) ဂိတ်	Yangon-Pyay Main Road	ရန်ကုန်-ပြည်လမ်းမကြီး	Htauk Kyant	ထောက်ကြန့်	17.065646	96.115859
41	40	1655	Yae Oh Sin	ရေအိုးစင်	Yangon-Pyay Main Road	ရန်ကုန်-ပြည်လမ်းမကြီး	Htauk Kyant	ထောက်ကြန့်	17.064375	96.116889
41	41	1653	Kyant Khaing Yae	ကြံ့ခိုင်ရေး	Yangon-Pyay Main Road	ရန်ကုန်-ပြည်လမ်းမကြီး	Htauk Kyant	ထောက်ကြန့်	17.060764	96.117232
41	42	1650	Sauk Lote Yae	ဆောက်လုပ်ရေး	Yangon-Pyay Main Road	ရန်ကုန်-ပြည်လမ်းမကြီး	Htauk Kyant	ထောက်ကြန့်	17.057523	96.118519
41	43	1649	Shit-Sae-Hnit	-၈၂	Yangon-Pyay Main Road	ရန်ကုန်-ပြည်လမ်းမကြီး	Htauk Kyant	ထောက်ကြန့်	17.055089805976248	96.1194466240704
41	44	1646	Nine Gate	(၉) ဂိတ်	Yangon-Pyay Main Road	ရန်ကုန်-ပြည်လမ်းမကြီး	Htauk Kyant	ထောက်ကြန့်	17.0519248486086	96.11956057604404
41	45	1645	Gate Haung	ဂိတ်ဟောင်း	Yangon-Pyay Main Road	ရန်ကုန်-ပြည်လမ်းမကြီး	Htauk Kyant	ထောက်ကြန့်	17.044476	96.126072
41	46	1487	Htauk Kyant Lan Sone	ထောက်ကြန့်လမ်းဆုံ	No. 2 Main Road	အမှတ်(၂)လမ်းမ	Htauk Kyant	ထောက်ကြန့်	17.04265	96.131818
41	47	2207	Lan Thit	လမ်းသစ်	No. 1 Main Road	အမှတ်(၁)လမ်းမ	Mingalardon	မင်္ဂလာဒုံ	17.037797820068036	96.13129090284932
41	48	1468	Kyaung Shae	ကျောင်းရှေ့	No. 1 Main Road	အမှတ်(၁)လမ်းမ	Mingalardon	မင်္ဂလာဒုံ	17.03111213172036	96.13192968769
41	49	63	Nwe Khwe	နွယ်ခွေ	No. 1 Main Road	အမှတ်(၁)လမ်းမ	Mingalardon	မင်္ဂလာဒုံ	17.022154029079687	96.13431618316102
41	50	1461	C.P Light	စီပီလိုက်	No. 1 Main Road	အမှတ်(၁)လမ်းမ	Mingalardon	မင်္ဂလာဒုံ	17.020660703118264	96.13338895607741
41	51	60	Daewoo	ဒေဝူး	No. 1 Main Road	အမှတ်(၁)လမ်းမ	Mingalardon	မင်္ဂလာဒုံ	17.01841052297509	96.13143829861659
41	52	1474	Seagull	ဆေးဂဲလ်	No. 1 Main Road	အမှတ်(၁)လမ်းမ	Mingalardon	မင်္ဂလာဒုံ	17.01631133764975	96.12807133002208
41	53	1473	Mwae Myu Yae	မွေးမြူရေး	No. 1 Main Road	အမှတ်(၁)လမ်းမ	Mingalardon	မင်္ဂလာဒုံ	17.013881748309583	96.12716292031111
41	54	1484	Yae Sin	ရေစင်	No. 1 Main Road	အမှတ်(၁)လမ်းမ	Mingalardon	မင်္ဂလာဒုံ	17.010048	96.127278
41	55	1463	Chan Pauk	ခြံပေါက်	No. 1 Main Road	အမှတ်(၁)လမ်းမ	Mingalardon	မင်္ဂလာဒုံ	17.008304	96.12717
41	56	1467	Kone Htate	ကုန်းထိပ်	No. 1 Main Road	အမှတ်(၁)လမ်းမ	Mingalardon	မင်္ဂလာဒုံ	17.004467	96.128899
41	57	1438	Paya Lay	ဘုရားလေး	No. 1 Main Road	အမှတ်(၁)လမ်းမ	Mingalardon	မင်္ဂလာဒုံ	16.996834	96.130217
41	58	1447	Ye Baw Haung	ရဲဘော်ဟောင်း	No. 1 Main Road	အမှတ်(၁)လမ်းမ	Mingalardon	မင်္ဂလာဒုံ	16.991488	96.130938
41	59	1443	Shan Su	ရှမ်းစု	No. 1 Main Road	အမှတ်(၁)လမ်းမ	Mingalardon	မင်္ဂလာဒုံ	16.98794828918517	96.1271884222515
41	60	1426	Bo Chan	ဘိုခြံ	No. 1 Main Road	အမှတ်(၁)လမ်းမ	Mingalardon	မင်္ဂလာဒုံ	16.980232	96.126419
41	61	58	Tit Numpad	်(၁) နံပါတ်	No. 1 Main Road	အမှတ်(၁)လမ်းမ	Mingalardon	မင်္ဂလာဒုံ	16.974884204079043	96.12405782332644
41	62	1444	Sin Min	ဆင်မင်း	No. 1 Main Road	အမှတ်(၁)လမ်းမ	Mingalardon	မင်္ဂလာဒုံ	16.970032	96.126548
41	63	1414	Yae Kyi I	ရေကြည်အိုင်	No. 1 Main Road	အမှတ်(၁)လမ်းမ	Mingalardon	မင်္ဂလာဒုံ	16.966603022677855	96.1274304497056
41	64	1412	Waryar Let	ဝါယာလက်	No. 1 Main Road	အမှတ်(၁)လမ်းမ	Mingalardon	မင်္ဂလာဒုံ	16.961805600297204	96.1267461720854
41	65	1408	Kyaikkalot	ကျိုက္ကလို့	No. 1 Main Road	အမှတ်(၁)လမ်းမ	Mingalardon	မင်္ဂလာဒုံ	16.952053	96.12702
41	66	1405	Kyaikkalei/ Suppaline	ကျိုက္ကလဲ့/ ဆပ်ပလိုင်း	No. 1 Main Road	အမှတ်(၁)လမ်းမ	Mingalardon	မင်္ဂလာဒုံ	16.944294	96.127986
41	67	50	Naing Ngan Yae	နိုင်ငံရေး	No. 1 Main Road	အမှတ်(၁)လမ်းမ	Mingalardon	မင်္ဂလာဒုံ	16.938629	96.129552
41	68	1410	Mingalardon Zay	မင်္ဂလာဒုံဈေး	No. 1 Main Road	အမှတ်(၁)လမ်းမ	Mingalardon	မင်္ဂလာဒုံ	16.93479	96.130131
41	69	1398	Khayae Pin Lan Khawe	ခရေပင်လမ်းခွဲ	No. 1 Main Road	အမှတ်(၁)လမ်းမ	Mingalardon	မင်္ဂလာဒုံ	16.92723344884106	96.13146262709053
41	70	1062	Sar Taik	စာတိုက်	No. 1 Main Road	အမှတ်(၁)လမ်းမ	Mingalardon	မင်္ဂလာဒုံ	16.923187459952388	96.1333077773452
41	71	1400	Say Kyaung	ဆေးကျောင်း	No. 1 Main Road	အမှတ်(၁)လမ်းမ	Mingalardon	မင်္ဂလာဒုံ	16.92033380801368	96.13393118826936
41	72	1393	B.O.C	ဘီအိုစီ	No. 1 Main Road	အမှတ်(၁)လမ်းမ	Mingalardon	မင်္ဂလာဒုံ	16.915950755971124	96.13451996818186
41	73	1374	Pan Chan Kone	ပန်းခြံကုန်း	No. 1 Main Road	အမှတ်(၁)လမ်းမ	Mingalardon	မင်္ဂလာဒုံ	16.911009816794227	96.13193050492556
41	74	1372	Kalar Paya	ကုလားဘုရား	No. 1 Main Road	အမှတ်(၁)လမ်းမ	Mingalardon	မင်္ဂလာဒုံ	16.905906	96.128758
41	75	46	Htan Pin Kone	ထန်းပင်ကုန်း	No. 1 Main Road	အမှတ်(၁)လမ်းမ	Mingalardon	မင်္ဂလာဒုံ	16.900289331115886	96.1241097492166
41	76	2250	Saw Bwar Gyi Kone Lan Sone	စော်ဘွားကြီးကုန်းလမ်းဆုံ	Insein Butaryon Road	အင်းစိန်ဘူတာရုံလမ်း	Insein	အင်းစိန်	16.892777336089576	96.11948794685304
41	77	1340	Ar Lain Ngar Sint	အာလိန်ငါးဆင့်	Lan Thit Road	လမ်းသစ်လမ်း	Insein	အင်းစိန်	16.89157790749199	96.11658990383148
41	78	1354	Workshop	ဝပ်ရှော့	Lan Thit Road	လမ်းသစ်လမ်း	Insein	အင်းစိန်	16.891200332528562	96.11466914881022
41	79	1352	Oakyin Wa	အုတ်ကျင်းဝ	Lan Thit Road	လမ်းသစ်လမ်း	Insein	အင်းစိန်	16.890591511108763	96.11145546427
41	80	2196	Insein Pan Chan	အင်းစိန်ပန်းခြံ	Lan Thit Road	လမ်းသစ်လမ်း	Insein	အင်းစိန်	16.888589689064485	96.10769888386132
41	81	1345	Insein Pan Chan	အင်းစိန်ပန်းခြံ	Min Gyi Road	မင်းကြီးလမ်း	Insein	အင်းစိန်	16.887531514108538	96.10758610535414
41	82	1342	B.O.C	ဘီအိုစီ	Yangon-Insein Road	ရန်ကုန်-အင်းစိန်လမ်း	Insein	အင်းစိန်	16.884919917579392	96.10990806017071
41	83	1313	Kyoe Kone	ကြို့ကုန်း	Yangon-Insein Road	ရန်ကုန်-အင်းစိန်လမ်း	Insein	အင်းစိန်	16.878436988253824	96.11263456754386
41	84	1310	B.P.I	ဘီပီအိုင်	Yangon-Insein Road	ရန်ကုန်-အင်းစိန်လမ်း	Insein	အင်းစိန်	16.874841	96.116313
41	85	1253	Kha Wae Chan	ခဝဲခြံ	Yangon-Insein Road	ရန်ကုန်-အင်းစိန်လမ်း	Mayangone	မရမ်းကုန်း	16.869274405472567	96.11956872744487
41	86	1251	Kalar Kyaung	ကုလားကျောင်း	Yangon-Insein Road	ရန်ကုန်-အင်းစိန်လမ်း	Mayangone	မရမ်းကုန်း	16.865719	96.120693
41	87	1222	Thamine Lan Son	သမိုင်းလမ်းဆုံ	Yangon-Insein Road	ရန်ကုန်-အင်းစိန်လမ်း	Mayangone	မရမ်းကုန်း	16.863580854665273	96.12128087785096
41	88	1219	Paya Lan	ဘုရားလမ်း	Yangon-Insein Road	ရန်ကုန်-အင်းစိန်လမ်း	Hlaing	လှိုင်	16.858449573541584	96.1232297960669
41	89	1218	Oakyin	အုတ်ကျင်း	Yangon-Insein Road	ရန်ကုန်-အင်းစိန်လမ်း	Hlaing	လှိုင်	16.85535357935823	96.12357353791595
41	90	1211	Bartar	ဘာတာ	Yangon-Insein Road	ရန်ကုန်-အင်းစိန်လမ်း	Hlaing	လှိုင်	16.852028788549283	96.12414786592129
41	91	1180	Than Lan	သံလမ်း	Yangon-Insein Road	ရန်ကုန်-အင်းစိန်လမ်း	Hlaing	လှိုင်	16.846071	96.125475
41	92	1182	Thukha	သုခ	Yangon-Insein Road	ရန်ကုန်-အင်းစိန်လမ်း	Hlaing	လှိုင်	16.840511	96.12683
41	93	1171	Butar Yon Lan	ဘူတာရုံလမ်း	Yangon-Insein Road	ရန်ကုန်-အင်းစိန်လမ်း	Hlaing	လှိုင်	16.837466	96.127449
41	94	1176	Sin Yae Twin	ဆင်ရေတွင်း	Yangon-Insein Road	ရန်ကုန်-အင်းစိန်လမ်း	Kamayut	ကမာရွတ်	16.833769	96.128565
41	95	1174	San Yeik Nyein	စံရိပ်ငြိမ်	Yangon-Insein Road	ရန်ကုန်-အင်းစိန်လမ်း	Kamayut	ကမာရွတ်	16.83080186323241	96.12952651223169
41	96	288	Hledan	လှည်းတန်း	Yangon-Insein Road	ရန်ကုန်-အင်းစိန်လမ်း	Kamayut	ကမာရွတ်	16.827968991730348	96.13019763026388
41	97	290	Hledan Zay	လှည်းတန်းဈေး	Hledan Road	လှည်းတန်းလမ်း	Kamayut	ကမာရွတ်	16.826593902284788	96.12880632519592
41	98	295	Kyaung Shae/ Kone Sin	ကျောင်းရှေ့/ကုန်းဆင်း	Hledan Road	လှည်းတန်းလမ်း	Kamayut	ကမာရွတ်	16.825525	96.126583
41	99	284	Hantharwaddy	ဟံသာဝတီ	Upper Kyee Myin Daing Road	အထက်ကြည့်မြင်တိုင်လမ်း	Kyee Myin Daing	ကြည့်မြင်တိုင်	16.816320576623713	96.12593807280065
41	100	279	Nat Sin Lan	နတ်စင်လမ်း	Upper Kyee Myin Daing Road	အထက်ကြည့်မြင်တိုင်လမ်း	Kyee Myin Daing	ကြည့်မြင်တိုင်	16.8145082067416	96.12593155587093
41	101	300	Salin Kwin	စလင်းကွင်း	Upper Kyee Myin Daing Road	အထက်ကြည့်မြင်တိုင်လမ်း	Kyee Myin Daing	ကြည့်မြင်တိုင်	16.812730481580218	96.12592935562135
41	102	250	Kyee Myin Daing Nya Zay	ကြည်မြင်တိုင်ညဈေး	Upper Kyee Myin Daing Road	အထက်ကြည့်မြင်တိုင်လမ်း	Kyee Myin Daing	ကြည့်မြင်တိုင်	16.809933587198	96.12593092722818
41	103	256	Kyee Myin Daing Butar	ကြည့်မြင်တိုင်ဘူတာ	Upper Kyee Myin Daing Road	အထက်ကြည့်မြင်တိုင်လမ်း	Kyee Myin Daing	ကြည့်မြင်တိုင်	16.806301299283557	96.12574257194865
41	104	247	Kyaung Shae	ကျောင်းရှေ့	Lower Kyee Myin Daing Road	အောက်ကြည့်မြင်တိုင်လမ်း	Kyee Myin Daing	ကြည့်မြင်တိုင်	16.80060702485202	96.12604542402553
41	105	244	Home Lan	ဟုမ်းလမ်း	Lower Kyee Myin Daing Road	အောက်ကြည့်မြင်တိုင်လမ်း	Kyee Myin Daing	ကြည့်မြင်တိုင်	16.797192	96.126132
41	106	97	White Taw	ဝှိုက်တော	Lower Kyee Myin Daing Road	အောက်ကြည့်မြင်တိုင်လမ်း	Ahlone	အလုံ	16.793536	96.126588
41	107	95	Sin Min Zay	ဆင်မင်းဈေး	Lower Kyee Myin Daing Road	အောက်ကြည့်မြင်တိုင်လမ်း	Ahlone	အလုံ	16.790543070149177	96.12796158995481
41	108	93	Chan Mar Phee	ချန်မာဖီ	Lower Kyee Myin Daing Road	အောက်ကြည့်မြင်တိုင်လမ်း	Ahlone	အလုံ	16.78735983441184	96.12950640221246
41	109	99	Ahlone Sar Taik	အလုံစာတိုက်	Lower Kyee Myin Daing Road	အောက်ကြည့်မြင်တိုင်လမ်း	Ahlone	အလုံ	16.785148945106275	96.13131663529204
41	110	109	Jama Khar Nar	ဂျမခါနာ	Lower Kyee Myin Daing Road	အောက်ကြည့်မြင်တိုင်လမ်း	Ahlone	အလုံ	16.783082370652377	96.13320021657276
41	111	2427	Thakhin Mya Pan Cha	သခင်မြပန်းခြံ	Thakhin Mya Garden Street	သခင်မြပန်းခြံလမ်း	Ahlone	အလုံ	16.7802983809211	96.1349705792964
41	112	110	Jama Khar Nar	ဂျမခါနာ	Lower Kyee Myin Daing Road	အောက်ကြည့်မြင်တိုင်လမ်း	Ahlone	အလုံ	16.783100366432155	96.13329419866206
41	113	100	Ahlone Sar Taik	အလုံစာတိုက်	Lower Kyee Myin Daing Road	အောက်ကြည့်မြင်တိုင်လမ်း	Ahlone	အလုံ	16.785382566574427	96.13126657437533
41	114	94	Chan Mar Phee	ချန်မာဖီ	Lower Kyee Myin Daing Road	အောက်ကြည့်မြင်တိုင်လမ်း	Ahlone	အလုံ	16.78753614374465	96.12954945769162
41	115	96	Sin Min Zay	ဆင်မင်းဈေး	Lower Kyee Myin Daing Road	အောက်ကြည့်မြင်တိုင်လမ်း	Ahlone	အလုံ	16.790742	96.12801
41	116	98	White Taw	ဝှိုက်တော	Lower Kyee Myin Daing Road	အောက်ကြည့်မြင်တိုင်လမ်း	Ahlone	အလုံ	16.793685501607825	96.12661432474853
41	117	245	Home Lan	ဟုမ်းလမ်း	Lower Kyee Myin Daing Road	အောက်ကြည့်မြင်တိုင်လမ်း	Kyee Myin Daing	ကြည့်မြင်တိုင်	16.7980176794345	96.12623665714638
41	118	246	Kyaung Shae	ကျောင်းရှေ့	Lower Kyee Myin Daing Road	အောက်ကြည့်မြင်တိုင်လမ်း	Kyee Myin Daing	ကြည့်မြင်တိုင်	16.80036473598132	96.12621706444772
41	119	257	Kyee Myin Daing Butar	ကြည့်မြင်တိုင်ဘူတာ	Upper Kyee Myin Daing Road	အထက်ကြည့်မြင်တိုင်လမ်း	Kyee Myin Daing	ကြည့်မြင်တိုင်	16.806369318492735	96.12588311894798
41	120	251	Kyee Myin Daing Nya Zay	ကြည်မြင်တိုင်ညဈေး	Upper Kyee Myin Daing Road	အထက်ကြည့်မြင်တိုင်လမ်း	Kyee Myin Daing	ကြည့်မြင်တိုင်	16.809454549304007	96.1260079778731
41	121	299	Salin Kwin	စလင်းကွင်း	Upper Kyee Myin Daing Road	အထက်ကြည့်မြင်တိုင်လမ်း	Kyee Myin Daing	ကြည့်မြင်တိုင်	16.81202472257673	96.12604951020332
41	122	280	Nat Sin Lan	နတ်စင်လမ်း	Upper Kyee Myin Daing Road	အထက်ကြည့်မြင်တိုင်လမ်း	Kyee Myin Daing	ကြည့်မြင်တိုင်	16.81446189081883	96.12602310720831
41	123	283	Hantharwaddy	ဟံသာဝတီ	Upper Kyee Myin Daing Road	အထက်ကြည့်မြင်တိုင်လမ်း	Kyee Myin Daing	ကြည့်မြင်တိုင်	16.81622872794096	96.12603888614106
41	124	296	Kyaung Shae/ Kone Sin	ကျောင်းရှေ့/ကုန်းဆင်း	Hledan Road	လှည်းတန်းလမ်း	Kamayut	ကမာရွတ်	16.82535746158587	96.12666466528029
41	125	289	Hledan Zay	လှည်းတန်းဈေး	Hledan Road	လှည်းတန်းလမ်း	Kamayut	ကမာရွတ်	16.826457	96.128887
41	126	287	Hledan	လှည်းတန်း	Yangon-Insein Road	ရန်ကုန်-အင်းစိန်လမ်း	Kamayut	ကမာရွတ်	16.827952	96.130435
41	127	1175	San Yeik Nyein	စံရိပ်ငြိမ်	Yangon-Insein Road	ရန်ကုန်-အင်းစိန်လမ်း	Kamayut	ကမာရွတ်	16.831942429089896	96.12954480573538
41	128	1177	Sin Yae Twin	ဆင်ရေတွင်း	Yangon-Insein Road	ရန်ကုန်-အင်းစိန်လမ်း	Kamayut	ကမာရွတ်	16.834325849790382	96.12863868009302
41	129	1170	Butar Yon Lan	ဘူတာရုံလမ်း	Yangon-Insein Road	ရန်ကုန်-အင်းစိန်လမ်း	Hlaing	လှိုင်	16.83729665475637	96.1277522519231
41	130	1181	Thukha	သုခ	Yangon-Insein Road	ရန်ကုန်-အင်းစိန်လမ်း	Hlaing	လှိုင်	16.84047	96.127017
41	131	1179	Than Lan	သံလမ်း	Yangon-Insein Road	ရန်ကုန်-အင်းစိန်လမ်း	Hlaing	လှိုင်	16.845174404267453	96.1259302776307
41	132	1212	Bartar	ဘာတာ	Yangon-Insein Road	ရန်ကုန်-အင်းစိန်လမ်း	Hlaing	လှိုင်	16.851150141657822	96.12455583410339
41	133	1217	Oakyin	အုတ်ကျင်း	Yangon-Insein Road	ရန်ကုန်-အင်းစိန်လမ်း	Hlaing	လှိုင်	16.854916470149714	96.12391686066985
41	134	2392	Paya Lan	ဘုရားလမ်း	Yangon-Insein Road	ရန်ကုန်-အင်းစိန်လမ်း	Hlaing	လှိုင်	16.8577458299178	96.1235475540161
41	135	1223	Thamine Lan Son	သမိုင်းလမ်းဆုံ	Yangon-Insein Road	ရန်ကုန်-အင်းစိန်လမ်း	Mayangone	မရမ်းကုန်း	16.86102136801801	96.12232748419049
41	136	1250	Kalar Kyaung	ကုလားကျောင်း	Yangon-Insein Road	ရန်ကုန်-အင်းစိန်လမ်း	Mayangone	မရမ်းကုန်း	16.864784	96.121143
41	137	1252	Kha Wae Chan	ခဝဲခြံ	Yangon-Insein Road	ရန်ကုန်-အင်းစိန်လမ်း	Mayangone	မရမ်းကုန်း	16.869492	96.119748
41	138	1311	B.P.I	ဘီပီအိုင်	Yangon-Insein Road	ရန်ကုန်-အင်းစိန်လမ်း	Insein	အင်းစိန်	16.875178616130857	96.11636074259879
41	139	1312	Kyoe Kone	ကြို့ကုန်း	Yangon-Insein Road	ရန်ကုန်-အင်းစိန်လမ်း	Insein	အင်းစိန်	16.8784827070093	96.11278095748277
41	140	1341	B.O.C	ဘီအိုစီ	Yangon-Insein Road	ရန်ကုန်-အင်းစိန်လမ်း	Insein	အင်းစိန်	16.884947027069753	96.11010398715734
41	141	1346	Insein Pan Chan	အင်းစိန်ပန်းခြံ	Min Gyi Road	မင်းကြီးလမ်း	Insein	အင်းစိန်	16.8876457653682	96.1077884444967
41	142	2195	Insein Pan Chan	အင်းစိန်ပန်းခြံ	Lan Thit Road	လမ်းသစ်လမ်း	Insein	အင်းစိန်	16.888464510569012	96.1078345659189
41	143	1351	Oakyin Wa	အုတ်ကျင်းဝ	Lan Thit Road	လမ်းသစ်လမ်း	Insein	အင်းစိန်	16.89040993100321	96.11139262095097
41	144	1353	Workshop	ဝပ်ရှော့	Lan Thit Road	လမ်းသစ်လမ်း	Insein	အင်းစိန်	16.891115999129372	96.11466250615196
41	145	1339	Ar Lain Ngar Sint	အာလိန်ငါးဆင့်	Lan Thit Road	လမ်းသစ်လမ်း	Insein	အင်းစိန်	16.891479839530728	96.1165958759375
41	146	2251	Saw Bwar Gyi Kone Lan Sone	စော်ဘွားကြီးကုန်းလမ်းဆုံ	Insein Butaryon Road	အင်းစိန်ဘူတာရုံလမ်း	Insein	အင်းစိန်	16.892179266895415	96.11907836515458
41	147	45	Htan Pin Kone	ထန်းပင်ကုန်း	No. 1 Main Road	အမှတ်(၁)လမ်းမ	Mingalardon	မင်္ဂလာဒုံ	16.90029241877987	96.1243827478029
41	148	1371	Kalar Paya	ကုလားဘုရား	No. 1 Main Road	အမှတ်(၁)လမ်းမ	Mingalardon	မင်္ဂလာဒုံ	16.905703933352523	96.12899553962053
41	149	1373	Pan Chan Kone	ပန်းခြံကုန်း	No. 1 Main Road	အမှတ်(၁)လမ်းမ	Mingalardon	မင်္ဂလာဒုံ	16.91071	96.131977
41	150	1394	B.O.C	ဘီအိုစီ	No. 1 Main Road	အမှတ်(၁)လမ်းမ	Mingalardon	မင်္ဂလာဒုံ	16.915565	96.134779
41	151	1399	Say Kyaung	ဆေးကျောင်း	No. 1 Main Road	အမှတ်(၁)လမ်းမ	Mingalardon	မင်္ဂလာဒုံ	16.92003	96.134199
41	152	1061	Sar Taik	စာတိုက်	No. 1 Main Road	အမှတ်(၁)လမ်းမ	Mingalardon	မင်္ဂလာဒုံ	16.923592	96.133438
41	153	1397	Khayae Pin Lan Khawe	ခရေပင်လမ်းခွဲ	No. 1 Main Road	အမှတ်(၁)လမ်းမ	Mingalardon	မင်္ဂလာဒုံ	16.927303171944107	96.13170620519669
41	154	1409	Mingalardon Zay	မင်္ဂလာဒုံဈေး	No. 1 Main Road	အမှတ်(၁)လမ်းမ	Mingalardon	မင်္ဂလာဒုံ	16.934113258597346	96.13039033021779
41	155	49	Naing Ngan Yae	နိုင်ငံရေး	No. 1 Main Road	အမှတ်(၁)လမ်းမ	Mingalardon	မင်္ဂလာဒုံ	16.938201990686245	96.12998129334301
41	156	1406	Kyaikkalei/ Suppaline	ကျိုက္ကလဲ့/ ဆပ်ပလိုင်း	No. 1 Main Road	အမှတ်(၁)လမ်းမ	Mingalardon	မင်္ဂလာဒုံ	16.94475703096777	96.1281180381775
41	157	1407	Kyaikkalot	ကျိုက္ကလို့	No. 1 Main Road	အမှတ်(၁)လမ်းမ	Mingalardon	မင်္ဂလာဒုံ	16.95112899826712	96.12703786231577
41	158	1411	Waryar Let	ဝါယာလက်	No. 1 Main Road	အမှတ်(၁)လမ်းမ	Mingalardon	မင်္ဂလာဒုံ	16.960714	96.127084
41	159	1413	Yae Kyi I	ရေကြည်အိုင်	No. 1 Main Road	အမှတ်(၁)လမ်းမ	Mingalardon	မင်္ဂလာဒုံ	16.965784	96.127299
41	160	1445	Sin Min	ဆင်မင်း	No. 1 Main Road	အမှတ်(၁)လမ်းမ	Mingalardon	မင်္ဂလာဒုံ	16.970278	96.126763
41	161	57	Tit Numpad	်(၁) နံပါတ်	No. 1 Main Road	အမှတ်(၁)လမ်းမ	Mingalardon	မင်္ဂလာဒုံ	16.974734331301605	96.12423683982342
41	162	1427	Bo Chan	ဘိုခြံ	No. 1 Main Road	အမှတ်(၁)လမ်းမ	Mingalardon	မင်္ဂလာဒုံ	16.980499	96.12687
41	163	1442	Shan Su	ရှမ်းစု	No. 1 Main Road	အမှတ်(၁)လမ်းမ	Mingalardon	မင်္ဂလာဒုံ	16.987558	96.127256
41	164	1446	Ye Baw Haung	ရဲဘော်ဟောင်း	No. 1 Main Road	အမှတ်(၁)လမ်းမ	Mingalardon	မင်္ဂလာဒုံ	16.991406	96.13111
41	165	1439	Paya Lay	ဘုရားလေး	No. 1 Main Road	အမှတ်(၁)လမ်းမ	Mingalardon	မင်္ဂလာဒုံ	16.997059	96.130496
41	166	1466	Kone Htate	ကုန်းထိပ်	No. 1 Main Road	အမှတ်(၁)လမ်းမ	Mingalardon	မင်္ဂလာဒုံ	17.004641	96.129039
41	167	1462	Chan Pauk	ခြံပေါက်	No. 1 Main Road	အမှတ်(၁)လမ်းမ	Mingalardon	မင်္ဂလာဒုံ	17.00816	96.127514
41	168	1485	Yae Sin	ရေစင်	No. 1 Main Road	အမှတ်(၁)လမ်းမ	Mingalardon	မင်္ဂလာဒုံ	17.010217387377494	96.12759752199057
41	169	1472	Mwae Myu Yae	မွေးမြူရေး	No. 1 Main Road	အမှတ်(၁)လမ်းမ	Mingalardon	မင်္ဂလာဒုံ	17.01383916829909	96.12733674002813
41	170	1475	Seagull	ဆေးဂဲလ်	No. 1 Main Road	အမှတ်(၁)လမ်းမ	Mingalardon	မင်္ဂလာဒုံ	17.01645	96.128565
41	171	59	Daewoo	ဒေဝူး	No. 1 Main Road	အမှတ်(၁)လမ်းမ	Mingalardon	မင်္ဂလာဒုံ	17.01860552456344	96.13184257876128
41	172	1460	C.P Light	စီပီလိုက်	No. 1 Main Road	အမှတ်(၁)လမ်းမ	Mingalardon	မင်္ဂလာဒုံ	17.020607344781673	96.13362610107289
41	173	64	Nwe Khwe	နွယ်ခွေ	No. 1 Main Road	အမှတ်(၁)လမ်းမ	Mingalardon	မင်္ဂလာဒုံ	17.022236	96.134595
41	174	1469	Kyaung Shae	ကျောင်းရှေ့	No. 1 Main Road	အမှတ်(၁)လမ်းမ	Mingalardon	မင်္ဂလာဒုံ	17.03120950570694	96.1321399686858
41	175	2206	Lan Thit	လမ်းသစ်	No. 1 Main Road	အမှတ်(၁)လမ်းမ	Mingalardon	မင်္ဂလာဒုံ	17.03743217934309	96.13143140450121
41	176	1486	Htauk Kyant Lan Sone	ထောက်ကြန့်လမ်းဆုံ	No. 2 Main Road	အမှတ်(၂)လမ်းမ	Htauk Kyant	ထောက်ကြန့်	17.042732	96.131957
41	177	1644	Gate Haung	ဂိတ်ဟောင်း	Yangon-Pyay Main Road	ရန်ကုန်-ပြည်လမ်းမကြီး	Htauk Kyant	ထောက်ကြန့်	17.044148	96.126373
41	178	1647	Nine Gate	(၉) ဂိတ်	Yangon-Pyay Main Road	ရန်ကုန်-ပြည်လမ်းမကြီး	Htauk Kyant	ထောက်ကြန့်	17.051861	96.119764
41	179	1648	Shit-Sae-Hnit	-၈၂	Yangon-Pyay Main Road	ရန်ကုန်-ပြည်လမ်းမကြီး	Htauk Kyant	ထောက်ကြန့်	17.054992925228067	96.11984258517623
41	180	1651	Sauk Lote Yae	ဆောက်လုပ်ရေး	Yangon-Pyay Main Road	ရန်ကုန်-ပြည်လမ်းမကြီး	Htauk Kyant	ထောက်ကြန့်	17.057564	96.11882
41	181	1652	Kyant Khaing Yae	ကြံ့ခိုင်ရေး	Yangon-Pyay Main Road	ရန်ကုန်-ပြည်လမ်းမကြီး	Htauk Kyant	ထောက်ကြန့်	17.060272	96.117575
41	182	1654	Yae Oh Sin	ရေအိုးစင်	Yangon-Pyay Main Road	ရန်ကုန်-ပြည်လမ်းမကြီး	Htauk Kyant	ထောက်ကြန့်	17.064128	96.117232
41	183	1656	Hnit Gate	(၂) ဂိတ်	Yangon-Pyay Main Road	ရန်ကုန်-ပြည်လမ်းမကြီး	Htauk Kyant	ထောက်ကြန့်	17.065605	96.116331
41	184	1658	Yoke Than	ရုပ်သံ	Yangon-Pyay Main Road	ရန်ကုန်-ပြည်လမ်းမကြီး	Htauk Kyant	ထောက်ကြန့်	17.069667	96.112107
41	185	1661	Ta-Sae-Ngar	တစ်ဆယ့်ငါး	Yangon-Pyay Main Road	ရန်ကုန်-ပြည်လမ်းမကြီး	Htauk Kyant	ထောက်ကြန့်	17.07404485128371	96.10925464890899
41	186	1663	Mee Sat	မီးစက်	Yangon-Pyay Main Road	ရန်ကုန်-ပြည်လမ်းမကြီး	Htauk Kyant	ထောက်ကြန့်	17.076754091524922	96.10764662269504
41	187	1664	Say Khan	ဆေးခန်း	Yangon-Pyay Main Road	ရန်ကုန်-ပြည်လမ်းမကြီး	Htauk Kyant	ထောက်ကြန့်	17.083295711260682	96.10307911410929
41	188	1666	Kyat Phyu Kan	ကြက်ဖြူကန်	Yangon-Pyay Main Road	ရန်ကုန်-ပြည်လမ်းမကြီး	Htauk Kyant	ထောက်ကြန့်	17.086368940584222	96.10084087355064
41	189	1668	Ye Baw Zay	ရဲဘော်ဈေး	Yangon-Pyay Main Road	ရန်ကုန်-ပြည်လမ်းမကြီး	Htauk Kyant	ထောက်ကြန့်	17.094034	96.095166
41	190	1670	San Chaung Pauk	စမ်းချောင်းပေါက်	Yangon-Pyay Main Road	ရန်ကုန်-ပြည်လမ်းမကြီး	Htauk Kyant	ထောက်ကြန့်	17.095839	96.092856
41	191	1672	Main Ma Line	မိန်းမလိုင်း	Yangon-Pyay Main Road	ရန်ကုန်-ပြည်လမ်းမကြီး	Htauk Kyant	ထောက်ကြန့်	17.096823	96.091011
41	192	1674	Sae-Thit Taw	ဆယ့်တစ်တော	Yangon-Pyay Main Road	ရန်ကုန်-ပြည်လမ်းမကြီး	Htauk Kyant	ထောက်ကြန့်	17.097972	96.088865
41	193	1676	Koe-Sae-Tit Gate	(၉၁) ဂိတ်	Yangon-Pyay Main Road	ရန်ကုန်-ပြည်လမ်းမကြီး	Htauk Kyant	ထောက်ကြန့်	17.100925	96.084445
41	194	1678	Set Thwe Yae	ဆက်သွယ်ရေး	Yangon-Pyay Main Road	ရန်ကုန်-ပြည်လမ်းမကြီး	Htauk Kyant	ထောက်ကြန့်	17.104617	96.079381
41	195	1680	Bo Thin Tan	ဗိုလ်သင်တန်း	Yangon-Pyay Main Road	ရန်ကုန်-ပြည်လမ်းမကြီး	Htauk Kyant	ထောက်ကြန့်	17.10556	96.078222
41	196	1682	Say Tat	ဆေးတပ်	Yangon-Pyay Main Road	ရန်ကုန်-ပြည်လမ်းမကြီး	Htauk Kyant	ထောက်ကြန့်	17.106709	96.076505
41	197	1684	Maw Taw Yin	မော်တော်ယာဉ်	Yangon-Pyay Main Road	ရန်ကုန်-ပြည်လမ်းမကြီး	Htauk Kyant	ထောက်ကြန့်	17.108103	96.074531
41	198	1686	Lay Tat	လေတပ်	Yangon-Pyay Main Road	ရန်ကုန်-ပြည်လမ်းမကြီး	Htauk Kyant	ထောက်ကြန့်	17.109047	96.073097
41	199	1690	Supplies	ဆပ်ပလိုင်း	Yangon-Pyay Main Road	ရန်ကုန်-ပြည်လမ်းမကြီး	Htauk Kyant	ထောက်ကြန့်	17.106729	96.060115
41	200	1692	Sae-Chauk Gate	(၁၆) ဂိတ်	Yangon-Pyay Main Road	ရန်ကုန်-ပြည်လမ်းမကြီး	Htauk Kyant	ထောက်ကြန့်	17.106811	96.053828
41	201	1694	Yone Pauk	ရုံးပေါက်	Yangon-Pyay Main Road	ရန်ကုန်-ပြည်လမ်းမကြီး	Htauk Kyant	ထောက်ကြန့်	17.106256404915268	96.05255333706738
41	202	1696	A Hmat Lay	အမှတ် (၄)	Yangon-Pyay Main Road	ရန်ကုန်-ပြည်လမ်းမကြီး	Hmaw Bi	မှော်ဘီ	17.10382141656633	96.04968136176467
41	203	1698	Yoke Shin Yon	ရုပ်ရှင်ရုံ	Yangon-Pyay Main Road	ရန်ကုန်-ပြည်လမ်းမကြီး	Hmaw Bi	မှော်ဘီ	17.101048	96.046041
41	204	1700	Hmaw Bi Zay	မှော်ဘီဈေး	Yangon-Pyay Main Road	ရန်ကုန်-ပြည်လမ်းမကြီး	Hmaw Bi	မှော်ဘီ	17.100932775711676	96.04267161805183
41	205	1702	Hmaw Bi Kar Lay Gate	မှော်ဘီကားလေးဂိတ်	Yangon-Pyay Main Road	ရန်ကုန်-ပြည်လမ်းမကြီး	Hmaw Bi	မှော်ဘီ	17.10060881750042	96.04002813342959
41	206	1704	Thayet Taw Pauk	သရက်တောပေါက်	Yangon-Pyay Main Road	ရန်ကုန်-ပြည်လမ်းမကြီး	Hmaw Bi	မှော်ဘီ	17.09916200423804	96.03885521180929
41	207	1706	Mee Sat (Hmaw Bi)	မီးစက် (မှော်ဘီ)	Yangon-Pyay Main Road	ရန်ကုန်-ပြည်လမ်းမကြီး	Hmaw Bi	မှော်ဘီ	17.098238	96.037885
41	208	1708	Htan Ta Pin Tar Sone	ထန်းတပင်တာဆုံ	Yangon-Pyay Main Road	ရန်ကုန်-ပြည်လမ်းမကြီး	Hmaw Bi	မှော်ဘီ	17.097623	96.036147
41	209	1710	Su Paung Yone	စုပေါင်းရုံး	Yangon-Pyay Main Road	ရန်ကုန်-ပြည်လမ်းမကြီး	Hmaw Bi	မှော်ဘီ	17.105642	96.018784
41	210	1713	U Thu Mingala	ဦးသုမင်္ဂလ	Yangon-Pyay Main Road	ရန်ကုန်-ပြည်လမ်းမကြီး	Hmaw Bi	မှော်ဘီ	17.109539	96.015394
41	211	1715	Daung Lay Kwae	ဒေါင်းလေးကွေ့	Yangon-Pyay Main Road	ရန်ကုန်-ပြည်လမ်းမကြီး	Hmaw Bi	မှော်ဘီ	17.115322	96.01033
41	212	1717	Own Chan	အုန်းခြံ	Yangon-Pyay Main Road	ရန်ကုန်-ပြည်လမ်းမကြီး	Hmaw Bi	မှော်ဘီ	17.120695	96.008012
41	213	1719	G.T.C Site Thit	ဂျီတီစီဆိုက်သစ်	Yangon-Pyay Main Road	ရန်ကုန်-ပြည်လမ်းမကြီး	Hmaw Bi	မှော်ဘီ	17.124304	96.006424
41	214	1721	G.T.C Yae Oh	ဂျီတီစီရေအိုး	Yangon-Pyay Main Road	ရန်ကုန်-ပြည်လမ်းမကြီး	Hmaw Bi	မှော်ဘီ	17.127175	96.005266
41	215	1723	G.T.C Alal Pauk	ဂျီတီစီအလယ်ပေါက်	Yangon-Pyay Main Road	ရန်ကုန်-ပြည်လမ်းမကြီး	Hmaw Bi	မှော်ဘီ	17.129102	96.00445
41	216	1724	Aung Chan Thar	အောင်ချမ်းသာ	Yangon-Pyay Main Road	ရန်ကုန်-ပြည်လမ်းမကြီး	Hmaw Bi	မှော်ဘီ	17.131112	96.003549
41	217	1727	Oak Set	အုတ်စက်	Yangon-Pyay Main Road	ရန်ကုန်-ပြည်လမ်းမကြီး	Hmaw Bi	မှော်ဘီ	17.133655	96.00239
41	218	1729	Myo Chaung	မြို့ချောင်း	Yangon-Pyay Main Road	ရန်ကုန်-ပြည်လမ်းမကြီး	Hmaw Bi	မှော်ဘီ	17.137018	96.00106
41	219	1731	Lan Ni Lay	လမ်းနီလေး	Yangon-Pyay Main Road	ရန်ကုန်-ပြည်လမ်းမကြီး	Hmaw Bi	မှော်ဘီ	17.138494	96.000416
41	220	1734	Japan Site	ဂျပန်ဆိုက်	Yangon-Pyay Main Road	ရန်ကုန်-ပြည်လမ်းမကြီး	Hmaw Bi	မှော်ဘီ	17.140705952006762	95.99953004624696
41	221	1736	Equator	အီကွေတာ	Yangon-Pyay Main Road	ရန်ကုန်-ပြည်လမ်းမကြီး	Hmaw Bi	မှော်ဘီ	17.142266718368305	95.99909703712912
