svc_name	sequence	stop_id	name_en	name_mm	road_en	road_mm	township_en	township_mm	lat	lng
14	1	1248	Nyaung Pin	ညောင်ပင်	Parami Road	ပါရမီလမ်း	Mayangone	မရမ်းကုန်း	16.853851007207716	96.16816387977454
14	2	2125	Kaytu Marlar Kwae	ကေတုမာလာကွေ့	Parami Road	ပါရမီလမ်း	South Okkalapa	တောင်ဥက္ကလာပ	16.856129688374033	96.1720715649426
14	3	1081	Pinya	ပင်းယ	Parami Road	ပါရမီလမ်း	South Okkalapa	တောင်ဥက္ကလာပ	16.85943	96.176149
14	4	2124	Bay Li	ဘေလီ	Thanthumar Road	သံသုမာလမ်း	South Okkalapa	တောင်ဥက္ကလာပ	16.859959	96.178682
14	5	1078	Myin Thar Zay	မြင်သာဈေး	Thanthumar Road	သံသုမာလမ်း	South Okkalapa	တောင်ဥက္ကလာပ	16.85676082108605	96.18179788347335
14	6	2128	Thanat Pyit Kwin	သေနတ်ပစ်ကွင်း	Thanthumar Road	သံသုမာလမ်း	South Okkalapa	တောင်ဥက္ကလာပ	16.85446	96.183724
14	7	1082	Taung Okkalar Paya	တောင်ဥက္ကလာပဘုရား	Thanthumar Road	သံသုမာလမ်း	South Okkalapa	တောင်ဥက္ကလာပ	16.852719277159586	96.18528316263111
14	8	2146	Kyaetamar	ကျေးတမာ	Thanthumar Road	သံသုမာလမ်း	South Okkalapa	တောင်ဥက္ကလာပ	16.85099840559265	96.1875297012739
14	9	1086	Moe Swe	မိုးစွေ	Thanthumar Road	သံသုမာလမ်း	South Okkalapa	တောင်ဥက္ကလာပ	16.850043765153913	96.18949697585776
14	10	2126	Thone-sae-tit Gate/ Tit Gate	(၃၁) ဂိတ်/(၁) ဂိတ်	Thanthumar Road	သံသုမာလမ်း	South Okkalapa	တောင်ဥက္ကလာပ	16.84888036518613	96.1940199136734
14	11	1089	Se Man Kane	စီမံကိန်း	Thanthumar Road	သံသုမာလမ်း	South Okkalapa	တောင်ဥက္ကလာပ	16.84743423762148	96.19840957922862
14	12	2403	Lai Sin Yone	လိုင်စင်ရုံး	Thanthumar Road	သံသုမာလမ်း	Thingangyun	သင်္ဃန်းကျွန်း	16.8462149068633	96.2004411220551
14	13	594	Daywadaha	ဒေဝဒဟ	Yadanar Road	ရတနာလမ်း	Thingangyun	သင်္ဃန်းကျွန်း	16.844243	96.198775
14	14	600	Bawa Myint	ဘဝမြင့်	Yadanar Road	ရတနာလမ်း	Thingangyun	သင်္ဃန်းကျွန်း	16.842046163467096	96.19653980713338
14	15	596	Ar Nandar Paya	အာနန္ဒာဘုရား	Yadanar Road	ရတနာလမ်း	Thingangyun	သင်္ဃန်းကျွန်း	16.840692221664213	96.19498942745851
14	16	606	Gate Haung	ဂိတ်ဟောင်း	Yadanar Road	ရတနာလမ်း	South Okkalapa	တောင်ဥက္ကလာပ	16.839107162036793	96.1929774354212
14	17	612	Kyaikkasan Paya	ကျိုက္ကစံဘုရား	Yadanar Road	ရတနာလမ်း	Thingangyun	သင်္ဃန်းကျွန်း	16.838743682092584	96.19168509263547
14	18	10	(Sae-Lay/ Sae-Ngar) Lan Sone	(၁၄/၁၅) လမ်းဆုံ	Yadanar Road	ရတနာလမ်း	Thingangyun	သင်္ဃန်းကျွန်း	16.837107101137917	96.18616104125977
14	19	1071	Yadanar Zay	ရတနာဈေး	Yadanar Road	ရတနာလမ်း	Thingangyun	သင်္ဃန်းကျွန်း	16.835962	96.183033
14	20	1056	Kalar Paya	ကုလားဘုရား	Yadanar Road	ရတနာလမ်း	Thingangyun	သင်္ဃန်းကျွန်း	16.834883	96.180404
14	21	1060	Sae-Chauk Kwae	(၁၆) ကွေ့	Yadanar Road	ရတနာလမ်း	Thingangyun	သင်္ဃန်းကျွန်း	16.833882	96.176488
14	22	1050	Than Lan	သံလမ်း	Yadanar Road	ရတနာလမ်း	Yankin	ရန်ကင်း	16.83370371459609	96.17289694842387
14	23	1041	Kyauk Kone	ကျောက်ကုန်း	Moe Kaung Road	မိုးကောင်းလမ်း	Yankin	ရန်ကင်း	16.831231329662653	96.16970203594975
14	24	337	Hmat Tan Yone	မှတ်တမ်းရုံး	Moe Kaung Road	မိုးကောင်းလမ်း	Yankin	ရန်ကင်း	16.827556	96.170742
14	25	334	Awine Lay	အဝိုင်းလေး	Moe Kaung Road	မိုးကောင်းလမ်း	Yankin	ရန်ကင်း	16.825246	96.171418
14	26	341	Kyar Hmat Taing	ကြားမှတ်တိုင်	Yankin Road	ရန်ကင်းလမ်း	Yankin	ရန်ကင်း	16.829251	96.163823
14	27	331	Yankin Zay	ရန်ကင်းဈေး	Yanshin Street	ရန်ရှင်းလမ်းသွယ်	Yankin	ရန်ကင်း	16.82892	96.159207
14	28	326	Set Hmu Tit	စက်မှု (၁)	No. 1 Industrial Road	အမှတ်(၁)စက်မှုဇုန်လမ်း	Yankin	ရန်ကင်း	16.827675	96.15721
14	29	2424	Set Hmu Tit/Myanmar Plaza	စက်မှု (၁)/မြန်မာပလာဇာ	Kabar Aye Pagoda Road	ကမ္ဘာအေးဘုရားလမ်း	Bahan	ဗဟန်း	16.8270325276271	96.1542052030563
14	30	2323	Koke Kine	ကုက္ကိုင်း	University Avenue Road	တက္ကသိုလ်ရိပ်သာလမ်း	Bahan	ဗဟန်း	16.823558610330995	96.15304296836257
14	31	2325	Inya Myaing	အင်ယာမြိုင်	University Avenue Road	တက္ကသိုလ်ရိပ်သာလမ်း	Bahan	ဗဟန်း	16.8248228559485	96.1472372012213
14	32	2327	Thanlwin	သံလွင်	University Avenue Road	တက္ကသိုလ်ရိပ်သာလမ်း	Bahan	ဗဟန်း	16.824228	96.145139
14	33	2335	UFL	ယူအပ်ဖ်အယ်	University Avenue Road	တက္ကသိုလ်ရိပ်သာလမ်း	Bahan	ဗဟန်း	16.825153	96.142351
14	34	2331	Kyuanlan	ကျောင်းလမ်း	University Avenue Road	တက္ကသိုလ်ရိပ်သာလမ်း	Kamayut	ကမာရွတ်	16.825918	96.13846
14	35	318	Kyaung Shae/ Dhamar Yon	ကျောင်းရှေ့/ဓမ္မာရုံ	University Avenue Road	တက္ကသိုလ်ရိပ်သာလမ်း	Kamayut	ကမာရွတ်	16.826485	96.132192
14	36	290	Hledan Zay	လှည်းတန်းဈေး	Hledan Road	လှည်းတန်းလမ်း	Kamayut	ကမာရွတ်	16.826593902284788	96.12880632519592
14	37	295	Kyaung Shae/ Kone Sin	ကျောင်းရှေ့/ကုန်းဆင်း	Hledan Road	လှည်းတန်းလမ်း	Kamayut	ကမာရွတ်	16.825525	96.126583
14	38	302	Sinmalite	ဆင်မလိုက်	Kyee Myin Daing Kannar Road	ကြည့်မြင်တိုင်ကမ်းနားလမ်း	Kyee Myin Daing	ကြည့်မြင်တိုင်	16.81968916689901	96.12181771779436
14	39	278	Nat Sin Lan	နတ်စင်လမ်း	Kyee Myin Daing Kannar Road	ကြည့်မြင်တိုင်ကမ်းနားလမ်း	Kyee Myin Daing	ကြည့်မြင်တိုင်	16.81470006967928	96.12178073264658
14	40	292	Kannar Zay	ကမ်းနားဈေး	Kyee Myin Daing Kannar Road	ကြည့်မြင်တိုင်ကမ်းနားလမ်း	Kyee Myin Daing	ကြည့်မြင်တိုင်	16.81251231920376	96.12181011121723
14	41	259	Kyee Myin Daing Nya Zay	ကြည့်မြင်တိုင်ညဈေး	Kyee Myin Daing Kannar Road	ကြည့်မြင်တိုင်ကမ်းနားလမ်း	Kyee Myin Daing	ကြည့်မြင်တိုင်	16.809123167748957	96.12182549200953
14	42	252	Sar Taik	စာတိုက်	Kyee Myin Daing Kannar Road	ကြည့်မြင်တိုင်ကမ်းနားလမ်း	Kyee Myin Daing	ကြည့်မြင်တိုင်	16.80417773402748	96.12214895317268
14	43	242	Thal Kwin	သဲကွင်း	Kyee Myin Daing Kannar Road	ကြည့်မြင်တိုင်ကမ်းနားလမ်း	Kyee Myin Daing	ကြည့်မြင်တိုင်	16.80093324235627	96.12209948942565
14	44	240	Home Lan	ဟုမ်းလမ်း	Kyee Myin Daing Kannar Road	ကြည့်မြင်တိုင်ကမ်းနားလမ်း	Kyee Myin Daing	ကြည့်မြင်တိုင်	16.797407638738495	96.12237939960325
14	45	91	Thiri Mingalar Zay	သီရိမင်္ဂလာဈေး	Kyee Myin Daing Kannar Road	ကြည့်မြင်တိုင်ကမ်းနားလမ်း	Ahlone	အလုံ	16.793428	96.122795
14	46	88	Kwin Kyaung	ကွင်းကျောင်း	Kyee Myin Daing Kannar Road	ကြည့်မြင်တိုင်ကမ်းနားလမ်း	Ahlone	အလုံ	16.791815	96.122913
14	47	90	Sin Min Zay	ဆင်မင်းဈေး	Kyee Myin Daing Kannar Road	ကြည့်မြင်တိုင်ကမ်းနားလမ်း	Ahlone	အလုံ	16.789089342355922	96.12395543150343
14	48	103	Thit Taw	သစ်တော	Kyee Myin Daing Kannar Road	ကြည့်မြင်တိုင်ကမ်းနားလမ်း	Ahlone	အလုံ	16.782208533496107	96.12772663112992
14	49	102	Htaw Li Kwae	ထော်လီကွေ့	Kyee Myin Daing Kannar Road	ကြည့်မြင်တိုင်ကမ်းနားလမ်း	Ahlone	အလုံ	16.781329094605752	96.13000275101513
14	50	114	Thakhin Mya Pan Chan	သခင်မြပန်းခြံ	Kyee Myin Daing Kannar Road	ကြည့်မြင်တိုင်ကမ်းနားလမ်း	Ahlone	အလုံ	16.77828194398644	96.13544789397567
14	51	101	Htaw Li Kwae	ထော်လီကွေ့	Kyee Myin Daing Kannar Road	ကြည့်မြင်တိုင်ကမ်းနားလမ်း	Ahlone	အလုံ	16.78144456699472	96.13020934397356
14	52	104	Thit Taw	သစ်တော	Kyee Myin Daing Kannar Road	ကြည့်မြင်တိုင်ကမ်းနားလမ်း	Ahlone	အလုံ	16.782335032700068	96.12792007857935
14	53	89	Sin Min Zay	ဆင်မင်းဈေး	Kyee Myin Daing Kannar Road	ကြည့်မြင်တိုင်ကမ်းနားလမ်း	Ahlone	အလုံ	16.788381214980394	96.12434903847318
14	54	87	Kwin Kyaung	ကွင်းကျောင်း	Kyee Myin Daing Kannar Road	ကြည့်မြင်တိုင်ကမ်းနားလမ်း	Ahlone	အလုံ	16.791499113712398	96.12318266881633
14	55	92	Thiri Mingalar Zay	သီရိမင်္ဂလာဈေး	Kyee Myin Daing Kannar Road	ကြည့်မြင်တိုင်ကမ်းနားလမ်း	Ahlone	အလုံ	16.793387246927256	96.12304329872131
14	56	241	Home Lan	ဟုမ်းလမ်း	Kyee Myin Daing Kannar Road	ကြည့်မြင်တိုင်ကမ်းနားလမ်း	Kyee Myin Daing	ကြည့်မြင်တိုင်	16.79766915959169	96.12243203091568
14	57	243	Thal Kwin	သဲကွင်း	Kyee Myin Daing Kannar Road	ကြည့်မြင်တိုင်ကမ်းနားလမ်း	Kyee Myin Daing	ကြည့်မြင်တိုင်	16.80093620461995	96.12225324844077
14	58	253	Sar Taik	စာတိုက်	Kyee Myin Daing Kannar Road	ကြည့်မြင်တိုင်ကမ်းနားလမ်း	Kyee Myin Daing	ကြည့်မြင်တိုင်	16.80426559990839	96.12227894601347
14	59	258	Kyee Myin Daing Nya Zay	ကြည့်မြင်တိုင်ညဈေး	Kyee Myin Daing Kannar Road	ကြည့်မြင်တိုင်ကမ်းနားလမ်း	Kyee Myin Daing	ကြည့်မြင်တိုင်	16.80935599745288	96.12198447575794
14	60	291	Kannar Zay	ကမ်းနားဈေး	Kyee Myin Daing Kannar Road	ကြည့်မြင်တိုင်ကမ်းနားလမ်း	Kyee Myin Daing	ကြည့်မြင်တိုင်	16.812434	96.121964
14	61	277	Nat Sin Lan	နတ်စင်လမ်း	Kyee Myin Daing Kannar Road	ကြည့်မြင်တိုင်ကမ်းနားလမ်း	Kyee Myin Daing	ကြည့်မြင်တိုင်	16.81453683073846	96.1219596862793
14	62	301	Sinmalite	ဆင်မလိုက်	Kyee Myin Daing Kannar Road	ကြည့်မြင်တိုင်ကမ်းနားလမ်း	Kyee Myin Daing	ကြည့်မြင်တိုင်	16.81928919676379	96.12197063186613
14	63	296	Kyaung Shae/ Kone Sin	ကျောင်းရှေ့/ကုန်းဆင်း	Hledan Road	လှည်းတန်းလမ်း	Kamayut	ကမာရွတ်	16.82535746158587	96.12666466528029
14	64	289	Hledan Zay	လှည်းတန်းဈေး	Hledan Road	လှည်းတန်းလမ်း	Kamayut	ကမာရွတ်	16.826457	96.128887
14	65	2194	Kyaung Shae/ Dhamar Yon	ကျောင်းရှေ့/ဓမ္မာရုံ	University Avenue Road	တက္ကသိုလ်ရိပ်သာလမ်း	Kamayut	ကမာရွတ်	16.826185736571823	96.13278248347343
14	66	2333	Kyuanlan	ကျောင်းလမ်း	University Avenue Road	တက္ကသိုလ်ရိပ်သာလမ်း	Kamayut	ကမာရွတ်	16.825767	96.138751
14	67	2329	UFL	ယူအပ်ဖ်အယ်	University Avenue Road	တက္ကသိုလ်ရိပ်သာလမ်း	Bahan	ဗဟန်း	16.825133	96.142044
14	68	2337	Thanlwin	သံလွင်	University Avenue Road	တက္ကသိုလ်ရိပ်သာလမ်း	Bahan	ဗဟန်း	16.82406009744107	96.14524126052858
14	69	2339	Inya Myaing	အင်ယာမြိုင်	University Avenue Road	တက္ကသိုလ်ရိပ်သာလမ်း	Bahan	ဗဟန်း	16.824615418351883	96.14719382487239
14	70	2341	Koke Kine	ကုက္ကိုင်း	University Avenue Road	တက္ကသိုလ်ရိပ်သာလမ်း	Bahan	ဗဟန်း	16.823771625176313	96.1522226314992
14	71	325	Set Hmu Tit/Myanmar Plaza	စက်မှု (၁)/မြန်မာပလာဇာ	Kabar Aye Pagoda Road	ကမ္ဘာအေးဘုရားလမ်း	Bahan	ဗဟန်း	16.826940744308455	96.15445330739023
14	72	327	Set Hmu Tit	စက်မှု (၁)	No. 1 Industrial Road	အမှတ်(၁)စက်မှုဇုန်လမ်း	Yankin	ရန်ကင်း	16.82753579739672	96.15732398349795
14	73	330	Yankin Zay	ရန်ကင်းဈေး	Yanshin Street	ရန်ရှင်းလမ်းသွယ်	Yankin	ရန်ကင်း	16.828822052765155	96.15921364165843
14	74	340	Kyar Hmat Taing	ကြားမှတ်တိုင်	Yankin Road	ရန်ကင်းလမ်း	Yankin	ရန်ကင်း	16.8290172507859	96.16373777389528
14	75	335	Awine Lay	အဝိုင်းလေး	Moe Kaung Road	မိုးကောင်းလမ်း	Yankin	ရန်ကင်း	16.825667	96.171504
14	76	336	Hmat Tan Yone	မှတ်တမ်းရုံး	Moe Kaung Road	မိုးကောင်းလမ်း	Yankin	ရန်ကင်း	16.82733	96.171032
14	77	1042	Kyauk Kone	ကျောက်ကုန်း	Moe Kaung Road	မိုးကောင်းလမ်း	Yankin	ရန်ကင်း	16.831338604999342	96.1698322556913
14	78	1049	Than Lan	သံလမ်း	Yadanar Road	ရတနာလမ်း	Yankin	ရန်ကင်း	16.833596995452847	96.1729488882702
14	79	1059	Sae-Chauk Kwae	(၁၆) ကွေ့	Yadanar Road	ရတနာလမ်း	Thingangyun	သင်္ဃန်းကျွန်း	16.833764	96.176424
14	80	1055	Kalar Paya	ကုလားဘုရား	Yadanar Road	ရတနာလမ်း	Thingangyun	သင်္ဃန်းကျွန်း	16.834791	96.180452
14	81	1070	Yadanar Zay	ရတနာဈေး	Yadanar Road	ရတနာလမ်း	Thingangyun	သင်္ဃန်းကျွန်း	16.835869	96.18307
14	82	12	(Sae-Lay/ Sae-Ngar) Lan Sone	(၁၄/၁၅) လမ်းဆုံ	Thu Mingalar Road	သုမင်္ဂလာလမ်း	South Okkalapa	တောင်ဥက္ကလာပ	16.836957339405043	96.18565733078869
14	83	11	(Sae-Lay/ Sae-Ngar) Lan Sone	(၁၄/၁၅) လမ်းဆုံ	Yadanar Road	ရတနာလမ်း	Thingangyun	သင်္ဃန်းကျွန်း	16.836842495922827	96.18587595177816
14	84	13	(Sae-Lay/ Sae-Ngar) Lan Sone	(၁၄/၁၅) လမ်းဆုံ	Thu Mingalar Road	သုမင်္ဂလာလမ်း	South Okkalapa	တောင်ဥက္ကလာပ	16.83699628909975	96.1858079954982
14	85	611	Kyaikkasan Paya	ကျိုက္ကစံဘုရား	Yadanar Road	ရတနာလမ်း	Thingangyun	သင်္ဃန်းကျွန်း	16.837686511660152	96.18816041853279
14	86	605	Gate Haung	ဂိတ်ဟောင်း	Yadanar Road	ရတနာလမ်း	South Okkalapa	တောင်ဥက္ကလာပ	16.838916146122667	96.19297112803909
14	87	595	Ar Nandar Paya	အာနန္ဒာဘုရား	Yadanar Road	ရတနာလမ်း	Thingangyun	သင်္ဃန်းကျွန်း	16.840423	96.194977
14	88	599	Bawa Myint	ဘဝမြင့်	Yadanar Road	ရတနာလမ်း	Thingangyun	သင်္ဃန်းကျွန်း	16.841705399044663	96.19640950357281
14	89	593	Daywadaha	ဒေဝဒဟ	Yadanar Road	ရတနာလမ်း	Thingangyun	သင်္ဃန်းကျွန်း	16.843956	96.198989
14	90	614	Lai Sin Yone	လိုင်စင်ရုံး	Thanthumar Road	သံသုမာလမ်း	Thingangyun	သင်္ဃန်းကျွန်း	16.845867625393243	96.20077338069677
14	91	1090	Se Man Kane	စီမံကိန်း	Thanthumar Road	သံသုမာလမ်း	South Okkalapa	တောင်ဥက္ကလာပ	16.84748429583662	96.19847623631361
14	92	1088	Thone-sae-tit Gate/ Tit Gate	(၃၁) ဂိတ်/(၁) ဂိတ်	Thanthumar Road	သံသုမာလမ်း	South Okkalapa	တောင်ဥက္ကလာပ	16.84893896654162	96.19427426252517
14	93	1087	Moe Swe	မိုးစွေ	Thanthumar Road	သံသုမာလမ်း	South Okkalapa	တောင်ဥက္ကလာပ	16.850142356003158	96.18960512336345
14	94	2129	Kyaetamar	ကျေးတမာ	Thanthumar Road	သံသုမာလမ်း	South Okkalapa	တောင်ဥက္ကလာပ	16.851082075031954	96.18764438666405
14	95	1083	Taung Okkalar Paya	တောင်ဥက္ကလာပဘုရား	Thanthumar Road	သံသုမာလမ်း	South Okkalapa	တောင်ဥက္ကလာပ	16.8528135748857	96.18543030694127
14	96	2127	Thanat Pyit Kwin	သေနတ်ပစ်ကွင်း	Thanthumar Road	သံသုမာလမ်း	South Okkalapa	တောင်ဥက္ကလာပ	16.854523480112608	96.18384222965688
14	97	1079	Myin Thar Zay	မြင်သာဈေး	Thanthumar Road	သံသုမာလမ်း	South Okkalapa	တောင်ဥက္ကလာပ	16.85684434759549	96.1818828759715
14	98	1075	Bay Li	ဘေလီ	Thanthumar Road	သံသုမာလမ်း	South Okkalapa	တောင်ဥက္ကလာပ	16.85981610253591	96.17896331241356
14	99	2352	Pinya	ပင်းယ	Parami Road	ပါရမီလမ်း	South Okkalapa	တောင်ဥက္ကလာပ	16.85950512390363	96.17608593078333
14	100	1247	Kaytu Marlar Kwae	ကေတုမာလာကွေ့	Parami Road	ပါရမီလမ်း	South Okkalapa	တောင်ဥက္ကလာပ	16.856264313885067	96.17213245946915
14	101	1249	Nyaung Pin	ညောင်ပင်	Parami Road	ပါရမီလမ်း	Mayangone	မရမ်းကုန်း	16.854191214781956	96.16845406126232
