svc_name	sequence	stop_id	name_en	name_mm	road_en	road_mm	township_en	township_mm	lat	lng
96	1	1601	Tar Sone	တာဆုံ	No. 4 Main Road	အမှတ်(၄)လမ်းမ	Shwe Pyithar	ရွှေပြည်သာ	17.005483360212537	96.08344220090657
96	2	1596	Kwet Thit	ကွက်သစ်	No. 4 Main Road	အမှတ်(၄)လမ်းမ	Shwe Pyithar	ရွှေပြည်သာ	17.003676094867924	96.08468389604242
96	3	1600	Padonmar	ပဒုမ္မာ	No. 4 Main Road	အမှတ်(၄)လမ်းမ	Shwe Pyithar	ရွှေပြည်သာ	17.001617062783314	96.08615349512549
96	4	1594	Computer	ကွန်ပျူတာ	No. 4 Main Road	အမှတ်(၄)လမ်းမ	Shwe Pyithar	ရွှေပြည်သာ	16.998733834786997	96.0884768748656
96	5	68	Nwar Chan	နွားခြံ	No. 4 Main Road	အမှတ်(၄)လမ်းမ	Shwe Pyithar	ရွှေပြည်သာ	16.994694916471154	96.09105066396297
96	6	1493	Thabarwa	သဘာဝ	No. 4 Main Road	အမှတ်(၄)လမ်းမ	Shwe Pyithar	ရွှေပြည်သာ	16.988871	96.092581
96	7	1496	Thardukan	သာဓုကန်	No. 4 Main Road	အမှတ်(၄)လမ်းမ	Shwe Pyithar	ရွှေပြည်သာ	16.98379324224211	96.09319077339023
96	8	1491	Ponnya	ပုည	No. 4 Main Road	အမှတ်(၄)လမ်းမ	Shwe Pyithar	ရွှေပြည်သာ	16.97908187590623	96.09351490158589
96	9	1489	Oak Pho	အုတ်ဖို	No. 4 Main Road	အမှတ်(၄)လမ်းမ	Shwe Pyithar	ရွှေပြည်သာ	16.974234226742837	96.09422648325565
96	10	1495	Than Phyu	သံဖြူ	No. 4 Main Road	အမှတ်(၄)လမ်းမ	Shwe Pyithar	ရွှေပြည်သာ	16.972031450019877	96.0945617593825
96	11	1499	Ye Chauk	ရဲ (၆)	No. 4 Main Road	အမှတ်(၄)လမ်းမ	Shwe Pyithar	ရွှေပြည်သာ	16.968733249216562	96.09524251660332
96	12	72	Gate Haung	ဂိတ်ဟောင်း	No. 4 Main Road	အမှတ်(၄)လမ်းမ	Shwe Pyithar	ရွှေပြည်သာ	16.964731405762105	96.09605692327023
96	13	1517	Shwe Pyi Thar Kwae	ရွှေပြည်သာကွေ့	No. 4 Main Road/ Bogyoke Aung San Road	အမှတ်(၄)လမ်းမ/ဗိုလ်ချုပ်အောင်ဆန်းလမ်း	Shwe Pyithar	ရွှေပြည်သာ	16.961429849782906	96.09672259306538
96	14	1518	Sit Tat	စစ်တပ်	No. 4 Main Road	အမှတ်(၄)လမ်းမ	Shwe Pyithar	ရွှေပြည်သာ	16.958026253880583	96.09734735917301
96	15	1509	Kyaung Lan	ကျောင်းလမ်း	No. 4 Main Road	အမှတ်(၄)လမ်းမ	Shwe Pyithar	ရွှေပြည်သာ	16.951929487848194	96.0998342279345
96	16	1506	Kan Tharyar	ကန်သာယာ	No. 4 Main Road	အမှတ်(၄)လမ်းမ	Shwe Pyithar	ရွှေပြည်သာ	16.950086889460792	96.10064140520991
96	17	1511	Myin Hlae Gate	မြင်းလှည်းဂိတ်	No. 4 Main Road	အမှတ်(၄)လမ်းမ	Shwe Pyithar	ရွှေပြည်သာ	16.944725	96.102603
96	18	1513	Phone Gyi Kyaung	ဘုန်းကြီးကျောင်း	No. 4 Main Road	အမှတ်(၄)လမ်းမ	Shwe Pyithar	ရွှေပြည်သာ	16.942929	96.102614
96	19	1515	Sauk Lote Yae	ဆောက်လုပ်ရေး	No. 4 Main Road	အမှတ်(၄)လမ်းမ	Shwe Pyithar	ရွှေပြည်သာ	16.94143	96.102625
96	20	74	Danyin Gone Lan Sone	ဒညင်းကုန်းလမ်းဆုံ	Khayae Pin Road	ခရေပင်လမ်း	Insein	အင်းစိန်	16.933879176036193	96.10325703735728
96	21	1392	Yae Set	ရေစက်	Khayae Pin Road	ခရေပင်လမ်း	Insein	အင်းစိန်	16.932286	96.108536
96	22	1385	Asar Set	အစာစက်	Khayae Pin Road	ခရေပင်လမ်း	Insein	အင်းစိန်	16.932265	96.111935
96	23	1387	Chauk Lay Chauk	၆၄၆	Khayae Pin Road	ခရေပင်လမ်း	Mingalardon	မင်္ဂလာဒုံ	16.930992	96.114231
96	24	1389	Pan Chan	ပန်းခြံ	Khayae Pin Road	ခရေပင်လမ်း	Mingalardon	မင်္ဂလာဒုံ	16.929905	96.116613
96	25	48	Tayar-Chauk	၁၀၆	Khayae Pin Road	ခရေပင်လမ်း	Mingalardon	မင်္ဂလာဒုံ	16.928334	96.120741
96	26	1398	Khayae Pin Lan Khawe	ခရေပင်လမ်းခွဲ	No. 1 Main Road	အမှတ်(၁)လမ်းမ	Mingalardon	မင်္ဂလာဒုံ	16.92723344884106	96.13146262709053
96	27	1062	Sar Taik	စာတိုက်	No. 1 Main Road	အမှတ်(၁)လမ်းမ	Mingalardon	မင်္ဂလာဒုံ	16.923187459952388	96.1333077773452
96	28	1400	Say Kyaung	ဆေးကျောင်း	No. 1 Main Road	အမှတ်(၁)လမ်းမ	Mingalardon	မင်္ဂလာဒုံ	16.92033380801368	96.13393118826936
96	29	1393	B.O.C	ဘီအိုစီ	No. 1 Main Road	အမှတ်(၁)လမ်းမ	Mingalardon	မင်္ဂလာဒုံ	16.915950755971124	96.13451996818186
96	30	1374	Pan Chan Kone	ပန်းခြံကုန်း	No. 1 Main Road	အမှတ်(၁)လမ်းမ	Mingalardon	မင်္ဂလာဒုံ	16.9111	96.131848
96	31	1372	Kalar Paya	ကုလားဘုရား	No. 1 Main Road	အမှတ်(၁)လမ်းမ	Mingalardon	မင်္ဂလာဒုံ	16.905906	96.128758
96	32	46	Htan Pin Kone	ထန်းပင်ကုန်း	No. 1 Main Road	အမှတ်(၁)လမ်းမ	Mingalardon	မင်္ဂလာဒုံ	16.900289331115886	96.1241097492166
96	33	1297	Saw Bwar Gyi Kone Lan Sone	စော်ဘွားကြီးကုန်းလမ်းဆုံ	Pyay Road	ပြည်လမ်း	Insein	အင်းစိန်	16.89204873725979	96.1198139190674
96	34	1294	A Way Pyay	အဝေးပြေး	Pyay Road	ပြည်လမ်း	Insein	အင်းစိန်	16.888535030003954	96.12289267592132
96	35	39	Sae-Mile Kone	(၁၀) မိုင်ကုန်း	Pyay Road	ပြည်လမ်း	Insein	အင်းစိန်	16.888832606891466	96.1299168993719
96	36	1301	Koe Mile Khawe	(၉) မိုင်ခွဲ	Pyay Road	ပြည်လမ်း	Mayangone	မရမ်းကုန်း	16.884384	96.135772
96	37	1299	Koe Mile	(၉) မိုင်	Pyay Road	ပြည်လမ်း	Mayangone	မရမ်းကုန်း	16.88177976207406	96.13486798480155
96	38	1258	A One	အေဝမ်း	Pyay Road	ပြည်လမ်း	Mayangone	မရမ်းကုန်း	16.875519	96.138371
96	39	1260	Mahar Si	မဟာစည်	Pyay Road	ပြည်လမ်း	Mayangone	မရမ်းကုန်း	16.872313663035687	96.13967798184603
96	40	1269	Shit Mile	(၈) မိုင်	Pyay Road	ပြည်လမ်း	Mayangone	မရမ်းကုန်း	16.867915966141403	96.14123360021041
96	41	1262	Myaing Hay Wun	မြိုင်ဟေဝန်ပန်းခြံ	Kabar Aye Pagoda Road	ကမ္ဘာအေးဘုရားလမ်း	Mayangone	မရမ်းကုန်း	16.866588278879597	96.14353745011616
96	42	1820	Nawaday	နဝဒေး	Kabar Aye Pagoda Road	ကမ္ဘာအေးဘုရားလမ်း	Mayangone	မရမ်းကုန်း	16.866678037634564	96.15251949755476
96	43	1818	Sar Taik	စာတိုက်	Kabar Aye Pagoda Road	ကမ္ဘာအေးဘုရားလမ်း	Mayangone	မရမ်းကုန်း	16.861586	96.155325
96	44	1239	Kabar Aye Paya/ Paya Lan	ကမ္ဘာအေးဘုရားလမ်း	Kabar Aye Pagoda Road	ကမ္ဘာအေးဘုရားလမ်း	Mayangone	မရမ်းကုန်း	16.858238763575493	96.15608746418731
96	45	1817	Chaw Twin Kone	ချော်တွင်းကုန်း	Kabar Aye Pagoda Road	ကမ္ဘာအေးဘုရားလမ်း	Mayangone	မရမ်းကုန်း	16.85072782334624	96.1577095091343
96	46	1815	Mit Zu Lan	မဉ္ဇူလမ်း	Parami Road	ပါရမီလမ်း	Mayangone	မရမ်းကုန်း	16.85072120518684	96.16200858727099
96	47	1248	Nyaung Pin	ညောင်ပင်	Parami Road	ပါရမီလမ်း	Mayangone	မရမ်းကုန်း	16.853851007207716	96.16816387977454
96	48	2125	Kaytu Marlar Kwae	ကေတုမာလာကွေ့	Parami Road	ပါရမီလမ်း	South Okkalapa	တောင်ဥက္ကလာပ	16.856129688374033	96.1720715649426
96	49	304	Ta Kaung	တကောင်း	Thu Mingalar Road	သုမင်္ဂလာလမ်း	South Okkalapa	တောင်ဥက္ကလာပ	16.85492188488732	96.17310744244607
96	50	16	Nandawun Zay	နန္ဒဝန်ဈေး	Thu Mingalar Road	သုမင်္ဂလာလမ်း	South Okkalapa	တောင်ဥက္ကလာပ	16.851780308296124	96.17582898354159
96	51	1076	Inwa	အင်းဝ	Thu Mingalar Road	သုမင်္ဂလာလမ်း	South Okkalapa	တောင်ဥက္ကလာပ	16.84950257748793	96.17750647477808
96	52	1067	Taung Okkalar Sar Taik	တောင်ဥက္ကလာစာတိုက်	Thu Mingalar Road	သုမင်္ဂလာလမ်း	South Okkalapa	တောင်ဥက္ကလာပ	16.846687	96.179389
96	53	2132	Yone Shae	ရုံးရှေ့	Thu Mingalar Road	သုမင်္ဂလာလမ်း	South Okkalapa	တောင်ဥက္ကလာပ	16.844449	96.181095
96	54	15	Padaythar	ပဒေသာ	Thu Mingalar Road	သုမင်္ဂလာလမ်း	South Okkalapa	တောင်ဥက္ကလာပ	16.84227260172592	96.18263882541216
96	55	12	(Sae-Lay/ Sae-Ngar) Lan Sone	(၁၄/၁၅) လမ်းဆုံ	Thu Mingalar Road	သုမင်္ဂလာလမ်း	South Okkalapa	တောင်ဥက္ကလာပ	16.836957339405043	96.18565733078869
96	56	1053	Aung Yadanar	အောင်ရတနာ	Thu Mingalar Road	သုမင်္ဂလာလမ်း	South Okkalapa	တောင်ဥက္ကလာပ	16.835243	96.186482
96	57	2131	Thayet Taw	သရက်တော	Thu Mingalar Road	သုမင်္ဂလာလမ်း	Thingangyun	သင်္ဃန်းကျွန်း	16.832547	96.187779
96	58	369	Zawana	ဇဝန	Thu Mingalar Road	သုမင်္ဂလာလမ်း	Thingangyun	သင်္ဃန်းကျွန်း	16.828347114200742	96.18792818038857
96	59	366	Zawana	ဇဝန	Lay Daung Kan Road	လေးထောင့်ကန်လမ်း	Thingangyun	သင်္ဃန်းကျွန်း	16.827762389884697	96.18795190133825
96	60	615	Paya Lan	ဘုရားလမ်း	Lay Daung Kan Road	လေးထောင့်ကန်လမ်း	Thingangyun	သင်္ဃန်းကျွန်း	16.830733889574624	96.1931522190571
96	61	601	B.O.C	ဘီအိုစီ	Lay Daung Kan Road	လေးထောင့်ကန်လမ်း	Thingangyun	သင်္ဃန်းကျွန်း	16.832662314235495	96.19507358176634
96	62	610	Kalar Su	ကုလားစု	Lay Daung Kan Road	လေးထောင့်ကန်လမ်း	Thingangyun	သင်္ဃန်းကျွန်း	16.834930861177277	96.19739677291366
96	63	598	Bawa Myint	ဘဝမြင့်	Lay Daung Kan Road	လေးထောင့်ကန်လမ်း	Thingangyun	သင်္ဃန်းကျွန်း	16.837140047336906	96.19967010581604
96	64	2161	Myittar Shwe Yi	မေတ္တာရွှေရည်	Lay Daung Kan Road	လေးထောင့်ကန်လမ်း	Thingangyun	သင်္ဃန်းကျွန်း	16.838646395702437	96.20123337233963
96	65	635	Sanpya Zay/ Nga Moe Yeik	စံပြဈေး/ ငမိုးရိပ်	Lay Daung Kan Road	လေးထောင့်ကန်လမ်း	Thingangyun	သင်္ဃန်းကျွန်း	16.84200212059943	96.20458014775069
96	66	630	Sanpya Zay Kwae	စံပြဈေးကွေ့	Thanthumar Road	သံသုမာလမ်း	Thingangyun	သင်္ဃန်းကျွန်း	16.83949687481868	96.20740019716325
96	67	626	Chan Aye/ Thwar Say	ချမ်းအေးသွားဆေး	Thanthumar Road	သံသုမာလမ်း	Thingangyun	သင်္ဃန်းကျွန်း	16.832865	96.20798
96	68	637	Waibula	ဝေဘူလ	Thanthumar Road	သံသုမာလမ်း	Thingangyun	သင်္ဃန်းကျွန်း	16.830512077460014	96.20798843912782
96	69	577	Aung Zay Ya	အောင်ဇေယျ	Kamarkyi Road	ကမာကြည်လမ်း	Thingangyun	သင်္ဃန်းကျွန်း	16.825081	96.209117
96	70	580	Bayint Naung	ဘုရင့်နောင်	Kamarkyi Road	ကမာကြည်လမ်း	Thingangyun	သင်္ဃန်းကျွန်း	16.822580183134985	96.21189562138171
96	71	587	Nyaung Pin	ညောင်ပင်	Kamarkyi Road	ကမာကြည်လမ်း	Thingangyun	သင်္ဃန်းကျွန်း	16.820932	96.213044
96	72	2163	Sagar Wah	စကားဝါ	Kamarkyi Road	ကမာကြည်လမ်း	Thingangyun	သင်္ဃန်းကျွန်း	16.819443	96.214001
96	73	2165	Sat Yon Shae	စက်ရုံရှေ့	Kamarkyi Road	ကမာကြည်လမ်း	Thingangyun	သင်္ဃန်းကျွန်း	16.817646	96.214762
96	74	539	Awine	အဝိုင်း	Shukinthar Road	ရှူ့ခင်းသာလမ်း	Thaketa	သာကေတ	16.80827599579392	96.21778252534571
96	75	536	Ta Sal Zay	(၁၀) ဈေး	Ayar Wun Main Road	ဧရာဝဏ်လမ်းမကြီး	Thaketa	သာကေတ	16.808139229914836	96.2203553086147
96	76	540	Awine	အဝိုင်း	Shukinthar Road	ရှူ့ခင်းသာလမ်း	Thaketa	သာကေတ	16.807905	96.21795
96	77	2164	Sat Yon Shae	စက်ရုံရှေ့	Kamarkyi Road	ကမာကြည်လမ်း	Thingangyun	သင်္ဃန်းကျွန်း	16.817656	96.214966
96	78	2162	Sagar Wah	စကားဝါ	Kamarkyi Road	ကမာကြည်လမ်း	Thingangyun	သင်္ဃန်းကျွန်း	16.819464	96.214172
96	79	586	Nyaung Pin	ညောင်ပင်	Kamarkyi Road	ကမာကြည်လမ်း	Thingangyun	သင်္ဃန်းကျွန်း	16.820809	96.213452
96	80	579	Bayint Naung	ဘုရင့်နောင်	Kamarkyi Road	ကမာကြည်လမ်း	Thingangyun	သင်္ဃန်းကျွန်း	16.822304545762762	96.2122975755483
96	81	578	Aung Zay Ya	အောင်ဇေယျ	Kamarkyi Road	ကမာကြည်လမ်း	Thingangyun	သင်္ဃန်းကျွန်း	16.825018017974298	96.20953163132073
96	82	636	Waibula	ဝေဘူလ	Thanthumar Road	သံသုမာလမ်း	Thingangyun	သင်္ဃန်းကျွန်း	16.8301749562444	96.2080962304026
96	83	627	Chan Aye/ Thwar Say	ချမ်းအေးသွားဆေး	Thanthumar Road	သံသုမာလမ်း	Thingangyun	သင်္ဃန်းကျွန်း	16.833007132875704	96.20810620486738
96	84	631	Sanpya Zay Kwae	စံပြဈေးကွေ့	Thanthumar Road	သံသုမာလမ်း	Thingangyun	သင်္ဃန်းကျွန်း	16.838397750744317	96.20758237782866
96	85	634	Sanpya Zay/ Nga Moe Yeik	စံပြဈေး/ ငမိုးရိပ်	Lay Daung Kan Road	လေးထောင့်ကန်လမ်း	Thingangyun	သင်္ဃန်းကျွန်း	16.84191124705454	96.20437290519476
96	86	2160	Myittar Shwe Yi	မေတ္တာရွှေရည်	Lay Daung Kan Road	လေးထောင့်ကန်လမ်း	Thingangyun	သင်္ဃန်းကျွန်း	16.838714941415013	96.20109388371932
96	87	597	Bawa Myint	ဘဝမြင့်	Lay Daung Kan Road	လေးထောင့်ကန်လမ်း	Thingangyun	သင်္ဃန်းကျွန်း	16.837495855328342	96.19981845142321
96	88	609	Kalar Su	ကုလားစု	Lay Daung Kan Road	လေးထောင့်ကန်လမ်း	Thingangyun	သင်္ဃန်းကျွန်း	16.835010345871222	96.19727026904003
96	89	602	B.O.C	ဘီအိုစီ	Lay Daung Kan Road	လေးထောင့်ကန်လမ်း	Thingangyun	သင်္ဃန်းကျွန်း	16.83286665425466	96.1950981616974
96	90	616	Paya Lan	ဘုရားလမ်း	Lay Daung Kan Road	လေးထောင့်ကန်လမ်း	Thingangyun	သင်္ဃန်းကျွန်း	16.83113763950624	96.19334714021535
96	91	367	Zawana	ဇဝန	Lay Daung Kan Road	လေးထောင့်ကန်လမ်း	Thingangyun	သင်္ဃန်းကျွန်း	16.82807920732785	96.18817041395235
96	92	368	Zawana	ဇဝန	Thu Mingalar Road	သုမင်္ဂလာလမ်း	Thingangyun	သင်္ဃန်းကျွန်း	16.828169138152795	96.18795208289158
96	93	1069	Thayet Taw	သရက်တော	Thu Mingalar Road	သုမင်္ဂလာလမ်း	Thingangyun	သင်္ဃန်းကျွန်း	16.832619	96.187951
96	94	1054	Aung Yadanar	အောင်ရတနာ	Thu Mingalar Road	သုမင်္ဂလာလမ်း	South Okkalapa	တောင်ဥက္ကလာပ	16.835304	96.186638
96	95	11	(Sae-Lay/ Sae-Ngar) Lan Sone	(၁၄/၁၅) လမ်းဆုံ	Yadanar Road	ရတနာလမ်း	Thingangyun	သင်္ဃန်းကျွန်း	16.836842495922827	96.18587595177816
96	96	13	(Sae-Lay/ Sae-Ngar) Lan Sone	(၁၄/၁၅) လမ်းဆုံ	Thu Mingalar Road	သုမင်္ဂလာလမ်း	South Okkalapa	တောင်ဥက္ကလာပ	16.83699628909975	96.1858079954982
96	97	14	Padaythar	ပဒေသာ	Thu Mingalar Road	သုမင်္ဂလာလမ်း	South Okkalapa	တောင်ဥက္ကလာပ	16.841680924239533	96.18324872804807
96	98	1072	Yone Shae	ရုံးရှေ့	Thu Mingalar Road	သုမင်္ဂလာလမ်း	South Okkalapa	တောင်ဥက္ကလာပ	16.844541	96.181267
96	99	1066	Taung Okkalar Sar Taik	တောင်ဥက္ကလာစာတိုက်	Thitsar Road	သစ္စာလမ်း	South Okkalapa	တောင်ဥက္ကလာပ	16.846384	96.179937
96	100	1068	Taung Okkalar Sar Taik	တောင်ဥက္ကလာစာတိုက်	Thu Mingalar Road	သုမင်္ဂလာလမ်း	South Okkalapa	တောင်ဥက္ကလာပ	16.846759	96.179625
96	101	1077	Inwa	အင်းဝ	Thu Mingalar Road	သုမင်္ဂလာလမ်း	South Okkalapa	တောင်ဥက္ကလာပ	16.849540622118948	96.17771046934651
96	102	17	Nandawun Zay	နန္ဒဝန်ဈေး	Thu Mingalar Road	သုမင်္ဂလာလမ်း	South Okkalapa	တောင်ဥက္ကလာပ	16.852036008309625	96.17587229702623
96	103	303	Ta Kaung	တကောင်း	Thu Mingalar Road	သုမင်္ဂလာလမ်း	South Okkalapa	တောင်ဥက္ကလာပ	16.854805688595036	96.17346153594553
96	104	1247	Kaytu Marlar Kwae	ကေတုမာလာကွေ့	Parami Road	ပါရမီလမ်း	South Okkalapa	တောင်ဥက္ကလာပ	16.856264313885067	96.17213245946915
96	105	1249	Nyaung Pin	ညောင်ပင်	Parami Road	ပါရမီလမ်း	Mayangone	မရမ်းကုန်း	16.854191214781956	96.16845406126232
96	106	1816	Mit Zu Lan	မဉ္ဇူလမ်း	Parami Road	ပါရမီလမ်း	Mayangone	မရမ်းကုန်း	16.850940045535186	96.16227886173876
96	107	1237	Chaw Twin Kone	ချော်တွင်းကုန်း	Parami Road	ပါရမီလမ်း	Mayangone	မရမ်းကုန်း	16.850164577041834	96.15806391695516
96	108	1238	Kabar Aye Paya/ Paya Lan	ကမ္ဘာအေးဘုရားလမ်း	Kabar Aye Pagoda Road	ကမ္ဘာအေးဘုရားလမ်း	Mayangone	မရမ်းကုန်း	16.856873	96.156653
96	109	1240	Sar Taik	စာတိုက်	Kabar Aye Pagoda Road	ကမ္ဘာအေးဘုရားလမ်း	Mayangone	မရမ်းကုန်း	16.862603	96.155366
96	110	1819	Nawaday	နဝဒေး	Kabar Aye Pagoda Road	ကမ္ဘာအေးဘုရားလမ်း	Mayangone	မရမ်းကုန်း	16.866798658414414	96.15263734711336
96	111	1265	Myaing Hay Wun	မြိုင်ဟေဝန်ပန်းခြံ	Kabar Aye Pagoda Road	ကမ္ဘာအေးဘုရားလမ်း	Mayangone	မရမ်းကုန်း	16.866771	96.143438
96	112	1268	Shit Mile	(၈) မိုင်	Pyay Road	ပြည်လမ်း	Mayangone	မရမ်းကုန်း	16.867474574530302	96.14175093127416
96	113	1261	Mahar Si	မဟာစည်	Pyay Road	ပြည်လမ်း	Mayangone	မရမ်းကုန်း	16.87252746521005	96.13994339480998
96	114	1259	A One	အေဝမ်း	Pyay Road	ပြည်လမ်း	Mayangone	မရမ်းကုန်း	16.877625558710985	96.13767097704114
96	115	1298	Koe Mile	(၉) မိုင်	Pyay Road	ပြည်လမ်း	Mayangone	မရမ်းကုန်း	16.880519	96.13626
96	116	1300	Koe Mile Khawe	(၉) မိုင်ခွဲ	Pyay Road	ပြည်လမ်း	Mayangone	မရမ်းကုန်း	16.88384696413571	96.13588529638947
96	117	40	Sae-Mile Kone	(၁၀) မိုင်ကုန်း	Pyay Road	ပြည်လမ်း	Insein	အင်းစိန်	16.88897721453234	96.12986868247393
96	118	1295	A Way Pyay	အဝေးပြေး	Pyay Road	ပြည်လမ်း	Insein	အင်းစိန်	16.888651646674504	96.12301192944871
96	119	1296	Saw Bwar Gyi Kone Lan Sone	စော်ဘွားကြီးကုန်းလမ်းဆုံ	Pyay Road	ပြည်လမ်း	Insein	အင်းစိန်	16.891840811985514	96.12003356684001
96	120	45	Htan Pin Kone	ထန်းပင်ကုန်း	No. 1 Main Road	အမှတ်(၁)လမ်းမ	Mingalardon	မင်္ဂလာဒုံ	16.90029241877987	96.1243827478029
96	121	1371	Kalar Paya	ကုလားဘုရား	No. 1 Main Road	အမှတ်(၁)လမ်းမ	Mingalardon	မင်္ဂလာဒုံ	16.905703933352523	96.12899553962053
96	122	1373	Pan Chan Kone	ပန်းခြံကုန်း	No. 1 Main Road	အမှတ်(၁)လမ်းမ	Mingalardon	မင်္ဂလာဒုံ	16.91071	96.131977
96	123	1394	B.O.C	ဘီအိုစီ	No. 1 Main Road	အမှတ်(၁)လမ်းမ	Mingalardon	မင်္ဂလာဒုံ	16.915565	96.134779
96	124	1399	Say Kyaung	ဆေးကျောင်း	No. 1 Main Road	အမှတ်(၁)လမ်းမ	Mingalardon	မင်္ဂလာဒုံ	16.92003	96.134199
96	125	1061	Sar Taik	စာတိုက်	No. 1 Main Road	အမှတ်(၁)လမ်းမ	Mingalardon	မင်္ဂလာဒုံ	16.923592	96.133438
96	126	1397	Khayae Pin Lan Khawe	ခရေပင်လမ်းခွဲ	No. 1 Main Road	အမှတ်(၁)လမ်းမ	Mingalardon	မင်္ဂလာဒုံ	16.927303171944107	96.13170620519669
96	127	1395	Khayae Pin Lan Khawe	ခရေပင်လမ်းခွဲ	Khayae Pin Road	ခရေပင်လမ်း	Mingalardon	မင်္ဂလာဒုံ	16.929289728265246	96.12982048653068
96	128	47	Tayar-Chauk	၁၀၆	Khayae Pin Road	ခရေပင်လမ်း	Mingalardon	မင်္ဂလာဒုံ	16.928401	96.120843
96	129	1390	Pan Chan	ပန်းခြံ	Khayae Pin Road	ခရေပင်လမ်း	Mingalardon	မင်္ဂလာဒုံ	16.92991253750098	96.11708393320443
96	130	1388	Chauk Lay Chauk	၆၄၆	Khayae Pin Road	ခရေပင်လမ်း	Mingalardon	မင်္ဂလာဒုံ	16.931177	96.114596
96	131	1386	Asar Set	အစာစက်	Khayae Pin Road	ခရေပင်လမ်း	Insein	အင်းစိန်	16.932409	96.112257
96	132	1391	Yae Set	ရေစက်	Khayae Pin Road	ခရေပင်လမ်း	Insein	အင်းစိန်	16.93246	96.108547
96	133	73	Danyin Gone Lan Sone	ဒညင်းကုန်းလမ်းဆုံ	Khayae Pin Road	ခရေပင်လမ်း	Insein	အင်းစိန်	16.93408765294573	96.10347699945125
96	134	1514	Sauk Lote Yae	ဆောက်လုပ်ရေး	No. 4 Main Road	အမှတ်(၄)လမ်းမ	Shwe Pyithar	ရွှေပြည်သာ	16.941071	96.102753
96	135	1512	Phone Gyi Kyaung	ဘုန်းကြီးကျောင်း	No. 4 Main Road	အမှတ်(၄)လမ်းမ	Shwe Pyithar	ရွှေပြည်သာ	16.942795	96.102796
96	136	1510	Myin Hlae Gate	မြင်းလှည်းဂိတ်	No. 4 Main Road	အမှတ်(၄)လမ်းမ	Shwe Pyithar	ရွှေပြည်သာ	16.94414	96.10285
96	137	1507	Kan Tharyar	ကန်သာယာ	No. 4 Main Road	အမှတ်(၄)လမ်းမ	Shwe Pyithar	ရွှေပြည်သာ	16.950132390389058	96.10075741074981
96	138	1508	Kyaung Lan	ကျောင်းလမ်း	No. 4 Main Road	အမှတ်(၄)လမ်းမ	Shwe Pyithar	ရွှေပြည်သာ	16.95163170997072	96.10013970639558
96	139	1519	Sit Tat	စစ်တပ်	No. 4 Main Road	အမှတ်(၄)လမ်းမ	Shwe Pyithar	ရွှေပြည်သာ	16.958198027604034	96.09759164974095
96	140	1516	Shwe Pyi Thar Kwae	ရွှေပြည်သာကွေ့	No. 4 Main Road/ Bogyoke Aung San Road	အမှတ်(၄)လမ်းမ/ဗိုလ်ချုပ်အောင်ဆန်းလမ်း	Shwe Pyithar	ရွှေပြည်သာ	16.961084945144684	96.09701604349542
96	141	71	Gate Haung	ဂိတ်ဟောင်း	No. 4 Main Road	အမှတ်(၄)လမ်းမ	Shwe Pyithar	ရွှေပြည်သာ	16.963966005856975	96.09650778584184
96	142	1498	Ye Chauk	ရဲ (၆)	No. 4 Main Road	အမှတ်(၄)လမ်းမ	Shwe Pyithar	ရွှေပြည်သာ	16.96787122038794	96.09573139110582
96	143	1494	Than Phyu	သံဖြူ	No. 4 Main Road	အမှတ်(၄)လမ်းမ	Shwe Pyithar	ရွှေပြည်သာ	16.971547071368082	96.09499946236612
96	144	1488	Oak Pho	အုတ်ဖို	No. 4 Main Road	အမှတ်(၄)လမ်းမ	Shwe Pyithar	ရွှေပြည်သာ	16.973700470429442	96.09446526272224
96	145	1490	Ponnya	ပုည	No. 4 Main Road	အမှတ်(၄)လမ်းမ	Shwe Pyithar	ရွှေပြည်သာ	16.97904652292607	96.0937109333463
96	146	1497	Thardukan	သာဓုကန်	No. 4 Main Road	အမှတ်(၄)လမ်းမ	Shwe Pyithar	ရွှေပြည်သာ	16.983833965279114	96.09342852607371
96	147	1492	Thabarwa	သဘာဝ	No. 4 Main Road	အမှတ်(၄)လမ်းမ	Shwe Pyithar	ရွှေပြည်သာ	16.988892	96.092881
96	148	67	Nwar Chan	နွားခြံ	No. 4 Main Road	အမှတ်(၄)လမ်းမ	Shwe Pyithar	ရွှေပြည်သာ	16.99481507448492	96.09122194815427
96	149	2249	Computer	ကွန်ပျူတာ	No. 4 Main Road	အမှတ်(၄)လမ်းမ	Shwe Pyithar	ရွှေပြည်သာ	16.998620693034137	96.08830445911737
96	150	1599	Padonmar	ပဒုမ္မာ	No. 4 Main Road	အမှတ်(၄)လမ်းမ	Shwe Pyithar	ရွှေပြည်သာ	17.001721145121724	96.08629917260261
96	151	1595	Kwet Thit	ကွက်သစ်	No. 4 Main Road	အမှတ်(၄)လမ်းမ	Shwe Pyithar	ရွှေပြည်သာ	17.003742182625896	96.08490278944375
96	152	1602	Tar Sone	တာဆုံ	No. 4 Main Road	အမှတ်(၄)လမ်းမ	Shwe Pyithar	ရွှေပြည်သာ	17.005592009189613	96.0833665332757
