svc_name	sequence	stop_id	name_en	name_mm	road_en	road_mm	township_en	township_mm	lat	lng
78	1	1594	Computer	ကွန်ပျူတာ	No. 4 Main Road	အမှတ်(၄)လမ်းမ	Shwe Pyithar	ရွှေပြည်သာ	16.998733834786997	96.0884768748656
78	2	68	Nwar Chan	နွားခြံ	No. 4 Main Road	အမှတ်(၄)လမ်းမ	Shwe Pyithar	ရွှေပြည်သာ	16.994694916471154	96.09105066396297
78	3	1493	Thabarwa	သဘာဝ	No. 4 Main Road	အမှတ်(၄)လမ်းမ	Shwe Pyithar	ရွှေပြည်သာ	16.988871	96.092581
78	4	1496	Thardukan	သာဓုကန်	No. 4 Main Road	အမှတ်(၄)လမ်းမ	Shwe Pyithar	ရွှေပြည်သာ	16.98379324224211	96.09319077339023
78	5	1491	Ponnya	ပုည	No. 4 Main Road	အမှတ်(၄)လမ်းမ	Shwe Pyithar	ရွှေပြည်သာ	16.97908187590623	96.09351490158589
78	6	1489	Oak Pho	အုတ်ဖို	No. 4 Main Road	အမှတ်(၄)လမ်းမ	Shwe Pyithar	ရွှေပြည်သာ	16.974234226742837	96.09422648325565
78	7	1495	Than Phyu	သံဖြူ	No. 4 Main Road	အမှတ်(၄)လမ်းမ	Shwe Pyithar	ရွှေပြည်သာ	16.972031450019877	96.0945617593825
78	8	1499	Ye Chauk	ရဲ (၆)	No. 4 Main Road	အမှတ်(၄)လမ်းမ	Shwe Pyithar	ရွှေပြည်သာ	16.968733249216562	96.09524251660332
78	9	72	Gate Haung	ဂိတ်ဟောင်း	No. 4 Main Road	အမှတ်(၄)လမ်းမ	Shwe Pyithar	ရွှေပြည်သာ	16.964731405762105	96.09605692327023
78	10	1517	Shwe Pyi Thar Kwae	ရွှေပြည်သာကွေ့	No. 4 Main Road/ Bogyoke Aung San Road	အမှတ်(၄)လမ်းမ/ဗိုလ်ချုပ်အောင်ဆန်းလမ်း	Shwe Pyithar	ရွှေပြည်သာ	16.961429849782906	96.09672259306538
78	11	1518	Sit Tat	စစ်တပ်	No. 4 Main Road	အမှတ်(၄)လမ်းမ	Shwe Pyithar	ရွှေပြည်သာ	16.958026253880583	96.09734735917301
78	12	1509	Kyaung Lan	ကျောင်းလမ်း	No. 4 Main Road	အမှတ်(၄)လမ်းမ	Shwe Pyithar	ရွှေပြည်သာ	16.951929487848194	96.0998342279345
78	13	1506	Kan Tharyar	ကန်သာယာ	No. 4 Main Road	အမှတ်(၄)လမ်းမ	Shwe Pyithar	ရွှေပြည်သာ	16.950086889460792	96.10064140520991
78	14	1511	Myin Hlae Gate	မြင်းလှည်းဂိတ်	No. 4 Main Road	အမှတ်(၄)လမ်းမ	Shwe Pyithar	ရွှေပြည်သာ	16.944725	96.102603
78	15	1513	Phone Gyi Kyaung	ဘုန်းကြီးကျောင်း	No. 4 Main Road	အမှတ်(၄)လမ်းမ	Shwe Pyithar	ရွှေပြည်သာ	16.942929	96.102614
78	16	1515	Sauk Lote Yae	ဆောက်လုပ်ရေး	No. 4 Main Road	အမှတ်(၄)လမ်းမ	Shwe Pyithar	ရွှေပြည်သာ	16.94143	96.102625
78	17	70	Danyin Gone Lan Sone	ဒညင်းကုန်းလမ်းဆုံ	Lower Mingalardon Road	အောက်မင်္ဂလာဒုံလမ်း	Insein	အင်းစိန်	16.93334660815077	96.10175833571702
78	18	1379	Bo Chan	ဘိုခြံ	Lower Mingalardon Road	အောက်မင်္ဂလာဒုံလမ်း	Insein	အင်းစိန်	16.930069803122507	96.10099055338652
78	19	1383	Ywar Thit	ရွာသစ်	Lower Mingalardon Road	အောက်မင်္ဂလာဒုံလမ်း	Insein	အင်းစိန်	16.92549591591529	96.09853390138596
78	20	1377	Aung San Zay	အောင်ဆန်းဈေး	Lower Mingalardon Road	အောက်မင်္ဂလာဒုံလမ်း	Insein	အင်းစိန်	16.92158657359925	96.09760954510422
78	21	1382	Kyaung Gate	ကျောင်းဂိတ်	Lower Mingalardon Road	အောက်မင်္ဂလာဒုံလမ်း	Insein	အင်းစိန်	16.917977527826658	96.0973806353286
78	22	41	Tit Gate	(၁) ဂိတ်	Lower Mingalardon Road	အောက်မင်္ဂလာဒုံလမ်း	Insein	အင်းစိန်	16.91550135721653	96.09722418710592
78	23	1363	Saung Hnit	ဆောင် (၂)	Lower Mingalardon Road	အောက်မင်္ဂလာဒုံလမ်း	Insein	အင်းစိန်	16.911949854431207	96.09726368682459
78	24	1355	Phot Kan Zay	ဖော့ကန်ဈေး	Lower Mingalardon Road	အောက်မင်္ဂလာဒုံလမ်း	Insein	အင်းစိန်	16.907714315111864	96.09755581710488
78	25	43	Japan Lan	ဂျပန်လမ်း	Lower Mingalardon Road	အောက်မင်္ဂလာဒုံလမ်း	Insein	အင်းစိန်	16.905062077475037	96.09768565278502
78	26	1362	Pyi Taw Thar/ G.T.I Htate	ပြည်တော်သာ/(GTI)ထိပ်	Lower Mingalardon Road	အောက်မင်္ဂလာဒုံလမ်း	Insein	အင်းစိန်	16.90042232116869	96.09718783060092
78	27	1338	Ywarma	ရွာမ	Lower Mingalardon Road	အောက်မင်္ဂလာဒုံလမ်း	Insein	အင်းစိန်	16.898134229574467	96.09891844214873
78	28	1318	Aye Theikdi/ Thayet Taw	အေးသိဒ္ဓိ/ သရက်တော	Lower Mingalardon Road	အောက်မင်္ဂလာဒုံလမ်း	Insein	အင်းစိန်	16.894614	96.10185
78	29	2203	Insein Say Yon Gyi	အင်းစိန်ဆေးရုံကြီး	Lower Mingalardon Road	အောက်မင်္ဂလာဒုံလမ်း	Insein	အင်းစိန်	16.892367141189418	96.10364459920675
78	30	1343	Insein Gon Tadar/ Hino Gade	အင်းစိန်ကုန်းတံတား/ ဟီးနိုးဂိတ်	Lower Mingalardon Road	အောက်မင်္ဂလာဒုံလမ်း	Insein	အင်းစိန်	16.887981661264888	96.10595115227626
78	31	1342	B.O.C	ဘီအိုစီ	Yangon-Insein Road	ရန်ကုန်-အင်းစိန်လမ်း	Insein	အင်းစိန်	16.884919917579392	96.10990806017071
78	32	1313	Kyoe Kone	ကြို့ကုန်း	Yangon-Insein Road	ရန်ကုန်-အင်းစိန်လမ်း	Insein	အင်းစိန်	16.878436988253824	96.11263456754386
78	33	1310	B.P.I	ဘီပီအိုင်	Yangon-Insein Road	ရန်ကုန်-အင်းစိန်လမ်း	Insein	အင်းစိန်	16.874841	96.116313
78	34	1253	Kha Wae Chan	ခဝဲခြံ	Yangon-Insein Road	ရန်ကုန်-အင်းစိန်လမ်း	Mayangone	မရမ်းကုန်း	16.869274405472567	96.11956872744487
78	35	1251	Kalar Kyaung	ကုလားကျောင်း	Yangon-Insein Road	ရန်ကုန်-အင်းစိန်လမ်း	Mayangone	မရမ်းကုန်း	16.865719	96.120693
78	36	1222	Thamine Lan Son	သမိုင်းလမ်းဆုံ	Yangon-Insein Road	ရန်ကုန်-အင်းစိန်လမ်း	Mayangone	မရမ်းကုန်း	16.863580854665273	96.12128087785096
78	37	1219	Paya Lan	ဘုရားလမ်း	Yangon-Insein Road	ရန်ကုန်-အင်းစိန်လမ်း	Hlaing	လှိုင်	16.858449573541584	96.1232297960669
78	38	1218	Oakyin	အုတ်ကျင်း	Yangon-Insein Road	ရန်ကုန်-အင်းစိန်လမ်း	Hlaing	လှိုင်	16.85535357935823	96.12357353791595
78	39	1211	Bartar	ဘာတာ	Yangon-Insein Road	ရန်ကုန်-အင်းစိန်လမ်း	Hlaing	လှိုင်	16.852028788549283	96.12414786592129
78	40	1180	Than Lan	သံလမ်း	Yangon-Insein Road	ရန်ကုန်-အင်းစိန်လမ်း	Hlaing	လှိုင်	16.846071	96.125475
78	41	1182	Thukha	သုခ	Yangon-Insein Road	ရန်ကုန်-အင်းစိန်လမ်း	Hlaing	လှိုင်	16.840511	96.12683
78	42	1171	Butar Yon Lan	ဘူတာရုံလမ်း	Yangon-Insein Road	ရန်ကုန်-အင်းစိန်လမ်း	Hlaing	လှိုင်	16.837466	96.127449
78	43	1176	Sin Yae Twin	ဆင်ရေတွင်း	Yangon-Insein Road	ရန်ကုန်-အင်းစိန်လမ်း	Kamayut	ကမာရွတ်	16.833769	96.128565
78	44	1174	San Yeik Nyein	စံရိပ်ငြိမ်	Yangon-Insein Road	ရန်ကုန်-အင်းစိန်လမ်း	Kamayut	ကမာရွတ်	16.83080186323241	96.12952651223169
78	45	288	Hledan	လှည်းတန်း	Yangon-Insein Road	ရန်ကုန်-အင်းစိန်လမ်း	Kamayut	ကမာရွတ်	16.827968991730348	96.13019763026388
78	46	320	Saik Pyoe Yay	စိုက်ပျိုးရေး	Pyay Road	ပြည်လမ်း	Kamayut	ကမာရွတ်	16.817302720172133	96.1332632484846
78	47	263	Hantharwaddy	ဟံသာဝတီ	Pyay Road	ပြည်လမ်း	San Chaung	စမ်းချောင်း	16.81193620836817	96.13480080384763
78	48	265	Mahar Myaing	မဟာမြိုင်	Pyay Road	ပြည်လမ်း	San Chaung	စမ်းချောင်း	16.80813755165241	96.13589079341183
78	49	269	Myaynigone	မြေနီကုန်း (ပြည်လမ်း)	Pyay Road	ပြည်လမ်း	San Chaung	စမ်းချောင်း	16.805399	96.136748
78	50	199	Halpin	ဟယ်(လ်)ပင်	Pyay Road	ပြည်လမ်း	Dagon	ဒဂုံ	16.79105778473302	96.14084245869891
78	51	197	Bago Kalat	ပဲခူးကလပ်	Pyay Road	ပြည်လမ်း	Dagon	ဒဂုံ	16.78724498784618	96.14205184159802
78	52	117	Sein Gyun	စိန်ဂျွန်း	Pyay Road	ပြည်လမ်း	Dagon	ဒဂုံ	16.781941992465832	96.14384621847422
78	53	125	Sanpya	စံပြ	Phone Gyi Road	ဘုန်းကြီးလမ်း	Lanmadaw	လမ်းမတော်	16.778647	96.144935
78	54	1284	Phone Gyi Lan	ဘုန်းကြီးလမ်း	Phone Gyi Road	ဘုန်းကြီးလမ်း	Lanmadaw	လမ်းမတော်	16.77531801226666	96.14491745320267
78	55	134	Sae-ngar Lan	(၁၅) လမ်း	Mahabandoola Road	မဟာဗန္ဓုလလမ်း	Latha	လသာ	16.774744	96.146441
78	56	131	Maung Khaing	မောင်ခိုင်	Mahabandoola Road	မဟာဗန္ဓုလလမ်း	Latha	လသာ	16.774456	96.15187
78	57	143	Theingyi Zay/ Kone Zay Tan	သိမ်ကြီးဈေး/ကုန်ဈေးတန်း	Mahabandoola Road	မဟာဗန္ဓုလလမ်း	Pabedan	ပန်းဘဲတန်း	16.774497	96.153833
78	58	141	Sule Myodaw Khan Ma	ဆူးလေမြို့တော်ခန်းမ	Sule Pagoda Road	ဆူးလေးဘုရားလမ်း	Kyauktada	ကျောက်တံတား	16.775753793727244	96.15887872176246
78	59	2437	Kyauk Kwae	ကျောက်ကွေ့	Upper Pansodan Road	အထက်ပန်းဆိုးတန်းလမ်း	Mingala Taungnyunt	မင်္ဂလာတောင်ညွန့်	16.7864596491084	96.1623373255134
78	60	194	Youk Lan	ယောက်လမ်း	Alanpya Pagoda Road	အလံပြဘုရားလမ်း	Dagon	ဒဂုံ	16.7826821164587	96.15895088994877
78	61	144	Yoke Shin Yon	ရုပ်ရှင်ရုံ	Sule Pagoda Road	ဆူးလေးဘုရားလမ်း	Pabedan	ပန်းဘဲတန်း	16.777455	96.158736
78	62	138	Lan Thone Sae	လမ်း(၃၀)	Anawrahta Road	အနော်ရထာလမ်း	Pabedan	ပန်းဘဲတန်း	16.776963746839762	96.15723368944602
78	63	137	Kone Zay Tan	ကုန်ဈေးတန်း	Anawrahta Road	အနော်ရထာလမ်း	Pabedan	ပန်းဘဲတန်း	16.777137	96.155131
78	64	130	Latha	လသာ	Anawrahta Road	အနော်ရထာလမ်း	Latha	လသာ	16.777128703371353	96.15159419830891
78	65	133	Sae-ngar Lan/ Nyaung Pin Lay Zay	(၁၅) လမ်း / ညောင်ပင်လေးဈေး	Anawrahta Road	အနော်ရထာလမ်း	Lanmadaw	လမ်းမတော်	16.777373	96.14642
78	66	126	Sanpya	စံပြ	Phone Gyi Road	ဘုန်းကြီးလမ်း	Lanmadaw	လမ်းမတော်	16.777905085915634	96.14501520060006
78	67	118	Sein Gyun	စိန်ဂျွန်း	Pyay Road	ပြည်လမ်း	Dagon	ဒဂုံ	16.78301131037706	96.14358860068025
78	68	196	Bago Kalat	ပဲခူးကလပ်	Pyay Road	ပြည်လမ်း	Dagon	ဒဂုံ	16.786334463253585	96.14242921583356
78	69	198	Halpin	ဟယ်(လ်)ပင်	Pyay Road	ပြည်လမ်း	Dagon	ဒဂုံ	16.79028	96.141303
78	70	268	Myaynigone	မြေနီကုန်း (ပြည်လမ်း)	Pyay Road	ပြည်လမ်း	San Chaung	စမ်းချောင်း	16.7995437639817	96.13851143047215
78	71	264	Mahar Myaing	မဟာမြိုင်	Pyay Road	ပြည်လမ်း	San Chaung	စမ်းချောင်း	16.806672	96.13654
78	72	262	Hantharwaddy	ဟံသာဝတီ	Pyay Road	ပြည်လမ်း	San Chaung	စမ်းချောင်း	16.811922855564923	96.13503597189266
78	73	319	Saik Pyoe Yay	စိုက်ပျိုးရေး	Pyay Road	ပြည်လမ်း	Kamayut	ကမာရွတ်	16.817862	96.133326
78	74	287	Hledan	လှည်းတန်း	Yangon-Insein Road	ရန်ကုန်-အင်းစိန်လမ်း	Kamayut	ကမာရွတ်	16.827952	96.130435
78	75	1175	San Yeik Nyein	စံရိပ်ငြိမ်	Yangon-Insein Road	ရန်ကုန်-အင်းစိန်လမ်း	Kamayut	ကမာရွတ်	16.831942429089896	96.12954480573538
78	76	1177	Sin Yae Twin	ဆင်ရေတွင်း	Yangon-Insein Road	ရန်ကုန်-အင်းစိန်လမ်း	Kamayut	ကမာရွတ်	16.834325849790382	96.12863868009302
78	77	1170	Butar Yon Lan	ဘူတာရုံလမ်း	Yangon-Insein Road	ရန်ကုန်-အင်းစိန်လမ်း	Hlaing	လှိုင်	16.83729665475637	96.1277522519231
78	78	1181	Thukha	သုခ	Yangon-Insein Road	ရန်ကုန်-အင်းစိန်လမ်း	Hlaing	လှိုင်	16.84047	96.127017
78	79	1179	Than Lan	သံလမ်း	Yangon-Insein Road	ရန်ကုန်-အင်းစိန်လမ်း	Hlaing	လှိုင်	16.845174404267453	96.1259302776307
78	80	1212	Bartar	ဘာတာ	Yangon-Insein Road	ရန်ကုန်-အင်းစိန်လမ်း	Hlaing	လှိုင်	16.851150141657822	96.12455583410339
78	81	1217	Oakyin	အုတ်ကျင်း	Yangon-Insein Road	ရန်ကုန်-အင်းစိန်လမ်း	Hlaing	လှိုင်	16.854916470149714	96.12391686066985
78	82	2392	Paya Lan	ဘုရားလမ်း	Yangon-Insein Road	ရန်ကုန်-အင်းစိန်လမ်း	Hlaing	လှိုင်	16.8577458299178	96.1235475540161
78	83	1223	Thamine Lan Son	သမိုင်းလမ်းဆုံ	Yangon-Insein Road	ရန်ကုန်-အင်းစိန်လမ်း	Mayangone	မရမ်းကုန်း	16.86102136801801	96.12232748419049
78	84	1250	Kalar Kyaung	ကုလားကျောင်း	Yangon-Insein Road	ရန်ကုန်-အင်းစိန်လမ်း	Mayangone	မရမ်းကုန်း	16.864784	96.121143
78	85	1252	Kha Wae Chan	ခဝဲခြံ	Yangon-Insein Road	ရန်ကုန်-အင်းစိန်လမ်း	Mayangone	မရမ်းကုန်း	16.869492	96.119748
78	86	1311	B.P.I	ဘီပီအိုင်	Yangon-Insein Road	ရန်ကုန်-အင်းစိန်လမ်း	Insein	အင်းစိန်	16.875178616130857	96.11636074259879
78	87	1312	Kyoe Kone	ကြို့ကုန်း	Yangon-Insein Road	ရန်ကုန်-အင်းစိန်လမ်း	Insein	အင်းစိန်	16.8784827070093	96.11278095748277
78	88	1341	B.O.C	ဘီအိုစီ	Yangon-Insein Road	ရန်ကုန်-အင်းစိန်လမ်း	Insein	အင်းစိန်	16.884947027069753	96.11010398715734
78	89	1344	Insein Gon Tadar/ Hino Gade	အင်းစိန်ကုန်းတံတား/ ဟီးနိုးဂိတ်	Lower Mingalardon Road	အောက်မင်္ဂလာဒုံလမ်း	Insein	အင်းစိန်	16.88813384885796	96.10589329618963
78	90	2202	Insein Say Yon Gyi	အင်းစိန်ဆေးရုံကြီး	Lower Mingalardon Road	အောက်မင်္ဂလာဒုံလမ်း	Insein	အင်းစိန်	16.89248812652153	96.10382583690807
78	91	1319	Aye Theikdi/ Thayet Taw	အေးသိဒ္ဓိ/ သရက်တော	Lower Mingalardon Road	အောက်မင်္ဂလာဒုံလမ်း	Insein	အင်းစိန်	16.894799	96.102108
78	92	1337	Ywarma	ရွာမ	Lower Mingalardon Road	အောက်မင်္ဂလာဒုံလမ်း	Insein	အင်းစိန်	16.898234258974952	96.09905219636859
78	93	1361	Pyi Taw Thar/ G.T.I Htate	ပြည်တော်သာ/(GTI)ထိပ်	Lower Mingalardon Road	အောက်မင်္ဂလာဒုံလမ်း	Insein	အင်းစိန်	16.900988906263134	96.09709422569722
78	94	44	Japan Lan	ဂျပန်လမ်း	Lower Mingalardon Road	အောက်မင်္ဂလာဒုံလမ်း	Insein	အင်းစိန်	16.90502450516036	96.09781016595663
78	95	1356	Phot Kan Zay	ဖော့ကန်ဈေး	Lower Mingalardon Road	အောက်မင်္ဂလာဒုံလမ်း	Insein	အင်းစိန်	16.907637768103342	96.0976756573655
78	96	1364	Saung Hnit	ဆောင် (၂)	Lower Mingalardon Road	အောက်မင်္ဂလာဒုံလမ်း	Insein	အင်းစိန်	16.911906288978923	96.09734033932911
78	97	42	Tit Gate	(၁) ဂိတ်	Lower Mingalardon Road	အောက်မင်္ဂလာဒုံလမ်း	Insein	အင်းစိန်	16.915288559472796	96.0973123995973
78	98	1381	Kyaung Gate	ကျောင်းဂိတ်	Lower Mingalardon Road	အောက်မင်္ဂလာဒုံလမ်း	Insein	အင်းစိန်	16.91788444547496	96.09746233792977
78	99	1378	Aung San Zay	အောင်ဆန်းဈေး	Lower Mingalardon Road	အောက်မင်္ဂလာဒုံလမ်း	Insein	အင်းစိန်	16.92132490016646	96.0976821674194
78	100	1384	Ywar Thit	ရွာသစ်	Lower Mingalardon Road	အောက်မင်္ဂလာဒုံလမ်း	Insein	အင်းစိန်	16.925462798129	96.09860481228681
78	101	1380	Bo Chan	ဘိုခြံ	Lower Mingalardon Road	အောက်မင်္ဂလာဒုံလမ်း	Insein	အင်းစိန်	16.930007017169302	96.10109809320423
78	102	69	Danyin Gone Lan Sone	ဒညင်းကုန်းလမ်းဆုံ	Lower Mingalardon Road	အောက်မင်္ဂလာဒုံလမ်း	Insein	အင်းစိန်	16.933232955911787	96.10197149799207
78	103	1514	Sauk Lote Yae	ဆောက်လုပ်ရေး	No. 4 Main Road	အမှတ်(၄)လမ်းမ	Shwe Pyithar	ရွှေပြည်သာ	16.941071	96.102753
78	104	1512	Phone Gyi Kyaung	ဘုန်းကြီးကျောင်း	No. 4 Main Road	အမှတ်(၄)လမ်းမ	Shwe Pyithar	ရွှေပြည်သာ	16.942795	96.102796
78	105	1510	Myin Hlae Gate	မြင်းလှည်းဂိတ်	No. 4 Main Road	အမှတ်(၄)လမ်းမ	Shwe Pyithar	ရွှေပြည်သာ	16.94414	96.10285
78	106	1507	Kan Tharyar	ကန်သာယာ	No. 4 Main Road	အမှတ်(၄)လမ်းမ	Shwe Pyithar	ရွှေပြည်သာ	16.950132390389058	96.10075741074981
78	107	1508	Kyaung Lan	ကျောင်းလမ်း	No. 4 Main Road	အမှတ်(၄)လမ်းမ	Shwe Pyithar	ရွှေပြည်သာ	16.95163170997072	96.10013970639558
78	108	1519	Sit Tat	စစ်တပ်	No. 4 Main Road	အမှတ်(၄)လမ်းမ	Shwe Pyithar	ရွှေပြည်သာ	16.958198027604034	96.09759164974095
78	109	1516	Shwe Pyi Thar Kwae	ရွှေပြည်သာကွေ့	No. 4 Main Road/ Bogyoke Aung San Road	အမှတ်(၄)လမ်းမ/ဗိုလ်ချုပ်အောင်ဆန်းလမ်း	Shwe Pyithar	ရွှေပြည်သာ	16.961084945144684	96.09701604349542
78	110	71	Gate Haung	ဂိတ်ဟောင်း	No. 4 Main Road	အမှတ်(၄)လမ်းမ	Shwe Pyithar	ရွှေပြည်သာ	16.963966005856975	96.09650778584184
78	111	1498	Ye Chauk	ရဲ (၆)	No. 4 Main Road	အမှတ်(၄)လမ်းမ	Shwe Pyithar	ရွှေပြည်သာ	16.96787122038794	96.09573139110582
78	112	1494	Than Phyu	သံဖြူ	No. 4 Main Road	အမှတ်(၄)လမ်းမ	Shwe Pyithar	ရွှေပြည်သာ	16.971547071368082	96.09499946236612
78	113	1488	Oak Pho	အုတ်ဖို	No. 4 Main Road	အမှတ်(၄)လမ်းမ	Shwe Pyithar	ရွှေပြည်သာ	16.973700470429442	96.09446526272224
78	114	1490	Ponnya	ပုည	No. 4 Main Road	အမှတ်(၄)လမ်းမ	Shwe Pyithar	ရွှေပြည်သာ	16.97904652292607	96.0937109333463
78	115	1497	Thardukan	သာဓုကန်	No. 4 Main Road	အမှတ်(၄)လမ်းမ	Shwe Pyithar	ရွှေပြည်သာ	16.983833965279114	96.09342852607371
78	116	1492	Thabarwa	သဘာဝ	No. 4 Main Road	အမှတ်(၄)လမ်းမ	Shwe Pyithar	ရွှေပြည်သာ	16.988892	96.092881
78	117	67	Nwar Chan	နွားခြံ	No. 4 Main Road	အမှတ်(၄)လမ်းမ	Shwe Pyithar	ရွှေပြည်သာ	16.99481507448492	96.09122194815427
78	118	2249	Computer	ကွန်ပျူတာ	No. 4 Main Road	အမှတ်(၄)လမ်းမ	Shwe Pyithar	ရွှေပြည်သာ	16.998620693034137	96.08830445911737
