svc_name	sequence	stop_id	name_en	name_mm	road_en	road_mm	township_en	township_mm	lat	lng
77	1	1534	Palae Lan	ပုလဲလမ်း	Industrial Road	စက်မှုဇုန်လမ်း	Shwe Pyithar	ရွှေပြည်သာ	16.9438898006853	96.08467088313773
77	2	1511	Myin Hlae Gate	မြင်းလှည်းဂိတ်	No. 4 Main Road	အမှတ်(၄)လမ်းမ	Shwe Pyithar	ရွှေပြည်သာ	16.944725	96.102603
77	3	1513	Phone Gyi Kyaung	ဘုန်းကြီးကျောင်း	No. 4 Main Road	အမှတ်(၄)လမ်းမ	Shwe Pyithar	ရွှေပြည်သာ	16.942929	96.102614
77	4	1515	Sauk Lote Yae	ဆောက်လုပ်ရေး	No. 4 Main Road	အမှတ်(၄)လမ်းမ	Shwe Pyithar	ရွှေပြည်သာ	16.94143	96.102625
77	5	70	Danyin Gone Lan Sone	ဒညင်းကုန်းလမ်းဆုံ	Lower Mingalardon Road	အောက်မင်္ဂလာဒုံလမ်း	Insein	အင်းစိန်	16.93334660815077	96.10175833571702
77	6	1379	Bo Chan	ဘိုခြံ	Lower Mingalardon Road	အောက်မင်္ဂလာဒုံလမ်း	Insein	အင်းစိန်	16.930069803122507	96.10099055338652
77	7	1383	Ywar Thit	ရွာသစ်	Lower Mingalardon Road	အောက်မင်္ဂလာဒုံလမ်း	Insein	အင်းစိန်	16.92549591591529	96.09853390138596
77	8	1377	Aung San Zay	အောင်ဆန်းဈေး	Lower Mingalardon Road	အောက်မင်္ဂလာဒုံလမ်း	Insein	အင်းစိန်	16.92158657359925	96.09760954510422
77	9	1382	Kyaung Gate	ကျောင်းဂိတ်	Lower Mingalardon Road	အောက်မင်္ဂလာဒုံလမ်း	Insein	အင်းစိန်	16.917977527826658	96.0973806353286
77	10	41	Tit Gate	(၁) ဂိတ်	Lower Mingalardon Road	အောက်မင်္ဂလာဒုံလမ်း	Insein	အင်းစိန်	16.91550135721653	96.09722418710592
77	11	1363	Saung Hnit	ဆောင် (၂)	Lower Mingalardon Road	အောက်မင်္ဂလာဒုံလမ်း	Insein	အင်းစိန်	16.911949854431207	96.09726368682459
77	12	1355	Phot Kan Zay	ဖော့ကန်ဈေး	Lower Mingalardon Road	အောက်မင်္ဂလာဒုံလမ်း	Insein	အင်းစိန်	16.907714315111864	96.09755581710488
77	13	43	Japan Lan	ဂျပန်လမ်း	Lower Mingalardon Road	အောက်မင်္ဂလာဒုံလမ်း	Insein	အင်းစိန်	16.905062077475037	96.09768565278502
77	14	1362	Pyi Taw Thar/ G.T.I Htate	ပြည်တော်သာ/(GTI)ထိပ်	Lower Mingalardon Road	အောက်မင်္ဂလာဒုံလမ်း	Insein	အင်းစိန်	16.90042232116869	96.09718783060092
77	15	1360	Pyi Taw Thar	ပြည်တော်သာ	Min Gyi Road	မင်းကြီးလမ်း	Insein	အင်းစိန်	16.90061315461297	96.09785547014329
77	16	1365	Thayet Taw	သရက်တော	Min Gyi Road	မင်းကြီးလမ်း	Insein	အင်းစိန်	16.902188696058865	96.10298538347709
77	17	1367	Bo Kone	ဗိုလ်ကုန်း	Min Gyi Road	မင်းကြီးလမ်း	Insein	အင်းစိန်	16.900902050977837	96.10639025922868
77	18	1370	Hight Pak	ဟိုက်ပက်	Min Gyi Road	မင်းကြီးလမ်း	Insein	အင်းစိန်	16.898819557221824	96.10545127652587
77	19	1350	Ma Nya Ka	မညက	Min Gyi Street	မင်းကြီးလမ်းသွယ်	Insein	အင်းစိန်	16.897026	96.104942
77	20	1348	Insein Say Yon Gyi	အင်းစိန်ဆေးရုံကြီး	Min Gyi Road	မင်းကြီးလမ်း	Insein	အင်းစိန်	16.892273	96.105639
77	21	2195	Insein Pan Chan	အင်းစိန်ပန်းခြံ	Lan Thit Road	လမ်းသစ်လမ်း	Insein	အင်းစိန်	16.888464510569012	96.1078345659189
77	22	1351	Oakyin Wa	အုတ်ကျင်းဝ	Lan Thit Road	လမ်းသစ်လမ်း	Insein	အင်းစိန်	16.89040993100321	96.11139262095097
77	23	1353	Workshop	ဝပ်ရှော့	Lan Thit Road	လမ်းသစ်လမ်း	Insein	အင်းစိန်	16.891115999129372	96.11466250615196
77	24	1339	Ar Lain Ngar Sint	အာလိန်ငါးဆင့်	Lan Thit Road	လမ်းသစ်လမ်း	Insein	အင်းစိန်	16.891479839530728	96.1165958759375
77	25	1294	A Way Pyay	အဝေးပြေး	Pyay Road	ပြည်လမ်း	Insein	အင်းစိန်	16.888535030003954	96.12289267592132
77	26	39	Sae-Mile Kone	(၁၀) မိုင်ကုန်း	Pyay Road	ပြည်လမ်း	Insein	အင်းစိန်	16.888832606891466	96.1299168993719
77	27	1301	Koe Mile Khawe	(၉) မိုင်ခွဲ	Pyay Road	ပြည်လမ်း	Mayangone	မရမ်းကုန်း	16.884384	96.135772
77	28	1299	Koe Mile	(၉) မိုင်	Pyay Road	ပြည်လမ်း	Mayangone	မရမ်းကုန်း	16.88177976207406	96.13486798480155
77	29	1258	A One	အေဝမ်း	Pyay Road	ပြည်လမ်း	Mayangone	မရမ်းကုန်း	16.875519	96.138371
77	30	1260	Mahar Si	မဟာစည်	Pyay Road	ပြည်လမ်း	Mayangone	မရမ်းကုန်း	16.872313663035687	96.13967798184603
77	31	1269	Shit Mile	(၈) မိုင်	Pyay Road	ပြည်လမ်း	Mayangone	မရမ်းကုန်း	16.867915966141403	96.14123360021041
77	32	1267	Shit Mile	(၈) မိုင်	Kyaik Wine Pagoda Road	ကျိုက်ဝိုင်းဘုရားလမ်း	Mayangone	မရမ်းကုန်း	16.86567957937846	96.14160246681422
77	33	1271	Ye Baw Haung	ရဲဘော်ဟောင်း	Kyaik Wine Pagoda Road	ကျိုက်ဝိုင်းဘုရားလမ်း	Mayangone	မရမ်းကုန်း	16.867512054054306	96.13733641337605
77	34	1255	Kyaik Wine	ကျိုက်ဝိုင်း	Kyaik Wine Pagoda Road	ကျိုက်ဝိုင်းဘုရားလမ်း	Mayangone	မရမ်းကုန်း	16.86663241628879	96.12869997275995
77	35	1257	Ye Yan Aung	ရဲရန်အောင်	Kyaik Wine Pagoda Road	ကျိုက်ဝိုင်းဘုရားလမ်း	Mayangone	မရမ်းကုန်း	16.866219437328372	96.12603065092118
77	36	1221	Thamine Lan Son	သမိုင်းလမ်းဆုံ	Kyaik Wine Pagoda Road	ကျိုက်ဝိုင်းဘုရားလမ်း	Mayangone	မရမ်းကုန်း	16.863193	96.122404
77	37	1219	Paya Lan	ဘုရားလမ်း	Yangon-Insein Road	ရန်ကုန်-အင်းစိန်လမ်း	Hlaing	လှိုင်	16.858449573541584	96.1232297960669
77	38	1218	Oakyin	အုတ်ကျင်း	Yangon-Insein Road	ရန်ကုန်-အင်းစိန်လမ်း	Hlaing	လှိုင်	16.85535357935823	96.12357353791595
77	39	1211	Bartar	ဘာတာ	Yangon-Insein Road	ရန်ကုန်-အင်းစိန်လမ်း	Hlaing	လှိုင်	16.852028788549283	96.12414786592129
77	40	1180	Than Lan	သံလမ်း	Yangon-Insein Road	ရန်ကုန်-အင်းစိန်လမ်း	Hlaing	လှိုင်	16.846071	96.125475
77	41	1182	Thukha	သုခ	Yangon-Insein Road	ရန်ကုန်-အင်းစိန်လမ်း	Hlaing	လှိုင်	16.840511	96.12683
77	42	1171	Butar Yon Lan	ဘူတာရုံလမ်း	Yangon-Insein Road	ရန်ကုန်-အင်းစိန်လမ်း	Hlaing	လှိုင်	16.837466	96.127449
77	43	1176	Sin Yae Twin	ဆင်ရေတွင်း	Yangon-Insein Road	ရန်ကုန်-အင်းစိန်လမ်း	Kamayut	ကမာရွတ်	16.833769	96.128565
77	44	1174	San Yeik Nyein	စံရိပ်ငြိမ်	Yangon-Insein Road	ရန်ကုန်-အင်းစိန်လမ်း	Kamayut	ကမာရွတ်	16.83080186323241	96.12952651223169
77	45	288	Hledan	လှည်းတန်း	Yangon-Insein Road	ရန်ကုန်-အင်းစိန်လမ်း	Kamayut	ကမာရွတ်	16.827968991730348	96.13019763026388
77	46	320	Saik Pyoe Yay	စိုက်ပျိုးရေး	Pyay Road	ပြည်လမ်း	Kamayut	ကမာရွတ်	16.817302720172133	96.1332632484846
77	47	263	Hantharwaddy	ဟံသာဝတီ	Pyay Road	ပြည်လမ်း	San Chaung	စမ်းချောင်း	16.81193620836817	96.13480080384763
77	48	265	Mahar Myaing	မဟာမြိုင်	Pyay Road	ပြည်လမ်း	San Chaung	စမ်းချောင်း	16.80813755165241	96.13589079341183
77	49	269	Myaynigone	မြေနီကုန်း (ပြည်လမ်း)	Pyay Road	ပြည်လမ်း	San Chaung	စမ်းချောင်း	16.805399	96.136748
77	50	267	Myaynigone	မြေနီကုန်း	Bargayar Road	ဗားဂရာလမ်း	San Chaung	စမ်းချောင်း	16.8037478786025	96.13814299016668
77	51	2389	Wizaya Plaza	ဝိဇယပလာဇာ	Dhamazedi Road	ဓမ္မစေတီလမ်း	Bahan	ဗဟန်း	16.8050307383558	96.1434358686529
77	52	222	Link Lan	လင့်လမ်း	Shwe Gon Road	ရွှေဂုံလမ်း	Bahan	ဗဟန်း	16.805999079236297	96.14723340186174
77	53	206	Myauk Phat Moke	မြောက်ဘက်မုခ်	RZarNi Road	အာဇာနည်လမ်း	Dagon	ဒဂုံ	16.800997385232012	96.14897002709769
77	54	205	Ashae Phat Moke	အရှေ့ဘက်မုခ်	RZarNi Road	အာဇာနည်လမ်း	Dagon	ဒဂုံ	16.798163640361214	96.15180441644044
77	55	2426	Taung Phat Moke	တောင်ဘက်မုခ်	Shwedagon Pagoda Road	ရွှေတိဂုံဘုရားလမ်း	Dagon	ဒဂုံ	16.7936949303085	96.1509490013123
77	56	193	Sauk Lote Yae	ဆောက်လုပ်ရေး	Shwedagon Pagoda Road	ရွှေတိဂုံဘုရားလမ်း	Dagon	ဒဂုံ	16.783229245857658	96.1534311133437
77	57	201	Taung Phat Moke	တောင်ဘက်မုခ်	Shwedagon Pagoda Road	ရွှေတိဂုံဘုရားလမ်း	Dagon	ဒဂုံ	16.793821314974	96.1510692397133
77	58	204	Ashae Phat Moke	အရှေ့ဘက်မုခ်	RZarNi Road	အာဇာနည်လမ်း	Dagon	ဒဂုံ	16.798261809979387	96.15193837333209
77	59	207	Myauk Phat Moke	မြောက်ဘက်မုခ်	RZarNi Road	အာဇာနည်လမ်း	Dagon	ဒဂုံ	16.801157867350614	96.14910688229429
77	60	223	Link Lan	လင့်လမ်း	Shwe Gon Road	ရွှေဂုံလမ်း	Bahan	ဗဟန်း	16.806090939455864	96.14742122246754
77	61	274	Wizaya Plaza	ဝိဇယပလာဇာ	Dhamazedi Road	ဓမ္မစေတီလမ်း	Bahan	ဗဟန်း	16.805219943235446	96.14327571864125
77	62	266	Myaynigone	မြေနီကုန်း	Bargayar Road	ဗားဂရာလမ်း	San Chaung	စမ်းချောင်း	16.803804	96.138814
77	63	264	Mahar Myaing	မဟာမြိုင်	Pyay Road	ပြည်လမ်း	San Chaung	စမ်းချောင်း	16.806672	96.13654
77	64	262	Hantharwaddy	ဟံသာဝတီ	Pyay Road	ပြည်လမ်း	San Chaung	စမ်းချောင်း	16.811922855564923	96.13503597189266
77	65	319	Saik Pyoe Yay	စိုက်ပျိုးရေး	Pyay Road	ပြည်လမ်း	Kamayut	ကမာရွတ်	16.817862	96.133326
77	66	287	Hledan	လှည်းတန်း	Yangon-Insein Road	ရန်ကုန်-အင်းစိန်လမ်း	Kamayut	ကမာရွတ်	16.827952	96.130435
77	67	1175	San Yeik Nyein	စံရိပ်ငြိမ်	Yangon-Insein Road	ရန်ကုန်-အင်းစိန်လမ်း	Kamayut	ကမာရွတ်	16.831942429089896	96.12954480573538
77	68	1177	Sin Yae Twin	ဆင်ရေတွင်း	Yangon-Insein Road	ရန်ကုန်-အင်းစိန်လမ်း	Kamayut	ကမာရွတ်	16.834325849790382	96.12863868009302
77	69	1170	Butar Yon Lan	ဘူတာရုံလမ်း	Yangon-Insein Road	ရန်ကုန်-အင်းစိန်လမ်း	Hlaing	လှိုင်	16.83729665475637	96.1277522519231
77	70	1181	Thukha	သုခ	Yangon-Insein Road	ရန်ကုန်-အင်းစိန်လမ်း	Hlaing	လှိုင်	16.84047	96.127017
77	71	1179	Than Lan	သံလမ်း	Yangon-Insein Road	ရန်ကုန်-အင်းစိန်လမ်း	Hlaing	လှိုင်	16.845174404267453	96.1259302776307
77	72	1212	Bartar	ဘာတာ	Yangon-Insein Road	ရန်ကုန်-အင်းစိန်လမ်း	Hlaing	လှိုင်	16.851150141657822	96.12455583410339
77	73	1217	Oakyin	အုတ်ကျင်း	Yangon-Insein Road	ရန်ကုန်-အင်းစိန်လမ်း	Hlaing	လှိုင်	16.854916470149714	96.12391686066985
77	74	2392	Paya Lan	ဘုရားလမ်း	Yangon-Insein Road	ရန်ကုန်-အင်းစိန်လမ်း	Hlaing	လှိုင်	16.8577458299178	96.1235475540161
77	75	1223	Thamine Lan Son	သမိုင်းလမ်းဆုံ	Yangon-Insein Road	ရန်ကုန်-အင်းစိန်လမ်း	Mayangone	မရမ်းကုန်း	16.86102136801801	96.12232748419049
77	76	1220	Thamine Lan Son	သမိုင်းလမ်းဆုံ	Kyaik Wine Pagoda Road	ကျိုက်ဝိုင်းဘုရားလမ်း	Mayangone	မရမ်းကုန်း	16.86312673887559	96.12246465403588
77	77	1256	Ye Yan Aung	ရဲရန်အောင်	Kyaik Wine Pagoda Road	ကျိုက်ဝိုင်းဘုရားလမ်း	Mayangone	မရမ်းကုန်း	16.866135	96.126088
77	78	1254	Kyaik Wine	ကျိုက်ဝိုင်း	Kyaik Wine Pagoda Road	ကျိုက်ဝိုင်းဘုရားလမ်း	Mayangone	မရမ်းကုန်း	16.86653579926606	96.12866910640152
77	79	1270	Ye Baw Haung	ရဲဘော်ဟောင်း	Kyaik Wine Pagoda Road	ကျိုက်ဝိုင်းဘုရားလမ်း	Mayangone	မရမ်းကုန်း	16.867445677792176	96.13734274171294
77	80	1266	Shit Mile	(၈) မိုင်	Kyaik Wine Pagoda Road	ကျိုက်ဝိုင်းဘုရားလမ်း	Mayangone	မရမ်းကုန်း	16.864713	96.141169
77	81	1268	Shit Mile	(၈) မိုင်	Pyay Road	ပြည်လမ်း	Mayangone	မရမ်းကုန်း	16.867474574530302	96.14175093127416
77	82	1261	Mahar Si	မဟာစည်	Pyay Road	ပြည်လမ်း	Mayangone	မရမ်းကုန်း	16.87252746521005	96.13994339480998
77	83	1259	A One	အေဝမ်း	Pyay Road	ပြည်လမ်း	Mayangone	မရမ်းကုန်း	16.877625558710985	96.13767097704114
77	84	1298	Koe Mile	(၉) မိုင်	Pyay Road	ပြည်လမ်း	Mayangone	မရမ်းကုန်း	16.880519	96.13626
77	85	1300	Koe Mile Khawe	(၉) မိုင်ခွဲ	Pyay Road	ပြည်လမ်း	Mayangone	မရမ်းကုန်း	16.88384696413571	96.13588529638947
77	86	40	Sae-Mile Kone	(၁၀) မိုင်ကုန်း	Pyay Road	ပြည်လမ်း	Insein	အင်းစိန်	16.88897721453234	96.12986868247393
77	87	1295	A Way Pyay	အဝေးပြေး	Pyay Road	ပြည်လမ်း	Insein	အင်းစိန်	16.888651646674504	96.12301192944871
77	88	1340	Ar Lain Ngar Sint	အာလိန်ငါးဆင့်	Lan Thit Road	လမ်းသစ်လမ်း	Insein	အင်းစိန်	16.89157790749199	96.11658990383148
77	89	1354	Workshop	ဝပ်ရှော့	Lan Thit Road	လမ်းသစ်လမ်း	Insein	အင်းစိန်	16.891200332528562	96.11466914881022
77	90	1352	Oakyin Wa	အုတ်ကျင်းဝ	Lan Thit Road	လမ်းသစ်လမ်း	Insein	အင်းစိန်	16.890591511108763	96.11145546427
77	91	2196	Insein Pan Chan	အင်းစိန်ပန်းခြံ	Lan Thit Road	လမ်းသစ်လမ်း	Insein	အင်းစိန်	16.888589689064485	96.10769888386132
77	92	1347	Insein Say Yon Gyi	အင်းစိန်ဆေးရုံကြီး	Min Gyi Road	မင်းကြီးလမ်း	Insein	အင်းစိန်	16.892232	96.105865
77	93	1349	Ma Nya Ka	မညက	Min Gyi Street	မင်းကြီးလမ်းသွယ်	Insein	အင်းစိန်	16.896944	96.105124
77	94	1369	Hight Pak	ဟိုက်ပက်	Min Gyi Road	မင်းကြီးလမ်း	Insein	အင်းစိန်	16.898659	96.10567
77	95	1368	Bo Kone	ဗိုလ်ကုန်း	Min Gyi Road	မင်းကြီးလမ်း	Insein	အင်းစိန်	16.900917	96.1067
77	96	1366	Thayet Taw	သရက်တော	Min Gyi Road	မင်းကြီးလမ်း	Insein	အင်းစိန်	16.90230017160356	96.1028949217871
77	97	1359	Pyi Taw Thar	ပြည်တော်သာ	Min Gyi Road	မင်းကြီးလမ်း	Insein	အင်းစိန်	16.900780188855	96.097832985688
77	98	1361	Pyi Taw Thar/ G.T.I Htate	ပြည်တော်သာ/(GTI)ထိပ်	Lower Mingalardon Road	အောက်မင်္ဂလာဒုံလမ်း	Insein	အင်းစိန်	16.900988906263134	96.09709422569722
77	99	44	Japan Lan	ဂျပန်လမ်း	Lower Mingalardon Road	အောက်မင်္ဂလာဒုံလမ်း	Insein	အင်းစိန်	16.90502450516036	96.09781016595663
77	100	1356	Phot Kan Zay	ဖော့ကန်ဈေး	Lower Mingalardon Road	အောက်မင်္ဂလာဒုံလမ်း	Insein	အင်းစိန်	16.907637768103342	96.0976756573655
77	101	1364	Saung Hnit	ဆောင် (၂)	Lower Mingalardon Road	အောက်မင်္ဂလာဒုံလမ်း	Insein	အင်းစိန်	16.911906288978923	96.09734033932911
77	102	42	Tit Gate	(၁) ဂိတ်	Lower Mingalardon Road	အောက်မင်္ဂလာဒုံလမ်း	Insein	အင်းစိန်	16.915288559472796	96.0973123995973
77	103	1381	Kyaung Gate	ကျောင်းဂိတ်	Lower Mingalardon Road	အောက်မင်္ဂလာဒုံလမ်း	Insein	အင်းစိန်	16.91788444547496	96.09746233792977
77	104	1378	Aung San Zay	အောင်ဆန်းဈေး	Lower Mingalardon Road	အောက်မင်္ဂလာဒုံလမ်း	Insein	အင်းစိန်	16.92132490016646	96.0976821674194
77	105	1384	Ywar Thit	ရွာသစ်	Lower Mingalardon Road	အောက်မင်္ဂလာဒုံလမ်း	Insein	အင်းစိန်	16.925462798129	96.09860481228681
77	106	1380	Bo Chan	ဘိုခြံ	Lower Mingalardon Road	အောက်မင်္ဂလာဒုံလမ်း	Insein	အင်းစိန်	16.930007017169302	96.10109809320423
77	107	69	Danyin Gone Lan Sone	ဒညင်းကုန်းလမ်းဆုံ	Lower Mingalardon Road	အောက်မင်္ဂလာဒုံလမ်း	Insein	အင်းစိန်	16.933232955911787	96.10197149799207
77	108	1514	Sauk Lote Yae	ဆောက်လုပ်ရေး	No. 4 Main Road	အမှတ်(၄)လမ်းမ	Shwe Pyithar	ရွှေပြည်သာ	16.941071	96.102753
77	109	1512	Phone Gyi Kyaung	ဘုန်းကြီးကျောင်း	No. 4 Main Road	အမှတ်(၄)လမ်းမ	Shwe Pyithar	ရွှေပြည်သာ	16.942795	96.102796
77	110	1510	Myin Hlae Gate	မြင်းလှည်းဂိတ်	No. 4 Main Road	အမှတ်(၄)လမ်းမ	Shwe Pyithar	ရွှေပြည်သာ	16.94414	96.10285
77	111	1535	Palae Lan	ပုလဲလမ်း	Industrial Road	စက်မှုဇုန်လမ်း	Shwe Pyithar	ရွှေပြည်သာ	16.944008147065258	96.08448151499033
