svc_name	sequence	stop_id	name_en	name_mm	road_en	road_mm	township_en	township_mm	lat	lng
84	1	488	Lay-sae-koe Asane Gate	(၄၉) အစိမ်းဂိတ်	Shukinthar Myo Pat Road	ရှူ့ခင်းသာမြို့ပတ်လမ်း	Thaketa	သာကေတ	16.791127	96.211778
84	2	486	Kyel Ngar Pwint	ကြယ်ငါးပွင့်	Shukinthar Myo Pat Road	ရှူ့ခင်းသာမြို့ပတ်လမ်း	Thaketa	သာကေတ	16.791294026965303	96.21000692714006
84	3	498	Waizayantar	ဝေဇယန္တာ	Shukinthar Myo Pat Road	ရှူ့ခင်းသာမြို့ပတ်လမ်း	Thaketa	သာကေတ	16.79167350648468	96.20764423627409
84	4	492	Ngar Kwae	(၅) ကွေ့	Zingama Road	ဇင်းဂမာလမ်း	Thaketa	သာကေတ	16.791695112480173	96.20653652586046
84	5	502	Yoke Shin Yon	ရုပ်ရှင်ရုံ	Zingama Road	ဇင်းဂမာလမ်း	Thaketa	သာကေတ	16.792878683953163	96.20340728899467
84	6	460	Htu Par Yon	ထူပါရုံ	Zingama Road	ဇင်းဂမာလမ်း	Thaketa	သာကေတ	16.793742093865724	96.20135843753815
84	7	400	Anawmar	အနော်မာ	Zingama Road	ဇင်းဂမာလမ်း	Thaketa	သာကေတ	16.795256	96.198171
84	8	396	Tit Zay Kwae	(၁) ဈေးကွေ့	Min Nandar Road	မင်းနန္ဒာလမ်း	Thaketa	သာကေတ	16.796488092042647	96.19548192713411
84	9	409	Tat Phwet	တပ်ဖွဲ့	Min Nandar Road	မင်းနန္ဒာလမ်း	Thaketa	သာကေတ	16.799601	96.196862
84	10	407	Myayni Lan	မြေနီလမ်း	Min Nandar Road	မင်းနန္ဒာလမ်း	Thaketa	သာကေတ	16.802389	96.19669
84	11	405	Kyauk Taing	ကျောက်တိုင်	Min Nandar Road	မင်းနန္ဒာလမ်း	Thaketa	သာကေတ	16.803721707193578	96.19594672461973
84	12	2394	Thuwunna Lan Sone	သုဝဏ္ဏလမ်းဆုံ	Waizayandar Road	ဝေဇယန္တာလမ်း	Thingangyun	သင်္ဃန်းကျွန်း	16.813132865739	96.1919460841455
84	13	357	Athin Taik	အသင်းတိုက်	Lay Daung Kan Road	လေးထောင့်ကန်လမ်း	Thingangyun	သင်္ဃန်းကျွန်း	16.823051124563765	96.18346382863821
84	14	360	Khap Chee Yar	ခပ်ချီးယား	Lay Daung Kan Road	လေးထောင့်ကန်လမ်း	Thingangyun	သင်္ဃန်းကျွန်း	16.826177192022	96.18658434832471
84	15	366	Zawana	ဇဝန	Lay Daung Kan Road	လေးထောင့်ကန်လမ်း	Thingangyun	သင်္ဃန်းကျွန်း	16.827762389884697	96.18795190133825
84	16	615	Paya Lan	ဘုရားလမ်း	Lay Daung Kan Road	လေးထောင့်ကန်လမ်း	Thingangyun	သင်္ဃန်းကျွန်း	16.830733889574624	96.1931522190571
84	17	601	B.O.C	ဘီအိုစီ	Lay Daung Kan Road	လေးထောင့်ကန်လမ်း	Thingangyun	သင်္ဃန်းကျွန်း	16.832662314235495	96.19507358176634
84	18	610	Kalar Su	ကုလားစု	Lay Daung Kan Road	လေးထောင့်ကန်လမ်း	Thingangyun	သင်္ဃန်းကျွန်း	16.834930861177277	96.19739677291366
84	19	598	Bawa Myint	ဘဝမြင့်	Lay Daung Kan Road	လေးထောင့်ကန်လမ်း	Thingangyun	သင်္ဃန်းကျွန်း	16.837140047336906	96.19967010581604
84	20	2161	Myittar Shwe Yi	မေတ္တာရွှေရည်	Lay Daung Kan Road	လေးထောင့်ကန်လမ်း	Thingangyun	သင်္ဃန်းကျွန်း	16.838646395702437	96.20123337233963
84	21	635	Sanpya Zay/ Nga Moe Yeik	စံပြဈေး/ ငမိုးရိပ်	Lay Daung Kan Road	လေးထောင့်ကန်လမ်း	Thingangyun	သင်္ဃန်းကျွန်း	16.84200212059943	96.20458014775069
84	22	632	Sanpya Zay/ Nga Moe Yeik	စံပြဈေး/ ငမိုးရိပ်	Thanthumar Road	သံသုမာလမ်း	Thingangyun	သင်္ဃန်းကျွန်း	16.843207619927515	96.2040531774983
84	23	613	Lai Sin Yone	လိုင်စင်ရုံး	Thanthumar Road	သံသုမာလမ်း	Thingangyun	သင်္ဃန်းကျွန်း	16.845855511844686	96.20105572510512
84	24	1090	Se Man Kane	စီမံကိန်း	Thanthumar Road	သံသုမာလမ်း	South Okkalapa	တောင်ဥက္ကလာပ	16.84748429583662	96.19847623631361
84	25	1088	Thone-sae-tit Gate/ Tit Gate	(၃၁) ဂိတ်/(၁) ဂိတ်	Thanthumar Road	သံသုမာလမ်း	South Okkalapa	တောင်ဥက္ကလာပ	16.84893896654162	96.19427426252517
84	26	1087	Moe Swe	မိုးစွေ	Thanthumar Road	သံသုမာလမ်း	South Okkalapa	တောင်ဥက္ကလာပ	16.850142356003158	96.18960512336345
84	27	2129	Kyaetamar	ကျေးတမာ	Thanthumar Road	သံသုမာလမ်း	South Okkalapa	တောင်ဥက္ကလာပ	16.851082075031954	96.18764438666405
84	28	1083	Taung Okkalar Paya	တောင်ဥက္ကလာပဘုရား	Thanthumar Road	သံသုမာလမ်း	South Okkalapa	တောင်ဥက္ကလာပ	16.8528135748857	96.18543030694127
84	29	2127	Thanat Pyit Kwin	သေနတ်ပစ်ကွင်း	Thanthumar Road	သံသုမာလမ်း	South Okkalapa	တောင်ဥက္ကလာပ	16.854523480112608	96.18384222965688
84	30	1079	Myin Thar Zay	မြင်သာဈေး	Thanthumar Road	သံသုမာလမ်း	South Okkalapa	တောင်ဥက္ကလာပ	16.85684434759549	96.1818828759715
84	31	1075	Bay Li	ဘေလီ	Thanthumar Road	သံသုမာလမ်း	South Okkalapa	တောင်ဥက္ကလာပ	16.85981610253591	96.17896331241356
84	32	981	Chauk Lan	(၆) လမ်း	U Wisara Road	ဦးဝိစာရလမ်း	North Dagon	မြောက်ဒဂုံ	16.869100084134192	96.1779241450131
84	33	984	Hong Kong	ဟောင်ကောင်	U Wisara Road	ဦးဝိစာရလမ်း	North Dagon	မြောက်ဒဂုံ	16.87201549863516	96.1762579274364
84	34	980	Ah Kyaw Tae	အကြော်တဲ	U Wisara Road	ဦးဝိစာရလမ်း	North Dagon	မြောက်ဒဂုံ	16.874505655242782	96.17445806041361
84	35	1293	Saik Shae	စိုက်ရှေ့	U Wisara Road	ဦးဝိစာရလမ်း	North Dagon	မြောက်ဒဂုံ	16.875632321960424	96.17302861064675
84	36	1291	Kar Lay Gate	ကားလေးဂိတ်	U Wisara Road	ဦးဝိစာရလမ်း	North Dagon	မြောက်ဒဂုံ	16.87791669600555	96.17177469888705
84	37	926	Khun/ Shit Lan Sone	(၇/၈) လမ်းဆုံ	Pyi Htaung Su Main Road	ပြည်ထောင်စုလမ်းမကြီး	North Dagon	မြောက်ဒဂုံ	16.890982561398648	96.19669476756827
84	38	1290	Kar Lay Gate	ကားလေးဂိတ်	U Wisara Road	ဦးဝိစာရလမ်း	North Dagon	မြောက်ဒဂုံ	16.87786	96.171649
84	39	1292	Saik Shae	စိုက်ရှေ့	U Wisara Road	ဦးဝိစာရလမ်း	North Dagon	မြောက်ဒဂုံ	16.875322773024763	96.173000195995
84	40	979	Ah Kyaw Tae	အကြော်တဲ	U Wisara Road	ဦးဝိစာရလမ်း	North Dagon	မြောက်ဒဂုံ	16.874492460693673	96.17423740681262
84	41	983	Hong Kong	ဟောင်ကောင်	U Wisara Road	ဦးဝိစာရလမ်း	North Dagon	မြောက်ဒဂုံ	16.87179108795379	96.17623246740551
84	42	982	Chauk Lan	(၆) လမ်း	U Wisara Road	ဦးဝိစာရလမ်း	North Dagon	မြောက်ဒဂုံ	16.869185189383792	96.17767708841713
84	43	2124	Bay Li	ဘေလီ	Thanthumar Road	သံသုမာလမ်း	South Okkalapa	တောင်ဥက္ကလာပ	16.859959	96.178682
84	44	1078	Myin Thar Zay	မြင်သာဈေး	Thanthumar Road	သံသုမာလမ်း	South Okkalapa	တောင်ဥက္ကလာပ	16.85676082108605	96.18179788347335
84	45	2128	Thanat Pyit Kwin	သေနတ်ပစ်ကွင်း	Thanthumar Road	သံသုမာလမ်း	South Okkalapa	တောင်ဥက္ကလာပ	16.85446	96.183724
84	46	1082	Taung Okkalar Paya	တောင်ဥက္ကလာပဘုရား	Thanthumar Road	သံသုမာလမ်း	South Okkalapa	တောင်ဥက္ကလာပ	16.852719277159586	96.18528316263111
84	47	2146	Kyaetamar	ကျေးတမာ	Thanthumar Road	သံသုမာလမ်း	South Okkalapa	တောင်ဥက္ကလာပ	16.85099840559265	96.1875297012739
84	48	1086	Moe Swe	မိုးစွေ	Thanthumar Road	သံသုမာလမ်း	South Okkalapa	တောင်ဥက္ကလာပ	16.850043765153913	96.18949697585776
84	49	2126	Thone-sae-tit Gate/ Tit Gate	(၃၁) ဂိတ်/(၁) ဂိတ်	Thanthumar Road	သံသုမာလမ်း	South Okkalapa	တောင်ဥက္ကလာပ	16.84888036518613	96.1940199136734
84	50	1089	Se Man Kane	စီမံကိန်း	Thanthumar Road	သံသုမာလမ်း	South Okkalapa	တောင်ဥက္ကလာပ	16.84743423762148	96.19840957922862
84	51	2403	Lai Sin Yone	လိုင်စင်ရုံး	Thanthumar Road	သံသုမာလမ်း	Thingangyun	သင်္ဃန်းကျွန်း	16.8462149068633	96.2004411220551
84	52	633	Sanpya Zay/ Nga Moe Yeik	စံပြဈေး/ ငမိုးရိပ်	Thanthumar Road	သံသုမာလမ်း	Thingangyun	သင်္ဃန်းကျွန်း	16.8433089218738	96.20381052140148
84	53	634	Sanpya Zay/ Nga Moe Yeik	စံပြဈေး/ ငမိုးရိပ်	Lay Daung Kan Road	လေးထောင့်ကန်လမ်း	Thingangyun	သင်္ဃန်းကျွန်း	16.84191124705454	96.20437290519476
84	54	2160	Myittar Shwe Yi	မေတ္တာရွှေရည်	Lay Daung Kan Road	လေးထောင့်ကန်လမ်း	Thingangyun	သင်္ဃန်းကျွန်း	16.838714941415013	96.20109388371932
84	55	597	Bawa Myint	ဘဝမြင့်	Lay Daung Kan Road	လေးထောင့်ကန်လမ်း	Thingangyun	သင်္ဃန်းကျွန်း	16.837495855328342	96.19981845142321
84	56	609	Kalar Su	ကုလားစု	Lay Daung Kan Road	လေးထောင့်ကန်လမ်း	Thingangyun	သင်္ဃန်းကျွန်း	16.835010345871222	96.19727026904003
84	57	602	B.O.C	ဘီအိုစီ	Lay Daung Kan Road	လေးထောင့်ကန်လမ်း	Thingangyun	သင်္ဃန်းကျွန်း	16.83286665425466	96.1950981616974
84	58	616	Paya Lan	ဘုရားလမ်း	Lay Daung Kan Road	လေးထောင့်ကန်လမ်း	Thingangyun	သင်္ဃန်းကျွန်း	16.83113763950624	96.19334714021535
84	59	367	Zawana	ဇဝန	Lay Daung Kan Road	လေးထောင့်ကန်လမ်း	Thingangyun	သင်္ဃန်းကျွန်း	16.82807920732785	96.18817041395235
84	60	368	Zawana	ဇဝန	Thu Mingalar Road	သုမင်္ဂလာလမ်း	Thingangyun	သင်္ဃန်းကျွန်း	16.828169138152795	96.18795208289158
84	61	361	Khap Chee Yar	ခပ်ချီးယား	Lay Daung Kan Road	လေးထောင့်ကန်လမ်း	Thingangyun	သင်္ဃန်းကျွန်း	16.826197871436484	96.18649849668148
84	62	356	Athin Taik	အသင်းတိုက်	Lay Daung Kan Road	လေးထောင့်ကန်လမ်း	Thingangyun	သင်္ဃန်းကျွန်း	16.82307152350803	96.1833661585115
84	63	572	Thuwunna Lan Sone	သုဝဏ္ဏလမ်းဆုံ	Waizayandar Road	ဝေဇယန္တာလမ်း	Thingangyun	သင်္ဃန်းကျွန်း	16.815698094823947	96.1900429520756
84	64	406	Kyauk Taing	ကျောက်တိုင်	Min Nandar Road	မင်းနန္ဒာလမ်း	Thaketa	သာကေတ	16.804654	96.195043
84	65	408	Myayni Lan	မြေနီလမ်း	Min Nandar Road	မင်းနန္ဒာလမ်း	Thaketa	သာကေတ	16.80246923659517	96.19655983988197
84	66	410	Tat Phwet	တပ်ဖွဲ့	Min Nandar Road	မင်းနန္ဒာလမ်း	Thaketa	သာကေတ	16.799613273416288	96.1967783770524
84	67	395	Tit Zay Kwae	(၁) ဈေးကွေ့	Min Nandar Road	မင်းနန္ဒာလမ်း	Thaketa	သာကေတ	16.796411660495362	96.19534104829656
84	68	399	Anawmar	အနော်မာ	Zingama Road	ဇင်းဂမာလမ်း	Thaketa	သာကေတ	16.795174	96.19815
84	69	459	Htu Par Yon	ထူပါရုံ	Zingama Road	ဇင်းဂမာလမ်း	Thaketa	သာကေတ	16.79380544668175	96.20100459549576
84	70	501	Yoke Shin Yon	ရုပ်ရှင်ရုံ	Zingama Road	ဇင်းဂမာလမ်း	Thaketa	သာကေတ	16.79281159945252	96.2031506560743
84	71	491	Ngar Kwae	(၅) ကွေ့	Zingama Road	ဇင်းဂမာလမ်း	Thaketa	သာကေတ	16.791271	96.206392
84	72	497	Waizayantar	ဝေဇယန္တာ	Shukinthar Myo Pat Road	ရှူ့ခင်းသာမြို့ပတ်လမ်း	Thaketa	သာကေတ	16.791579	96.207443
84	73	485	Kyel Ngar Pwint	ကြယ်ငါးပွင့်	Shukinthar Myo Pat Road	ရှူ့ခင်းသာမြို့ပတ်လမ်း	Thaketa	သာကေတ	16.791209	96.209632
84	74	487	Lay-sae-koe Asane Gate	(၄၉) အစိမ်းဂိတ်	Shukinthar Myo Pat Road	ရှူ့ခင်းသာမြို့ပတ်လမ်း	Thaketa	သာကေတ	16.790983	96.211327
