svc_name	sequence	stop_id	name_en	name_mm	road_en	road_mm	township_en	township_mm	lat	lng
61	1	24	Nee Pyinyar Takke Tho	နည်းပညာတက္ကသိုလ်	University of Technology	နည်းပညာတက္ကသိုလ်	Hlaing Tharyar	လှိုင်သာယာ	16.86792382699761	96.01142664905639
61	2	2351	Dagon Ayar A Way Pyay	ဒဂုံဧရာအဝေးပြေး	No. 5 Main Road	အမှတ်(၅)လမ်းမ	Hlaing Tharyar	လှိုင်သာယာ	16.87796967376101	96.02406488265842
61	3	1125	Thama Kone	သမကုန်း	No. 5 Main Road	အမှတ်(၅)လမ်းမ	Hlaing Tharyar	လှိုင်သာယာ	16.874114310138687	96.0335786570795
61	4	1121	B.O.C	ဘီအိုစီ	No. 5 Main Road	အမှတ်(၅)လမ်းမ	Hlaing Tharyar	လှိုင်သာယာ	16.87264850336244	96.03750987444076
61	5	1123	Sanay Ma	စနေမ	No. 5 Main Road	အမှတ်(၅)လမ်းမ	Hlaing Tharyar	လှိုင်သာယာ	16.872309492066083	96.04157363064589
61	6	1130	Mee Khwat Zay	မီးခွက်ဈေး	Nyaung Done Road	ညောင်တန်းလမ်း	Hlaing Tharyar	လှိုင်သာယာ	16.8737204576502	96.05064585344736
61	7	2228	Yone Shae	ရုံးရှေ့	Nyaung Done Road	ညောင်တန်းလမ်း	Hlaing Tharyar	လှိုင်သာယာ	16.87554135084313	96.06214673956858
61	8	1134	Ngar Htate	(၅) ထိပ်	Nyaung Done Road	ညောင်တန်းလမ်း	Hlaing Tharyar	လှိုင်သာယာ	16.876926030577906	96.0713158154249
61	9	1138	Thone Htate	(၃) ထိပ်	Nyaung Done Road	ညောင်တန်းလမ်း	Hlaing Tharyar	လှိုင်သာယာ	16.8775803210003	96.07509382534774
61	10	30	Tit Htate	(၁) ထိပ်	Nyaung Done Road	ညောင်တန်းလမ်း	Hlaing Tharyar	လှိုင်သာယာ	16.87808727951249	96.07841787859799
61	11	1322	Insein Kannar	အင်းစိန်ကမ်းနား	Hlaing River Road	လှိုင်မြစ်လမ်း	Insein	အင်းစိန်	16.883421651001527	96.09407741110773
61	12	1330	Pauk Taw Wa	ပေါက်တောဝ	Bayint Naung Road	ဘုရင့်နောင်လမ်း	Insein	အင်းစိန်	16.884824192173284	96.09771021176131
61	13	1305	Nyaung Pin	ညောင်ပင်	Bayint Naung Road	ဘုရင့်နောင်လမ်း	Insein	အင်းစိန်	16.88148744768163	96.09900986775757
61	14	1302	Myo Thit Zay	မြို့သစ်ဈေးု	Bayint Naung Road	ဘုရင့်နောင်လမ်း	Insein	အင်းစိန်	16.879021345302874	96.09977603657171
61	15	1306	Padauk Lan	ပိတောက်လမ်း	Bayint Naung Road	ဘုရင့်နောင်လမ်း	Insein	အင်းစိန်	16.875324	96.101637
61	16	1314	Kyoe Kone Lan Sone	ကြို့ကုန်းလမ်းဆုံ	Bayint Naung Road	ဘုရင့်နောင်လမ်း	Insein	အင်းစိန်	16.871474	96.104232
61	17	1308	Bayint Naung Zay/ Zay Pwae Yon	ဘုရင့်နောင်ဈေး/ဈေးပွဲရုံ	Bayint Naung Road	ဘုရင့်နောင်လမ်း	Mayangone	မရမ်းကုန်း	16.864245	96.106743
61	18	1193	Bayint Naung Lan Sone	ဘုရင့်နောင်လမ်းဆုံ	Bayint Naung Road	ဘုရင့်နောင်လမ်း	Mayangone	မရမ်းကုန်း	16.862482665993724	96.10756609356032
61	19	1195	Bayint Naung Lan Sone	ဘုရင့်နောင်လမ်းဆုံ	Thamine Buteryon Road	သမိုင်းဘူတာရုံလမ်း	Mayangone	မရမ်းကုန်း	16.859289522179772	96.10922870691867
61	20	1208	Zay Butar	ဈေးဘူတာ	Thamine Buteryon Road	သမိုင်းဘူတာရုံလမ်း	Mayangone	မရမ်းကုန်း	16.860016582911346	96.11289853462951
61	21	1225	U Ba Han	ဦးဘဟန်	Thamine Buteryon Road	သမိုင်းဘူတာရုံလမ်း	Mayangone	မရမ်းကုန်း	16.861083	96.118365
61	22	2200	Kyway Tit	ကြွေ (၁)	Thamine Buteryon Road	သမိုင်းဘူတာရုံလမ်း	Mayangone	မရမ်းကုန်း	16.861146243839613	96.12073119264097
61	23	1223	Thamine Lan Son	သမိုင်းလမ်းဆုံ	Yangon-Insein Road	ရန်ကုန်-အင်းစိန်လမ်း	Mayangone	မရမ်းကုန်း	16.86102136801801	96.12232748419049
61	24	2392	Paya Lan	ဘုရားလမ်း	Yangon-Insein Road	ရန်ကုန်-အင်းစိန်လမ်း	Hlaing	လှိုင်	16.8577458299178	96.1235475540161
61	25	1218	Oakyin	အုတ်ကျင်း	Yangon-Insein Road	ရန်ကုန်-အင်းစိန်လမ်း	Hlaing	လှိုင်	16.85535357935823	96.12357353791595
61	26	1211	Bartar	ဘာတာ	Yangon-Insein Road	ရန်ကုန်-အင်းစိန်လမ်း	Hlaing	လှိုင်	16.852028788549283	96.12414786592129
61	27	1180	Than Lan	သံလမ်း	Yangon-Insein Road	ရန်ကုန်-အင်းစိန်လမ်း	Hlaing	လှိုင်	16.846071	96.125475
61	28	1182	Thukha	သုခ	Yangon-Insein Road	ရန်ကုန်-အင်းစိန်လမ်း	Hlaing	လှိုင်	16.840511	96.12683
61	29	1171	Butar Yon Lan	ဘူတာရုံလမ်း	Yangon-Insein Road	ရန်ကုန်-အင်းစိန်လမ်း	Hlaing	လှိုင်	16.837466	96.127449
61	30	1176	Sin Yae Twin	ဆင်ရေတွင်း	Yangon-Insein Road	ရန်ကုန်-အင်းစိန်လမ်း	Kamayut	ကမာရွတ်	16.833769	96.128565
61	31	1174	San Yeik Nyein	စံရိပ်ငြိမ်	Yangon-Insein Road	ရန်ကုန်-အင်းစိန်လမ်း	Kamayut	ကမာရွတ်	16.83080186323241	96.12952651223169
61	32	288	Hledan	လှည်းတန်း	Yangon-Insein Road	ရန်ကုန်-အင်းစိန်လမ်း	Kamayut	ကမာရွတ်	16.827968991730348	96.13019763026388
61	33	320	Saik Pyoe Yay	စိုက်ပျိုးရေး	Pyay Road	ပြည်လမ်း	Kamayut	ကမာရွတ်	16.817302720172133	96.1332632484846
61	34	263	Hantharwaddy	ဟံသာဝတီ	Pyay Road	ပြည်လမ်း	San Chaung	စမ်းချောင်း	16.81193620836817	96.13480080384763
61	35	265	Mahar Myaing	မဟာမြိုင်	Pyay Road	ပြည်လမ်း	San Chaung	စမ်းချောင်း	16.80813755165241	96.13589079341183
61	36	269	Myaynigone	မြေနီကုန်း (ပြည်လမ်း)	Pyay Road	ပြည်လမ်း	San Chaung	စမ်းချောင်း	16.805399	96.136748
61	37	267	Myaynigone	မြေနီကုန်း	Bargayar Road	ဗားဂရာလမ်း	San Chaung	စမ်းချောင်း	16.8037478786025	96.13814299016668
61	38	2389	Wizaya Plaza	ဝိဇယပလာဇာ	Dhamazedi Road	ဓမ္မစေတီလမ်း	Bahan	ဗဟန်း	16.8050307383558	96.1434358686529
61	39	222	Link Lan	လင့်လမ်း	Shwe Gon Road	ရွှေဂုံလမ်း	Bahan	ဗဟန်း	16.805999079236297	96.14723340186174
61	40	224	Oak Lan	အုတ်လမ်း	West Shwe Gon Daing Road	အနောက်ရွှေဂုံတိုင်လမ်း	Bahan	ဗဟန်း	16.804344087884044	96.1511853185948
61	41	228	Shwe Gon Daing	ရွှေဂုံတိုင်	West Shwe Gon Daing Road	အနောက်ရွှေဂုံတိုင်လမ်း	Bahan	ဗဟန်း	16.805293836643138	96.15444100694732
61	42	230	Shwe Gon Daing	ရွှေဂုံတိုင်	Kabar Aye Pagoda Road	ကမ္ဘာအေးဘုရားလမ်း	Bahan	ဗဟန်း	16.80519530942897	96.1557773128152
61	43	209	Bahan Thone Lan	ဗဟန်းသုံးလမ်း	Bahan Road	ဗဟန်းလမ်း	Bahan	ဗဟန်း	16.798049388513782	96.15706854499878
61	44	202	Kyauk Taing	ကျောက်တိုင်	ZOOlogical Garden Road	တိရိစ္ဆာန်ဥယျာဉ်လမ်း	Dagon	ဒဂုံ	16.7887528427616	96.15719425259158
61	45	194	Youk Lan	ယောက်လမ်း	Alanpya Pagoda Road	အလံပြဘုရားလမ်း	Dagon	ဒဂုံ	16.7826821164587	96.15895088994877
61	46	144	Yoke Shin Yon	ရုပ်ရှင်ရုံ	Sule Pagoda Road	ဆူးလေးဘုရားလမ်း	Pabedan	ပန်းဘဲတန်း	16.777455	96.158736
61	47	141	Sule Myodaw Khan Ma	ဆူးလေမြို့တော်ခန်းမ	Sule Pagoda Road	ဆူးလေးဘုရားလမ်း	Kyauktada	ကျောက်တံတား	16.775683412852157	96.15891139023006
61	48	195	Youk Lan	ယောက်လမ်း	Gyo Phyu Road	ဂျိုးဖြူလမ်း	Mingalar Taung Nyunt	မင်္ဂလာတောင်ညွန့်	16.785509	96.159488
61	49	203	Kyauk Taing	ကျောက်တိုင်	ZOOlogical Garden Road	တိရိစ္ဆာန်ဥယျာဉ်လမ်း	Dagon	ဒဂုံ	16.789040545760724	96.15748437121512
61	50	208	Bahan Thone Lan	ဗဟန်းသုံးလမ်း	Bahan Road	ဗဟန်းလမ်း	Bahan	ဗဟန်း	16.79706005725926	96.15702768322082
61	51	210	Yae Khae Saing	ရေခဲဆိုင်	Koe Min Ko Chin Road	ကိုယ်မင်းကိုယ်ချင်းလမ်း	Bahan	ဗဟန်း	16.801598383916467	96.15790716849006
61	52	2425	Shwe Gon Daing	ရွှေဂုံတိုင်	Kabar Aye Pagoda Road	ကမ္ဘာအေးဘုရားလမ်း	Bahan	ဗဟန်း	16.8052802428109	96.1559515935369
61	53	229	Shwe Gon Daing	ရွှေဂုံတိုင်	West Shwe Gon Daing Road	အနောက်ရွှေဂုံတိုင်လမ်း	Bahan	ဗဟန်း	16.805571665361676	96.15438880864532
61	54	225	Oak Lan	အုတ်လမ်း	West Shwe Gon Daing Road	အနောက်ရွှေဂုံတိုင်လမ်း	Bahan	ဗဟန်း	16.804480996918812	96.15122687187979
61	55	223	Link Lan	လင့်လမ်း	Shwe Gon Road	ရွှေဂုံလမ်း	Bahan	ဗဟန်း	16.806090939455864	96.14742122246754
61	56	274	Wizaya Plaza	ဝိဇယပလာဇာ	Dhamazedi Road	ဓမ္မစေတီလမ်း	Bahan	ဗဟန်း	16.805219943235446	96.14327571864125
61	57	266	Myaynigone	မြေနီကုန်း	Bargayar Road	ဗားဂရာလမ်း	San Chaung	စမ်းချောင်း	16.803804	96.138814
61	58	264	Mahar Myaing	မဟာမြိုင်	Pyay Road	ပြည်လမ်း	San Chaung	စမ်းချောင်း	16.806672	96.13654
61	59	262	Hantharwaddy	ဟံသာဝတီ	Pyay Road	ပြည်လမ်း	San Chaung	စမ်းချောင်း	16.811922855564923	96.13503597189266
61	60	319	Saik Pyoe Yay	စိုက်ပျိုးရေး	Pyay Road	ပြည်လမ်း	Kamayut	ကမာရွတ်	16.817862	96.133326
61	61	287	Hledan	လှည်းတန်း	Yangon-Insein Road	ရန်ကုန်-အင်းစိန်လမ်း	Kamayut	ကမာရွတ်	16.827952	96.130435
61	62	1175	San Yeik Nyein	စံရိပ်ငြိမ်	Yangon-Insein Road	ရန်ကုန်-အင်းစိန်လမ်း	Kamayut	ကမာရွတ်	16.831942429089896	96.12954480573538
61	63	1177	Sin Yae Twin	ဆင်ရေတွင်း	Yangon-Insein Road	ရန်ကုန်-အင်းစိန်လမ်း	Kamayut	ကမာရွတ်	16.834325849790382	96.12863868009302
61	64	1170	Butar Yon Lan	ဘူတာရုံလမ်း	Yangon-Insein Road	ရန်ကုန်-အင်းစိန်လမ်း	Hlaing	လှိုင်	16.83729665475637	96.1277522519231
61	65	1181	Thukha	သုခ	Yangon-Insein Road	ရန်ကုန်-အင်းစိန်လမ်း	Hlaing	လှိုင်	16.84047	96.127017
61	66	1179	Than Lan	သံလမ်း	Yangon-Insein Road	ရန်ကုန်-အင်းစိန်လမ်း	Hlaing	လှိုင်	16.845174404267453	96.1259302776307
61	67	1212	Bartar	ဘာတာ	Yangon-Insein Road	ရန်ကုန်-အင်းစိန်လမ်း	Hlaing	လှိုင်	16.851150141657822	96.12455583410339
61	68	1217	Oakyin	အုတ်ကျင်း	Yangon-Insein Road	ရန်ကုန်-အင်းစိန်လမ်း	Hlaing	လှိုင်	16.854916470149714	96.12391686066985
61	69	1219	Paya Lan	ဘုရားလမ်း	Yangon-Insein Road	ရန်ကုန်-အင်းစိန်လမ်း	Hlaing	လှိုင်	16.858449573541584	96.1232297960669
61	70	1216	Kyway Tit	ကြွေ (၁)	Thamine Buteryon Road	သမိုင်းဘူတာရုံလမ်း	Mayangone	မရမ်းကုန်း	16.86129067214001	96.1205073958263
61	71	1224	U Ba Han	ဦးဘဟန်	Thamine Buteryon Road	သမိုင်းဘူတာရုံလမ်း	Mayangone	မရမ်းကုန်း	16.86117	96.118397
61	72	1207	Zay Butar	ဈေးဘူတာ	Thamine Buteryon Road	သမိုင်းဘူတာရုံလမ်း	Mayangone	မရမ်းကုန်း	16.860185	96.112882
61	73	1194	Bayint Naung Lan Sone	ဘုရင့်နောင်လမ်းဆုံ	Thamine Buteryon Road	သမိုင်းဘူတာရုံလမ်း	Mayangone	မရမ်းကုန်း	16.859507	96.109374
61	74	35	Dhamar Yon	ဓမ္မာရုံ	Bayint Naung Road	ဘုရင့်နောင်လမ်း	Mayangone	မရမ်းကုန်း	16.861069316974206	96.1081514018588
61	75	1309	Bayint Naung Zay/ Zay Pwae Yon	ဘုရင့်နောင်ဈေး/ဈေးပွဲရုံ	Bayint Naung Road	ဘုရင့်နောင်လမ်း	Mayangone	မရမ်းကုန်း	16.864492	96.10685
61	76	1315	Kyoe Kone Lan Sone	ကြို့ကုန်းလမ်းဆုံ	Bayint Naung Road	ဘုရင့်နောင်လမ်း	Insein	အင်းစိန်	16.871679	96.10449
61	77	1307	Padauk Lan	ပိတောက်လမ်း	Bayint Naung Road	ဘုရင့်နောင်လမ်း	Insein	အင်းစိန်	16.875683	96.101595
61	78	1303	Myo Thit Zay	မြို့သစ်ဈေးု	Bayint Naung Road	ဘုရင့်နောင်လမ်း	Insein	အင်းစိန်	16.87911318356011	96.10005002003163
61	79	1304	Nyaung Pin	ညောင်ပင်	Bayint Naung Road	ဘုရင့်နောင်လမ်း	Insein	အင်းစိန်	16.881557869464423	96.09919393435123
61	80	1329	Pauk Taw Wa	ပေါက်တောဝ	Bayint Naung Road	ဘုရင့်နောင်လမ်း	Insein	အင်းစိန်	16.884871212723404	96.09790085814895
61	81	1332	Pauk Taw Wa	ပေါက်တောဝ	Hlaing River Road	လှိုင်မြစ်လမ်း	Insein	အင်းစိန်	16.885151591308578	96.09710751101375
61	82	1323	Insein Kannar	အင်းစိန်ကမ်းနား	Hlaing River Road	လှိုင်မြစ်လမ်း	Insein	အင်းစိန်	16.88350071428124	96.09398344997318
61	83	31	Tit Htate	(၁) ထိပ်	Nyaung Done Road	ညောင်တန်းလမ်း	Hlaing Tharyar	လှိုင်သာယာ	16.878179559370544	96.07839642092587
61	84	1139	Thone Htate	(၃) ထိပ်	Nyaung Done Road	ညောင်တန်းလမ်း	Hlaing Tharyar	လှိုင်သာယာ	16.87769609222099	96.0750614047356
61	85	1135	Ngar Htate	(၅) ထိပ်	Nyaung Done Road	ညောင်တန်းလမ်း	Hlaing Tharyar	လှိုင်သာယာ	16.87705918419795	96.0712819453329
61	86	2229	Yone Shae	ရုံးရှေ့	Nyaung Done Road	ညောင်တန်းလမ်း	Hlaing Tharyar	လှိုင်သာယာ	16.875691697065914	96.06260942062363
61	87	1131	Mee Khwat Zay	မီးခွက်ဈေး	Nyaung Done Road	ညောင်တန်းလမ်း	Hlaing Tharyar	လှိုင်သာယာ	16.874082055613908	96.05199716635981
61	88	1124	Sanay Ma	စနေမ	No. 5 Main Road	အမှတ်(၅)လမ်းမ	Hlaing Tharyar	လှိုင်သာယာ	16.872406206400104	96.04160020127894
61	89	1122	B.O.C	ဘီအိုစီ	No. 5 Main Road	အမှတ်(၅)လမ်းမ	Hlaing Tharyar	လှိုင်သာယာ	16.872540258842154	96.03740002959967
61	90	1126	Thama Kone	သမကုန်း	No. 5 Main Road	အမှတ်(၅)လမ်းမ	Hlaing Tharyar	လှိုင်သာယာ	16.874178979592063	96.03369491407649
61	91	25	Dagon Ayar A Way Pyay	ဒဂုံဧရာအဝေးပြေး	No. 5 Main Road	အမှတ်(၅)လမ်းမ	Hlaing Tharyar	လှိုင်သာယာ	16.878047836977906	96.0241029993631
