svc_name	sequence	stop_id	name_en	name_mm	road_en	road_mm	township_en	township_mm	lat	lng
89-MyinTawThar	1	530	Shit Gate	(၈) ဂိတ်	Ayar Wun Main Road	ဧရာဝဏ်လမ်းမကြီး	Thaketa	သာကေတ	16.804948553065124	96.21374232228845
89-MyinTawThar	2	526	Myayni	မြေနီ	Ayar Wun Main Road	ဧရာဝဏ်လမ်းမကြီး	Thaketa	သာကေတ	16.803656271446375	96.21009707450868
89-MyinTawThar	3	521	Kyaung Kwae	ကျောင်းကွေ့	Myintawthar Road	မြင်တော်သာလမ်း	Thaketa	သာကေတ	16.803613042116037	96.2064541107975
89-MyinTawThar	4	528	Paya Shae	ဘုရားရှေ့	Myintawthar Road	မြင်တော်သာလမ်း	Thaketa	သာကေတ	16.80207503442768	96.20659907581286
89-MyinTawThar	5	516	Khun Zay	(၇) ဈေး	Myintawthar Road	မြင်တော်သာလမ်း	Thaketa	သာကေတ	16.798961508627155	96.2058216542937
89-MyinTawThar	6	520	Kyan Mar Yae	ကျန်းမာရေး	Myintawthar Road	မြင်တော်သာလမ်း	Thaketa	သာကေတ	16.796622960548277	96.20468148496003
89-MyinTawThar	7	500	Yoke Shin Yon	ရုပ်ရှင်ရုံ	Myintawthar Road	မြင်တော်သာလမ်း	Thaketa	သာကေတ	16.793286245858457	96.20301669230687
89-MyinTawThar	8	455	Nal Myay Yon	နယ်မြေရုံး	Myintawthar Road	မြင်တော်သာလမ်း	Thaketa	သာကေတ	16.79095866160968	96.20184789877386
89-MyinTawThar	9	464	Sar Taik	စာတိုက်	Myintawthar Road	မြင်တော်သာလမ်း	Thaketa	သာကေတ	16.789011	96.200877
89-MyinTawThar	10	465	Si Saing	ဆီဆိုင်	Myintawthar Road	မြင်တော်သာလမ်း	Thaketa	သာကေတ	16.78630246461242	96.19955349946396
89-MyinTawThar	11	462	Khin Ma Ma Kyar	ခင်မမကြား	Myintawthar Road	မြင်တော်သာလမ်း	Thaketa	သာကေတ	16.784192789327605	96.19857505895199
89-MyinTawThar	12	1610	Thone Zay	(၃) ဈေး	Myintawthar Road	မြင်တော်သာလမ်း	Thaketa	သာကေတ	16.781520723693188	96.1972337239422
89-MyinTawThar	13	458	Ashae Kyar	အရှေ့ကြား	Myintawthar Road	မြင်တော်သာလမ်း	Thaketa	သာကေတ	16.780623653626908	96.19684635428713
89-MyinTawThar	14	436	Thone Gate Haung	(၃) ဂိတ်ဟောင်း	Myintawthar Road	မြင်တော်သာလမ်း	Daw Bon	ဒေါပုံ	16.777643735181925	96.19553163181992
89-MyinTawThar	15	430	Man Pyae	မာန်ပြေ	Yamonar Road	ယမုံနာလမ်း	Daw Bon	ဒေါပုံ	16.778396729199493	96.1940399883315
89-MyinTawThar	16	478	Yan Pyay	ရန်ပြေ	Yamonar Road	ယမုံနာလမ်း	Daw Bon	ဒေါပုံ	16.779837585327368	96.19136542780326
89-MyinTawThar	17	472	Thinbaw Kyin	သင်္ဘောကျင်း	Yamonar Road	ယမုံနာလမ်း	Daw Bon	ဒေါပုံ	16.781293798309072	96.18871798273177
89-MyinTawThar	18	2219	Ocean	အိုးရှင်း	Mahabandoola Road	မဟာဗန္ဓုလလမ်း	Botahtaung	ဗိုလ်တထောင်	16.77371660996132	96.17738485336305
89-MyinTawThar	19	418	Gandee	ဂန္ဓီ	Merchant Road	ကုန်သည်လမ်း	Pazundaung	ပုဇွန်တောင်	16.771189	96.174722
89-MyinTawThar	20	162	Ye Sa Khan	ရဲစခန်း	Botahtaung Pagoda Road	ဗိုလ်တထောင်ဘုရားလမ်း	Botahtaung	ဗိုလ်တထောင်	16.771446709027767	96.17255423683675
89-MyinTawThar	21	155	Lan Ngar Sae	လမ်း(၅၀)	Merchant Road	ကုန်သည်လမ်း	Botahtaung	ဗိုလ်တထောင်	16.771425522061257	96.1712548742071
89-MyinTawThar	22	147	Bokalay Zay	ဘိုကလေးဈေး	Merchant Road	ကုန်သည်လမ်း	Kyauktada	ကျောက်တံတား	16.77159734508142	96.16637403616551
89-MyinTawThar	23	151	Pansodan (Seikkanthar)	ပန်းဆိုးတန်း (ဆိပ်ကမ်းသာလမ်း)	Merchant Road	ကုန်သည်လမ်း	Kyauktada	ကျောက်တံတား	16.77165175700966	96.16308339871469
89-MyinTawThar	24	139	Lan Thone Sae	လမ်း(၃၀)	Merchant Road	ကုန်သည်လမ်း	Pabedan	ပန်းဘဲတန်း	16.77192146900368	96.15661520976575
89-MyinTawThar	25	129	Latha	လသာ	Strand Road	ကမ်းနားလမ်း	Latha	လသာ	16.772114	96.15142
89-MyinTawThar	26	132	Nyaung Pin Lay Zay	ညောင်ပင်လေးဈေး	Strand Road	ကမ်းနားလမ်း	Latha	လသာ	16.772604966397473	96.14620919550363
89-MyinTawThar	27	123	Maw Tin	မော်တင်	Strand Road	ကမ်းနားလမ်း	Lanmadaw	လမ်းမတော်	16.77462749596752	96.14231471903625
89-MyinTawThar	28	119	Kili	ကီလီ	Strand Road	ကမ်းနားလမ်း	Lanmadaw	လမ်းမတော်	16.7750866590258	96.13943345357258
89-MyinTawThar	29	112	Kyone Gyi Gate	ကျုံးကြီးဂိတ်	Kyee Myin Daing Kannar Road	ကြည့်မြင်တိုင်ကမ်းနားလမ်း	Ahlone	အလုံ	16.77753758308897	96.13666441524401
89-MyinTawThar	30	115	Thakhin Mya Pan Chan	သခင်မြပန်းခြံ	Kyee Myin Daing Kannar Road	ကြည့်မြင်တိုင်ကမ်းနားလမ်း	Ahlone	အလုံ	16.778411	96.135751
89-MyinTawThar	31	102	Htaw Li Kwae	ထော်လီကွေ့	Kyee Myin Daing Kannar Road	ကြည့်မြင်တိုင်ကမ်းနားလမ်း	Ahlone	အလုံ	16.781329094605752	96.13000275101513
89-MyinTawThar	32	103	Thit Taw	သစ်တော	Kyee Myin Daing Kannar Road	ကြည့်မြင်တိုင်ကမ်းနားလမ်း	Ahlone	အလုံ	16.782208533496107	96.12772663112992
89-MyinTawThar	33	90	Sin Min Zay	ဆင်မင်းဈေး	Kyee Myin Daing Kannar Road	ကြည့်မြင်တိုင်ကမ်းနားလမ်း	Ahlone	အလုံ	16.789089342355922	96.12395543150343
89-MyinTawThar	34	88	Kwin Kyaung	ကွင်းကျောင်း	Kyee Myin Daing Kannar Road	ကြည့်မြင်တိုင်ကမ်းနားလမ်း	Ahlone	အလုံ	16.791815	96.122913
89-MyinTawThar	35	91	Thiri Mingalar Zay	သီရိမင်္ဂလာဈေး	Kyee Myin Daing Kannar Road	ကြည့်မြင်တိုင်ကမ်းနားလမ်း	Ahlone	အလုံ	16.793428	96.122795
89-MyinTawThar	36	240	Home Lan	ဟုမ်းလမ်း	Kyee Myin Daing Kannar Road	ကြည့်မြင်တိုင်ကမ်းနားလမ်း	Kyee Myin Daing	ကြည့်မြင်တိုင်	16.797407638738495	96.12237939960325
89-MyinTawThar	37	242	Thal Kwin	သဲကွင်း	Kyee Myin Daing Kannar Road	ကြည့်မြင်တိုင်ကမ်းနားလမ်း	Kyee Myin Daing	ကြည့်မြင်တိုင်	16.80093324235627	96.12209948942565
89-MyinTawThar	38	252	Sar Taik	စာတိုက်	Kyee Myin Daing Kannar Road	ကြည့်မြင်တိုင်ကမ်းနားလမ်း	Kyee Myin Daing	ကြည့်မြင်တိုင်	16.80417773402748	96.12214895317268
89-MyinTawThar	39	259	Kyee Myin Daing Nya Zay	ကြည့်မြင်တိုင်ညဈေး	Kyee Myin Daing Kannar Road	ကြည့်မြင်တိုင်ကမ်းနားလမ်း	Kyee Myin Daing	ကြည့်မြင်တိုင်	16.809123167748957	96.12182549200953
89-MyinTawThar	40	250	Kyee Myin Daing Nya Zay	ကြည်မြင်တိုင်ညဈေး	Upper Kyee Myin Daing Road	အထက်ကြည့်မြင်တိုင်လမ်း	Kyee Myin Daing	ကြည့်မြင်တိုင်	16.809933587198	96.12593092722818
89-MyinTawThar	41	256	Kyee Myin Daing Butar	ကြည့်မြင်တိုင်ဘူတာ	Upper Kyee Myin Daing Road	အထက်ကြည့်မြင်တိုင်လမ်း	Kyee Myin Daing	ကြည့်မြင်တိုင်	16.806301299283557	96.12574257194865
89-MyinTawThar	42	247	Kyaung Shae	ကျောင်းရှေ့	Lower Kyee Myin Daing Road	အောက်ကြည့်မြင်တိုင်လမ်း	Kyee Myin Daing	ကြည့်မြင်တိုင်	16.80060702485202	96.12604542402553
89-MyinTawThar	43	244	Home Lan	ဟုမ်းလမ်း	Lower Kyee Myin Daing Road	အောက်ကြည့်မြင်တိုင်လမ်း	Kyee Myin Daing	ကြည့်မြင်တိုင်	16.797192	96.126132
89-MyinTawThar	44	97	White Taw	ဝှိုက်တော	Lower Kyee Myin Daing Road	အောက်ကြည့်မြင်တိုင်လမ်း	Ahlone	အလုံ	16.793536	96.126588
89-MyinTawThar	45	95	Sin Min Zay	ဆင်မင်းဈေး	Lower Kyee Myin Daing Road	အောက်ကြည့်မြင်တိုင်လမ်း	Ahlone	အလုံ	16.790543070149177	96.12796158995481
89-MyinTawThar	46	93	Chan Mar Phee	ချန်မာဖီ	Lower Kyee Myin Daing Road	အောက်ကြည့်မြင်တိုင်လမ်း	Ahlone	အလုံ	16.78735983441184	96.12950640221246
89-MyinTawThar	47	99	Ahlone Sar Taik	အလုံစာတိုက်	Lower Kyee Myin Daing Road	အောက်ကြည့်မြင်တိုင်လမ်း	Ahlone	အလုံ	16.785148945106275	96.13131663529204
89-MyinTawThar	48	109	Jama Khar Nar	ဂျမခါနာ	Lower Kyee Myin Daing Road	အောက်ကြည့်မြင်တိုင်လမ်း	Ahlone	အလုံ	16.783082370652377	96.13320021657276
89-MyinTawThar	49	2427	Thakhin Mya Pan Cha	သခင်မြပန်းခြံ	Thakhin Mya Garden Street	သခင်မြပန်းခြံလမ်း	Ahlone	အလုံ	16.7802983809211	96.1349705792964
89-MyinTawThar	50	114	Thakhin Mya Pan Chan	သခင်မြပန်းခြံ	Kyee Myin Daing Kannar Road	ကြည့်မြင်တိုင်ကမ်းနားလမ်း	Ahlone	အလုံ	16.77828194398644	96.13544789397567
89-MyinTawThar	51	111	Kyone Gyi Gate	ကျုံးကြီးဂိတ်	Kyee Myin Daing Kannar Road	ကြည့်မြင်တိုင်ကမ်းနားလမ်း	Ahlone	အလုံ	16.77732454956802	96.13656562010875
89-MyinTawThar	52	2354	Kili	ကီလီ	Strand Road	ကမ်းနားလမ်း	Lanmadaw	လမ်းမတော်	16.774839997078754	96.13934765104207
89-MyinTawThar	53	121	Maw Tin	မော်တင်	Mahabandoola Road	မဟာဗန္ဓုလလမ်း	Lanmadaw	လမ်းမတော်	16.774861611885502	96.14233911037446
89-MyinTawThar	54	134	Sae-ngar Lan	(၁၅) လမ်း	Mahabandoola Road	မဟာဗန္ဓုလလမ်း	Latha	လသာ	16.774744	96.146441
89-MyinTawThar	55	131	Maung Khaing	မောင်ခိုင်	Mahabandoola Road	မဟာဗန္ဓုလလမ်း	Latha	လသာ	16.774456	96.15187
89-MyinTawThar	56	143	Theingyi Zay/ Kone Zay Tan	သိမ်ကြီးဈေး/ကုန်ဈေးတန်း	Mahabandoola Road	မဟာဗန္ဓုလလမ်း	Pabedan	ပန်းဘဲတန်း	16.774497	96.153833
89-MyinTawThar	57	152	Sule Pan Chan	ဆူးလေပန်းခြံ	Mahabandoola Road / Mahabandoola Garden	မဟာဗန္ဓုလလမ်း / မဟာဗန္ဓုလဥယျာဉ်	Kyauktada	ကျောက်တံတား	16.774245735327835	96.15955352783205
89-MyinTawThar	58	149	Pansodan	ပန်းဆိုးတန်း	Mahabandoola Road	မဟာဗန္ဓုလလမ်း	Kyauktada	ကျောက်တံတား	16.774167148075545	96.1630940437317
89-MyinTawThar	59	146	Bokalay Zay	ဘိုကလေးဈေး	Mahabandoola Road	မဟာဗန္ဓုလလမ်း	Kyauktada	ကျောက်တံတား	16.774037199157437	96.16584133822472
89-MyinTawThar	60	159	Lay-sae-chauk Lan	(၄၆) လမ်း	Mahabandoola Road	မဟာဗန္ဓုလလမ်း	Botahtaung	ဗိုလ်တထောင်	16.773966998215048	96.16845309734346
89-MyinTawThar	61	157	Lan Ngar Sae	လမ်း(၅၀)	Mahabandoola Road	မဟာဗန္ဓုလလမ်း	Botahtaung	ဗိုလ်တထောင်	16.773862730005543	96.1712372303009
89-MyinTawThar	62	416	Gandee	ဂန္ဓီ	Mahabandoola Road	မဟာဗန္ဓုလလမ်း	Pazundaung	ပုဇွန်တောင်	16.77377908667666	96.17418332258242
89-MyinTawThar	63	2220	Ocean	အိုးရှင်း	Mahabandoola Road	မဟာဗန္ဓုလလမ်း	Botahtaung	ဗိုလ်တထောင်	16.773625182052797	96.17738384753467
89-MyinTawThar	64	471	Thinbaw Kyin	သင်္ဘောကျင်း	Yamonar Road	ယမုံနာလမ်း	Daw Bon	ဒေါပုံ	16.781964622745882	96.187147423625
89-MyinTawThar	65	477	Yan Pyay	ရန်ပြေ	Yamonar Road	ယမုံနာလမ်း	Daw Bon	ဒေါပုံ	16.77991	96.191028
89-MyinTawThar	66	431	Man Pyae	မာန်ပြေ	Yamonar Road	ယမုံနာလမ်း	Daw Bon	ဒေါပုံ	16.7784294714913	96.19375705718996
89-MyinTawThar	67	435	Thone Gate Haung	(၃) ဂိတ်ဟောင်း	Myintawthar Road	မြင်တော်သာလမ်း	Daw Bon	ဒေါပုံ	16.777582603942278	96.19534492492677
89-MyinTawThar	68	457	Ashae Kyar	အရှေ့ကြား	Myintawthar Road	မြင်တော်သာလမ်း	Thaketa	သာကေတ	16.780419518135208	96.19686471065509
89-MyinTawThar	69	1611	Thone Zay	(၃) ဈေး	Myintawthar Road	မြင်တော်သာလမ်း	Thaketa	သာကေတ	16.78207390208331	96.19767741998659
89-MyinTawThar	70	461	Khin Ma Ma Kyar	ခင်မမကြား	Myintawthar Road	မြင်တော်သာလမ်း	Thaketa	သာကေတ	16.783881766824905	96.19853891199455
89-MyinTawThar	71	466	Si Saing	ဆီဆိုင်	Myintawthar Road	မြင်တော်သာလမ်း	Thaketa	သာကေတ	16.786320018726588	96.19977360824123
89-MyinTawThar	72	463	Sar Taik	စာတိုက်	Myintawthar Road	မြင်တော်သာလမ်း	Thaketa	သာကေတ	16.788826	96.201028
89-MyinTawThar	73	456	Nal Myay Yon	နယ်မြေရုံး	Myintawthar Road	မြင်တော်သာလမ်း	Thaketa	သာကေတ	16.79088672158126	96.20202035643162
89-MyinTawThar	74	499	Yoke Shin Yon	ရုပ်ရှင်ရုံ	Myintawthar Road	မြင်တော်သာလမ်း	Thaketa	သာကေတ	16.792664591229478	96.20284060947598
89-MyinTawThar	75	519	Kyan Mar Yae	ကျန်းမာရေး	Myintawthar Road	မြင်တော်သာလမ်း	Thaketa	သာကေတ	16.796244493961968	96.20461510028693
89-MyinTawThar	76	515	Khun Zay	(၇) ဈေး	Myintawthar Road	မြင်တော်သာလမ်း	Thaketa	သာကေတ	16.798736188866375	96.20582963805646
89-MyinTawThar	77	527	Paya Shae	ဘုရားရှေ့	Myintawthar Road	မြင်တော်သာလမ်း	Thaketa	သာကေတ	16.801955174820478	96.20668983086945
89-MyinTawThar	78	522	Kyaung Kwae	ကျောင်းကွေ့	Myintawthar Road	မြင်တော်သာလမ်း	Thaketa	သာကေတ	16.803614185536972	96.2065722118132
89-MyinTawThar	79	525	Myayni	မြေနီ	Ayar Wun Main Road	ဧရာဝဏ်လမ်းမကြီး	Thaketa	သာကေတ	16.803537897279856	96.20986435096712
89-MyinTawThar	80	529	Shit Gate	(၈) ဂိတ်	Ayar Wun Main Road	ဧရာဝဏ်လမ်းမကြီး	Thaketa	သာကေတ	16.804750521874205	96.21352799702437