svc_name	sequence	stop_id	name_en	name_mm	road_en	road_mm	township_en	township_mm	lat	lng
80-KhineShweWar	1	782	Moke Oo (Yuzana Garden)	မုခ်ဦး (ယုဇနဥယျာဉ်)	Bago River Road	ပဲခူးမြစ်လမ်း	Dagon Seikkan	ဒဂုံဆိပ်ကမ်း	16.83233149473826	96.2701914855279
80-KhineShweWar	2	780	Ma Wa Ta Yone Shae/Oh Eain	မဝတရုံးရှေ့/အိုးအိမ်	Bago River Road	ပဲခူးမြစ်လမ်း	Dagon Seikkan	ဒဂုံဆိပ်ကမ်း	16.832435189283327	96.26510626869276
80-KhineShweWar	3	772	Mya Nandar	မြနန္ဒာ	Bago River Road	ပဲခူးမြစ်လမ်း	Dagon Seikkan	ဒဂုံဆိပ်ကမ်း	16.83504769143127	96.2554765935056
80-KhineShweWar	4	773	Yadanar Lan	ရတနာလမ်း	Bago River Road	ပဲခူးမြစ်လမ်း	Dagon Seikkan	ဒဂုံဆိပ်ကမ်း	16.836587958714585	96.24994466314095
80-KhineShweWar	5	557	Asean	အာဆီယံ	National Races Village	တိုင်းရင်းသားကျေးရွာ	Thaketa	သာကေတ	16.807009413205225	96.23251386685298
80-KhineShweWar	6	548	Sauk Lote Yae	ဆောက်လုပ်ရေး	Yadanar Road	ရတနာလမ်း	Thaketa	သာကေတ	16.80346265211373	96.2240500096232
80-KhineShweWar	7	546	Sauk Lote Yae	ဆောက်လုပ်ရေး	Thanlyin Tada Chint Road	သန်လျှင်တံတားချင့်လမ်း	Thaketa	သာကေတ	16.803144078473853	96.22349219396712
80-KhineShweWar	8	552	Tayar-Shit Taung	(၁၀၈) တောင်	Thalyin Thada Chin Kat Road	သန်လျှင်တံတားချင့်ကပ်လမ်း	Thaketa	သာကေတ	16.80646595619294	96.21927025029437
80-KhineShweWar	9	2429	Damaryone Lan	ဓမာရုံလမ်း	Shu Kin Thar Road	ရှုခင်းသာလမ်း	Thaketa	သာကေတ	16.802462737110584	96.2165252817795
80-KhineShweWar	10	2431	Khine Shwe War	ခိုင်ရွှေဝါ	Shu Kin Thar Road	ရှုခင်းသာလမ်း	Thaketa	သာကေတ	16.7987809037868	96.2151469197124
80-KhineShweWar	11	2434	Ayat Sine Kwae	အရက်ဆိုင်ကွေ့	Shu Kin Thar Road	ရှုခင်းသာလမ်း	Thaketa	သာကေတ	16.7956620278775	96.2139007821679
80-KhineShweWar	12	520	Kyan Mar Yae	ကျန်းမာရေး	Myintawthar Road	မြင်တော်သာလမ်း	Thaketa	သာကေတ	16.796622960548277	96.20468148496003
80-KhineShweWar	13	500	Yoke Shin Yon	ရုပ်ရှင်ရုံ	Myintawthar Road	မြင်တော်သာလမ်း	Thaketa	သာကေတ	16.793286245858457	96.20301669230687
80-KhineShweWar	14	455	Nal Myay Yon	နယ်မြေရုံး	Myintawthar Road	မြင်တော်သာလမ်း	Thaketa	သာကေတ	16.79095866160968	96.20184789877386
80-KhineShweWar	15	464	Sar Taik	စာတိုက်	Myintawthar Road	မြင်တော်သာလမ်း	Thaketa	သာကေတ	16.789011	96.200877
80-KhineShweWar	16	465	Si Saing	ဆီဆိုင်	Myintawthar Road	မြင်တော်သာလမ်း	Thaketa	သာကေတ	16.78630246461242	96.19955349946396
80-KhineShweWar	17	462	Khin Ma Ma Kyar	ခင်မမကြား	Myintawthar Road	မြင်တော်သာလမ်း	Thaketa	သာကေတ	16.784192789327605	96.19857505895199
80-KhineShweWar	18	1610	Thone Zay	(၃) ဈေး	Myintawthar Road	မြင်တော်သာလမ်း	Thaketa	သာကေတ	16.781520723693188	96.1972337239422
80-KhineShweWar	19	458	Ashae Kyar	အရှေ့ကြား	Myintawthar Road	မြင်တော်သာလမ်း	Thaketa	သာကေတ	16.780623653626908	96.19684635428713
80-KhineShweWar	20	436	Thone Gate Haung	(၃) ဂိတ်ဟောင်း	Myintawthar Road	မြင်တော်သာလမ်း	Daw Bon	ဒေါပုံ	16.777643735181925	96.19553163181992
80-KhineShweWar	21	430	Man Pyae	မာန်ပြေ	Yamonar Road	ယမုံနာလမ်း	Daw Bon	ဒေါပုံ	16.778396729199493	96.1940399883315
80-KhineShweWar	22	478	Yan Pyay	ရန်ပြေ	Yamonar Road	ယမုံနာလမ်း	Daw Bon	ဒေါပုံ	16.77987692794149	96.19138317648323
80-KhineShweWar	23	472	Thinbaw Kyin	သင်္ဘောကျင်း	Yamonar Road	ယမုံနာလမ်း	Daw Bon	ဒေါပုံ	16.781293798309072	96.18871798273177
80-KhineShweWar	24	452	Warso	ဝါဆို	Yamonar Road	ယမုံနာလမ်း	Daw Bon	ဒေါပုံ	16.782604468723882	96.18374168872835
80-KhineShweWar	25	443	Mingalar Zay	မင်္ဂလာဈေး	Mill Road	စက်ရုံလမ်း	Mingalar Taung Nyunt	မင်္ဂလာတောင်ညွန့်	16.791772569051048	96.17468064185232
80-KhineShweWar	26	184	Mingalar Mon Zay	မင်္ဂလာမွန်ဈေး	Mill Road	စက်ရုံလမ်း	Mingalar Taung Nyunt	မင်္ဂလာတောင်ညွန့်	16.794101	96.172931
80-KhineShweWar	27	239	Byaing Yae Oh Sin	ဗျိုင်းရေအိုးစင်	Banyardala Road	ဗညားဒလလမ်း	Tamwe	တာမွေ	16.806694055071702	96.17217367747799
80-KhineShweWar	28	333	Awine Htate/ Tamwe	အဝိုင်းထိပ်/ တာမွေ	East Shwe Gon Daing Road	အရှေ့ရွှေဂုံတိုင်လမ်း	Bahan	ဗဟန်း	16.81164669784772	96.17015008338059
80-KhineShweWar	29	232	Chauk Htat Kyee	(၆) ထပ်ကြီး	East Shwe Gon Daing Road	အရှေ့ရွှေဂုံတိုင်လမ်း	Bahan	ဗဟန်း	16.811207	96.165464
80-KhineShweWar	30	235	Ngar Htat Kyee	(၅) ထပ်ကြီး	East Shwe Gon Daing Road	အရှေ့ရွှေဂုံတိုင်လမ်း	Bahan	ဗဟန်း	16.810709	96.163007
80-KhineShweWar	31	227	Bandar Pin	ဗန်ဒါပင်	East Shwe Gon Daing Road	အရှေ့ရွှေဂုံတိုင်လမ်း	Bahan	ဗဟန်း	16.810236	96.160738
80-KhineShweWar	32	2177	Shwe Gon Daing	ရွှေဂုံတိုင်	East Shwe Gon Daing Road	အရှေ့ရွှေဂုံတိုင်လမ်း	Bahan	ဗဟန်း	16.80679	96.156254
80-KhineShweWar	33	229	Shwe Gon Daing	ရွှေဂုံတိုင်	West Shwe Gon Daing Road	အနောက်ရွှေဂုံတိုင်လမ်း	Bahan	ဗဟန်း	16.805571665361676	96.15438880864532
80-KhineShweWar	34	225	Oak Lan	အုတ်လမ်း	West Shwe Gon Daing Road	အနောက်ရွှေဂုံတိုင်လမ်း	Bahan	ဗဟန်း	16.804480996918812	96.15122687187979
80-KhineShweWar	35	223	Link Lan	လင့်လမ်း	Shwe Gon Road	ရွှေဂုံလမ်း	Bahan	ဗဟန်း	16.806090939455864	96.14742122246754
80-KhineShweWar	36	274	Wizaya Plaza	ဝိဇယပလာဇာ	Dhamazedi Road	ဓမ္မစေတီလမ်း	Bahan	ဗဟန်း	16.805219943235446	96.14327571864125
80-KhineShweWar	37	266	Myaynigone	မြေနီကုန်း	Bargayar Road	ဗားဂရာလမ်း	San Chaung	စမ်းချောင်း	16.803804	96.138814
80-KhineShweWar	38	273	Shwe Man	ရွှေမန်း	Bargayar Road	ဗားဂရာလမ်း	San Chaung	စမ်းချောင်း	16.803827	96.136105
80-KhineShweWar	39	261	Shan Lan	ရှမ်းလမ်း	Bargayar Road	ဗားဂရာလမ်း	San Chaung	စမ်းချောင်း	16.80383891776587	96.13184186629952
80-KhineShweWar	40	255	Koe Htat Kyee	(၉) ထပ်ကြီး	Bargayar Road	ဗားဂရာလမ်း	San Chaung	စမ်းချောင်း	16.80385946248815	96.12814109193097
80-KhineShweWar	41	247	Kyaung Shae	ကျောင်းရှေ့	Lower Kyee Myin Daing Road	အောက်ကြည့်မြင်တိုင်လမ်း	Kyee Myin Daing	ကြည့်မြင်တိုင်	16.800635186111215	96.12599570886235
80-KhineShweWar	42	244	Home Lan	ဟုမ်းလမ်း	Lower Kyee Myin Daing Road	အောက်ကြည့်မြင်တိုင်လမ်း	Kyee Myin Daing	ကြည့်မြင်တိုင်	16.797192	96.126132
80-KhineShweWar	43	97	White Taw	ဝှိုက်တော	Lower Kyee Myin Daing Road	အောက်ကြည့်မြင်တိုင်လမ်း	Ahlone	အလုံ	16.793536	96.126588
80-KhineShweWar	44	95	Sin Min Zay	ဆင်မင်းဈေး	Lower Kyee Myin Daing Road	အောက်ကြည့်မြင်တိုင်လမ်း	Ahlone	အလုံ	16.79049560487622	96.12791893327085
80-KhineShweWar	45	93	Chan Mar Phee	ချန်မာဖီ	Lower Kyee Myin Daing Road	အောက်ကြည့်မြင်တိုင်လမ်း	Ahlone	အလုံ	16.78735983441184	96.12950640221246
80-KhineShweWar	46	99	Ahlone Sar Taik	အလုံစာတိုက်	Lower Kyee Myin Daing Road	အောက်ကြည့်မြင်တိုင်လမ်း	Ahlone	အလုံ	16.785089601797072	96.13130154066313
80-KhineShweWar	47	109	Jama Khar Nar	ဂျမခါနာ	Lower Kyee Myin Daing Road	အောက်ကြည့်မြင်တိုင်လမ်း	Ahlone	အလုံ	16.78284086190647	96.13336601061748
80-KhineShweWar	48	108	Bogyoke Kwae	ဗိုလ်ချုပ်ကွေ့	Bogyoke Aung San Road	ဗိုလ်ချုပ်အောင်ဆန်းလမ်း	Ahlone	အလုံ	16.780236715431304	96.1367306813918
80-KhineShweWar	49	110	Jama Khar Nar	ဂျမခါနာ	Lower Kyee Myin Daing Road	အောက်ကြည့်မြင်တိုင်လမ်း	Ahlone	အလုံ	16.783100366432155	96.13329419866206
80-KhineShweWar	50	100	Ahlone Sar Taik	အလုံစာတိုက်	Lower Kyee Myin Daing Road	အောက်ကြည့်မြင်တိုင်လမ်း	Ahlone	အလုံ	16.785450997849157	96.13124012947084
80-KhineShweWar	51	94	Chan Mar Phee	ချန်မာဖီ	Lower Kyee Myin Daing Road	အောက်ကြည့်မြင်တိုင်လမ်း	Ahlone	အလုံ	16.787589	96.129576
80-KhineShweWar	52	96	Sin Min Zay	ဆင်မင်းဈေး	Lower Kyee Myin Daing Road	အောက်ကြည့်မြင်တိုင်လမ်း	Ahlone	အလုံ	16.790742	96.12801
80-KhineShweWar	53	98	White Taw	ဝှိုက်တော	Lower Kyee Myin Daing Road	အောက်ကြည့်မြင်တိုင်လမ်း	Ahlone	အလုံ	16.793813	96.126604
80-KhineShweWar	54	245	Home Lan	ဟုမ်းလမ်း	Lower Kyee Myin Daing Road	အောက်ကြည့်မြင်တိုင်လမ်း	Kyee Myin Daing	ကြည့်မြင်တိုင်	16.798088	96.126251
80-KhineShweWar	55	246	Kyaung Shae	ကျောင်းရှေ့	Lower Kyee Myin Daing Road	အောက်ကြည့်မြင်တိုင်လမ်း	Kyee Myin Daing	ကြည့်မြင်တိုင်	16.800337724704953	96.12624429515564
80-KhineShweWar	56	254	Koe Htat Kyee	(၉) ထပ်ကြီး	Bargayar Road	ဗားဂရာလမ်း	San Chaung	စမ်းချောင်း	16.80377692571842	96.12809622083661
80-KhineShweWar	57	260	Shan Lan	ရှမ်းလမ်း	Bargayar Road	ဗားဂရာလမ်း	San Chaung	စမ်းချောင်း	16.803776350638998	96.13150128861892
80-KhineShweWar	58	272	Shwe Man	ရွှေမန်း	Bargayar Road	ဗားဂရာလမ်း	San Chaung	စမ်းချောင်း	16.803697434586116	96.13618335686625
80-KhineShweWar	59	267	Myaynigone	မြေနီကုန်း	Bargayar Road	ဗားဂရာလမ်း	San Chaung	စမ်းချောင်း	16.8037478786025	96.13814299016668
80-KhineShweWar	60	2389	Wizaya Plaza	ဝိဇယပလာဇာ	Dhamazedi Road	ဓမ္မစေတီလမ်း	Bahan	ဗဟန်း	16.8050307383558	96.1434358686529
80-KhineShweWar	61	222	Link Lan	လင့်လမ်း	Shwe Gon Road	ရွှေဂုံလမ်း	Bahan	ဗဟန်း	16.805999079236297	96.14723340186174
80-KhineShweWar	62	224	Oak Lan	အုတ်လမ်း	West Shwe Gon Daing Road	အနောက်ရွှေဂုံတိုင်လမ်း	Bahan	ဗဟန်း	16.804344087884044	96.1511853185948
80-KhineShweWar	63	228	Shwe Gon Daing	ရွှေဂုံတိုင်	West Shwe Gon Daing Road	အနောက်ရွှေဂုံတိုင်လမ်း	Bahan	ဗဟန်း	16.805293836643138	96.15444100694732
80-KhineShweWar	64	231	Shwe Gon Daing	ရွှေဂုံတိုင်	East Shwe Gon Daing Road	အရှေ့ရွှေဂုံတိုင်လမ်း	Bahan	ဗဟန်း	16.806550186916283	96.15607654675843
80-KhineShweWar	65	226	Bandar Pin	ဗန်ဒါပင်	East Shwe Gon Daing Road	အရှေ့ရွှေဂုံတိုင်လမ်း	Bahan	ဗဟန်း	16.809993885588426	96.16076869424434
80-KhineShweWar	66	234	Ngar Htat Kyee	(၅) ထပ်ကြီး	East Shwe Gon Daing Road	အရှေ့ရွှေဂုံတိုင်လမ်း	Bahan	ဗဟန်း	16.810501025184656	96.1633197264746
80-KhineShweWar	67	233	Chauk Htat Kyee	(၆) ထပ်ကြီး	East Shwe Gon Daing Road	အရှေ့ရွှေဂုံတိုင်လမ်း	Bahan	ဗဟန်း	16.811227	96.165963
80-KhineShweWar	68	332	Awine Htate/ Tamwe	အဝိုင်းထိပ်/ တာမွေ	East Shwe Gon Daing Road	အရှေ့ရွှေဂုံတိုင်လမ်း	Bahan	ဗဟန်း	16.81149101866884	96.16997592855115
80-KhineShweWar	69	238	Byaing Yae Oh Sin	ဗျိုင်းရေအိုးစင်	Banyardala Road	ဗညားဒလလမ်း	Tamwe	တာမွေ	16.80649379907491	96.17212619399655
80-KhineShweWar	70	183	Mingalar Mon Zay	မင်္ဂလာမွန်ဈေး	Mill Road	စက်ရုံလမ်း	Mingalar Taung Nyunt	မင်္ဂလာတောင်ညွန့်	16.793952681275336	96.17282722854725
80-KhineShweWar	71	444	Mingalar Zay	မင်္ဂလာဈေး	Mill Road	စက်ရုံလမ်း	Mingalar Taung Nyunt	မင်္ဂလာတောင်ညွန့်	16.79177780504188	96.17451729951428
80-KhineShweWar	72	451	Warso	ဝါဆို	Yamonar Road	ယမုံနာလမ်း	Daw Bon	ဒေါပုံ	16.78255539648769	96.18273277999835
80-KhineShweWar	73	471	Thinbaw Kyin	သင်္ဘောကျင်း	Yamonar Road	ယမုံနာလမ်း	Daw Bon	ဒေါပုံ	16.781964622745882	96.187147423625
80-KhineShweWar	74	477	Yan Pyay	ရန်ပြေ	Yamonar Road	ယမုံနာလမ်း	Daw Bon	ဒေါပုံ	16.77991	96.191028
80-KhineShweWar	75	431	Man Pyae	မာန်ပြေ	Yamonar Road	ယမုံနာလမ်း	Daw Bon	ဒေါပုံ	16.7784294714913	96.19375705718996
80-KhineShweWar	76	435	Thone Gate Haung	(၃) ဂိတ်ဟောင်း	Myintawthar Road	မြင်တော်သာလမ်း	Daw Bon	ဒေါပုံ	16.777582603942278	96.19534492492677
80-KhineShweWar	77	457	Ashae Kyar	အရှေ့ကြား	Myintawthar Road	မြင်တော်သာလမ်း	Thaketa	သာကေတ	16.780419518135208	96.19686471065509
80-KhineShweWar	78	1611	Thone Zay	(၃) ဈေး	Myintawthar Road	မြင်တော်သာလမ်း	Thaketa	သာကေတ	16.78207390208331	96.19767741998659
80-KhineShweWar	79	461	Khin Ma Ma Kyar	ခင်မမကြား	Myintawthar Road	မြင်တော်သာလမ်း	Thaketa	သာကေတ	16.783881766824905	96.19853891199455
80-KhineShweWar	80	466	Si Saing	ဆီဆိုင်	Myintawthar Road	မြင်တော်သာလမ်း	Thaketa	သာကေတ	16.786320018726588	96.19977360824123
80-KhineShweWar	81	463	Sar Taik	စာတိုက်	Myintawthar Road	မြင်တော်သာလမ်း	Thaketa	သာကေတ	16.788826	96.201028
80-KhineShweWar	82	456	Nal Myay Yon	နယ်မြေရုံး	Myintawthar Road	မြင်တော်သာလမ်း	Thaketa	သာကေတ	16.79088672158126	96.20202035643162
80-KhineShweWar	83	499	Yoke Shin Yon	ရုပ်ရှင်ရုံ	Myintawthar Road	မြင်တော်သာလမ်း	Thaketa	သာကေတ	16.792664591229478	96.20284060947598
80-KhineShweWar	84	519	Kyan Mar Yae	ကျန်းမာရေး	Myintawthar Road	မြင်တော်သာလမ်း	Thaketa	သာကေတ	16.796244493961968	96.20461510028693
80-KhineShweWar	85	2433	Ayat Sine Kwae	အရက်ဆိုင်ကွေ့	Shu Kin Thar Road	ရှုခင်းသာလမ်း	Thaketa	သာကေတ	16.79564220775	96.2139879958704
80-KhineShweWar	86	2432	Khine Shwe War	ခိုင်ရွှေဝါ	Shu Kin Thar Road	ရှုခင်းသာလမ်း	Thaketa	သာကေတ	16.798739458733	96.2152311578393
80-KhineShweWar	87	2430	Damaryone Lan	ဓမာရုံလမ်း	Shu Kin Thar Road	ရှုခင်းသာလမ်း	Thaketa	သာကေတ	16.8023709820173	96.2167241005227
80-KhineShweWar	88	551	Tayar-Shit Taung	(၁၀၈) တောင်	Thalyin Thada Chin Kat Road	သန်လျှင်တံတားချင့်ကပ်လမ်း	Thaketa	သာကေတ	16.806431	96.218966
80-KhineShweWar	89	547	Sauk Lote Yae	ဆောက်လုပ်ရေး	Yadanar Road	ရတနာလမ်း	Thaketa	သာကေတ	16.80292131131073	96.22375226346777
80-KhineShweWar	90	542	Lelyar Gate Yinn	လယ်ယာ (ဂိတ်ရင်း)	Nawarat Pat Road	နဝရတ်ပတ်လမ်း	Thaketa	သာကေတ	16.80473274880544	96.22560560703279
80-KhineShweWar	91	555	Asean	အာဆီယံ	National Races Village	တိုင်းရင်းသားကျေးရွာ	Thaketa	သာကေတ	16.806862155204307	96.23230758821595
80-KhineShweWar	92	771	Mya Nandar	မြနန္ဒာ	Bago River Road	ပဲခူးမြစ်လမ်း	Dagon Seikkan	ဒဂုံဆိပ်ကမ်း	16.835173105870915	96.25461451476441
80-KhineShweWar	93	779	Ma Wa Ta Yone Shae/Oh Eain	မဝတရုံးရှေ့/အိုးအိမ်	Bago River Road	ပဲခူးမြစ်လမ်း	Dagon Seikkan	ဒဂုံဆိပ်ကမ်း	16.832399568107512	96.26484779175372
