svc_name	sequence	stop_id	name_en	name_mm	road_en	road_mm	township_en	township_mm	lat	lng
APS-Kabaraye	1	2478	Yangon Intl. Airport	လေဆိပ်	Yangon Airport Road	ရန်ကုန်လေဆိပ်လမ်း	Mingaladon	မင်္ဂလာဒုံ	16.9013101020537	96.1352032190189APS-Kabaraye	2	1299	Koe Mile	(၉) မိုင်	Pyay Road	ပြည်လမ်း	Mayangone	မရမ်းကုန်း	16.88177976207406	96.13486798480155
APS-Kabaraye	3	1269	Shit Mile	(၈) မိုင်	Pyay Road	ပြည်လမ်း	Mayangone	မရမ်းကုန်း	16.867915966141403	96.14123360021041
APS-Kabaraye	4	1239	Kabar Aye Paya/ Paya Lan	ကမ္ဘာအေးဘုရားလမ်း	Kabar Aye Pagoda Road	ကမ္ဘာအေးဘုရားလမ်း	Mayangone	မရမ်းကုန်း	16.858238763575493	96.15608746418731
APS-Kabaraye	5	1246	Lan Ni	လမ်းနီ	Kabar Aye Pagoda Road	ကမ္ဘာအေးဘုရားလမ်း	Mayangone	မရမ်းကုန်း	16.833849962299986	96.15510751493277
APS-Kabaraye	6	230	Shwe Gon Daing	ရွှေဂုံတိုင်	Kabar Aye Pagoda Road	ကမ္ဘာအေးဘုရားလမ်း	Bahan	ဗဟန်း	16.80519530942897	96.1557773128152
APS-Kabaraye	7	209	Bahan Thone Lan	ဗဟန်းသုံးလမ်း	Bahan Road	ဗဟန်းလမ်း	Bahan	ဗဟန်း	16.798049388513782	96.15706854499878
APS-Kabaraye	8	202	Kyauk Taing	ကျောက်တိုင်	ZOOlogical Garden Road	တိရိစ္ဆာန်ဥယျာဉ်လမ်း	Dagon	ဒဂုံ	16.7887528427616	96.15719425259158
APS-Kabaraye	9	194	Youk Lan	ယောက်လမ်း	Alanpya Pagoda Road	အလံပြဘုရားလမ်း	Dagon	ဒဂုံ	16.7826821164587	96.15895088994877
APS-Kabaraye	10	141	Sule Myodaw Khan Ma	ဆူးလေမြို့တော်ခန်းမ	Sule Pagoda Road	ဆူးလေးဘုရားလမ်း	Kyauktada	ကျောက်တံတား	16.775753793727244	96.15887872176246
APS-Kabaraye	11	139	Lan Thone Sae	လမ်း(၃၀)	Merchant Road	ကုန်သည်လမ်း	Pabedan	ပန်းဘဲတန်း	16.77192146900368	96.15661520976575
APS-Kabaraye	12	129	Latha	လသာ	Strand Road	ကမ်းနားလမ်း	Latha	လသာ	16.772114	96.15142
APS-Kabaraye	13	126	Sanpya	စံပြ	Phone Gyi Road	ဘုန်းကြီးလမ်း	Lanmadaw	လမ်းမတော်	16.777905085915634	96.14501520060006
APS-Kabaraye	14	196	Bago Kalat	ပဲခူးကလပ်	Pyay Road	ပြည်လမ်း	Dagon	ဒဂုံ	16.786334463253585	96.14242921583356
APS-Kabaraye	15	268	Myaynigone	မြေနီကုန်း (ပြည်လမ်း)	Pyay Road	ပြည်လမ်း	San Chaung	စမ်းချောင်း	16.7995437639817	96.13851143047215
APS-Kabaraye	16	319	Saik Pyoe Yay	စိုက်ပျိုးရေး	Pyay Road	ပြည်လမ်း	Kamayut	ကမာရွတ်	16.817862	96.133326
APS-Kabaraye	17	1188	Marlar	မာလာ	Pyay Road	ပြည်လမ်း	Kamayut	ကမာရွတ်	16.832547	96.132826
APS-Kabaraye	18	1190	Tadar Phyu	တံတားဖြူ	Pyay Road	ပြည်လမ်း	Hlaing	လှိုင်	16.83915	96.134757
APS-Kabaraye	19	1268	Shit Mile	(၈) မိုင်	Pyay Road	ပြည်လမ်း	Mayangone	မရမ်းကုန်း	16.867474574530302	96.14175093127416
APS-Kabaraye	20	1298	Koe Mile	(၉) မိုင်	Pyay Road	ပြည်လမ်း	Mayangone	မရမ်းကုန်း	16.880519	96.13626
APS-Kabaraye	21	2478	Yangon Intl. Airport	လေဆိပ်	Yangon Airport Road	ရန်ကုန်လေဆိပ်လမ်း	Mingaladon	မင်္ဂလာဒုံ	16.9013101020537	96.1352032190189