svc_name	sequence	stop_id	name_en	name_mm	road_en	road_mm	township_en	township_mm	lat	lng
19	1	2213	Sin Phon Kwae	ဆင်ဖုံကွေ့	Hanthar Waddy Road	ဟံသာဝတီလမ်း	North Okkalapa	မြောက်ဥက္ကလာပ	16.93414469098398	96.19094914058223
19	2	1605	Tadar Phyu	တံတားဖြူ	Bagan Road	ပုဂံလမ်း	North Okkalapa	မြောက်ဥက္ကလာပ	16.93275552683445	96.18915090803058
19	3	2215	Kyauk Lan	ကျောက်လမ်း	Bagan Road	ပုဂံလမ်း	North Okkalapa	မြောက်ဥက္ကလာပ	16.931683266637606	96.1879055458121
19	4	839	Say Yon Kwae	ဆေးရုံကွေ့	Bagan Road	ပုဂံလမ်း	North Dagon	မြောက်ဒဂုံ	16.930159872462657	96.18610081728548
19	5	830	Mee Thet	မီးသတ်	Bagan Road	ပုဂံလမ်း	North Okkalapa	မြောက်ဥက္ကလာပ	16.92802131038405	96.18351822718978
19	6	835	Sal Myaung	ဆည်မြောင်း	Bagan Road	ပုဂံလမ်း	North Dagon	မြောက်ဒဂုံ	16.924487965862433	96.1793710710481
19	7	828	Hmaw Kyun	မော်ကျွန်း	Bagan Road	ပုဂံလမ်း	North Dagon	မြောက်ဒဂုံ	16.923073029757173	96.17628271691503
19	8	824	Kar Gyi Gate	ကားကြီးဂိတ်	Wai Bargi Road	ဝေဘာဂီလမ်း	North Okkalapa	မြောက်ဥက္ကလာပ	16.92179045656964	96.17189168930054
19	9	1607	Dhamar Yon	ဓမ္မာရုံ	Wai Bargi Road	ဝေဘာဂီလမ်း	North Okkalapa	မြောက်ဥက္ကလာပ	16.921450952209103	96.16945517482239
19	10	826	Kyaung Lan	ကျောင်းလမ်း	Wai Bargi Road	ဝေဘာဂီလမ်း	North Okkalapa	မြောက်ဥက္ကလာပ	16.92091903074239	96.16779907839373
19	11	821	Chauk Kwae	(၆) ကွေ့	Wai Bargi Road	ဝေဘာဂီလမ်း	North Okkalapa	မြောက်ဥက္ကလာပ	16.918676	96.162578
19	12	850	Kan Tharyar	ကန်သာယာ	Thudhamar Road	သုဓမ္မာလမ်း	North Okkalapa	မြောက်ဥက္ကလာပ	16.913219783941475	96.16519050439821
19	13	858	Ou Zanar	ဥဇ္ဇနာ	Thudhamar Road	သုဓမ္မာလမ်း	North Okkalapa	မြောက်ဥက္ကလာပ	16.910967	96.165856
19	14	843	Eindar	က္ကန္ဒာ	Thudhamar Road	သုဓမ္မာလမ်း	North Okkalapa	မြောက်ဥက္ကလာပ	16.90722	96.166135
19	15	864	Thu Nandar	သုနန္ဒာ	Thudhamar Road	သုဓမ္မာလမ်း	North Okkalapa	မြောက်ဥက္ကလာပ	16.903951	96.165427
19	16	866	Waziyar	ဝဇီယာ	Thudhamar Road	သုဓမ္မာလမ်း	North Okkalapa	မြောက်ဥက္ကလာပ	16.901323	96.164128
19	17	862	Thandar	သန္တာ	Thudhamar Road	သုဓမ္မာလမ်း	North Okkalapa	မြောက်ဥက္ကလာပ	16.89905760980185	96.16216262569652
19	18	883	Ga-gyi Zay	(ဃ) ဈေး	Thudhamar Road	သုဓမ္မာလမ်း	North Okkalapa	မြောက်ဥက္ကလာပ	16.89677	96.159541
19	19	888	Myauk Okkalar Awine	မြောက်ဥက္ကလာအဝိုင်း	Thudhamar Road	သုဓမ္မာလမ်း	North Okkalapa	မြောက်ဥက္ကလာပ	16.892733405297037	96.15468894364314
19	20	886	Kyauk Yae Twin	ကျောက်ရေတွင်း	Thudhamar Road	သုဓမ္မာလမ်း	North Okkalapa	မြောက်ဥက္ကလာပ	16.889507722313613	96.15371194900948
19	21	890	Phone Gyi Lan	ဘုန်းကြီးလမ်း	Thudhamar Road	သုဓမ္မာလမ်း	North Okkalapa	မြောက်ဥက္ကလာပ	16.882091345698665	96.15521738072859
19	22	1275	Hnit Zay	(၂) ဈေး	Thudhamar Road	သုဓမ္မာလမ်း	North Okkalapa	မြောက်ဥက္ကလာပ	16.87902250832039	96.15584973245862
19	23	1821	Ngar Lan	(၅) လမ်း	Thudhamar Road	သုဓမ္မာလမ်း	North Okkalapa	မြောက်ဥက္ကလာပ	16.874205	96.156698
19	24	1280	Lan Wa/ Nawaday	လမ်းဝ/နဝဒေး	Thudhamar Road	သုဓမ္မာလမ်း	North Okkalapa	မြောက်ဥက္ကလာပ	16.867192084160248	96.15463779307905
19	25	1819	Nawaday	နဝဒေး	Kabar Aye Pagoda Road	ကမ္ဘာအေးဘုရားလမ်း	Mayangone	မရမ်းကုန်း	16.866798658414414	96.15263734711336
19	26	1265	Myaing Hay Wun	မြိုင်ဟေဝန်ပန်းခြံ	Kabar Aye Pagoda Road	ကမ္ဘာအေးဘုရားလမ်း	Mayangone	မရမ်းကုန်း	16.866761660028782	96.14343701396139
19	27	1267	Shit Mile	(၈) မိုင်	Kyaik Wine Pagoda Road	ကျိုက်ဝိုင်းဘုရားလမ်း	Mayangone	မရမ်းကုန်း	16.86567957937846	96.14160246681422
19	28	1271	Ye Baw Haung	ရဲဘော်ဟောင်း	Kyaik Wine Pagoda Road	ကျိုက်ဝိုင်းဘုရားလမ်း	Mayangone	မရမ်းကုန်း	16.867512054054306	96.13733641337605
19	29	1255	Kyaik Wine	ကျိုက်ဝိုင်း	Kyaik Wine Pagoda Road	ကျိုက်ဝိုင်းဘုရားလမ်း	Mayangone	မရမ်းကုန်း	16.86663241628879	96.12869997275995
19	30	1257	Ye Yan Aung	ရဲရန်အောင်	Kyaik Wine Pagoda Road	ကျိုက်ဝိုင်းဘုရားလမ်း	Mayangone	မရမ်းကုန်း	16.866219437328372	96.12603065092118
19	31	1221	Thamine Lan Son	သမိုင်းလမ်းဆုံ	Kyaik Wine Pagoda Road	ကျိုက်ဝိုင်းဘုရားလမ်း	Mayangone	မရမ်းကုန်း	16.863193	96.122404
19	32	2200	Kyway Tit	ကြွေ (၁)	Thamine Buteryon Road	သမိုင်းဘူတာရုံလမ်း	Mayangone	မရမ်းကုန်း	16.861160642555987	96.12068710383029
19	33	1224	U Ba Han	ဦးဘဟန်	Thamine Buteryon Road	သမိုင်းဘူတာရုံလမ်း	Mayangone	မရမ်းကုန်း	16.86117	96.118397
19	34	1207	Zay Butar	ဈေးဘူတာ	Thamine Buteryon Road	သမိုင်းဘူတာရုံလမ်း	Mayangone	မရမ်းကုန်း	16.860185	96.112882
19	35	1194	Bayint Naung Lan Sone	ဘုရင့်နောင်လမ်းဆုံ	Thamine Buteryon Road	သမိုင်းဘူတာရုံလမ်း	Mayangone	မရမ်းကုန်း	16.859507	96.109374
19	36	1196	Buya	ဘုရ	Bayint Naung Road	ဘုရင့်နောင်လမ်း	Hlaing	လှိုင်	16.851360518316554	96.10922244144606
19	37	1201	Sit Kyawe Yae/ Shaw Yawe	စစ်ကြောရေး/ လျှော်ရွေး	Bayint Naung Road	ဘုရင့်နောင်လမ်း	Hlaing	လှိုင်	16.84816589648163	96.11089071258903
19	38	1167	Padauk Chaung/Thiri Mingalar Market	ပိတောက်ချောင်း/သီရိမင်္ဂလာဈေးသစ်	Bayint Naung Road	ဘုရင့်နောင်လမ်း	Hlaing	လှိုင်	16.84320407004642	96.11213211435825
19	39	1165	O One	အိုဝမ်း	Bayint Naung Road	ဘုရင့်နောင်လမ်း	Hlaing	လှိုင်	16.840952669893166	96.11249662237243
19	40	1161	Butar Yon Lan	ဘူတာရုံလမ်း	Bayint Naung Road	ဘုရင့်နောင်လမ်း	Hlaing	လှိုင်	16.837755	96.11336
19	41	1162	Chaung Wa	ချောင်းဝ	Bayint Naung Road	ဘုရင့်နောင်လမ်း	Hlaing	လှိုင်	16.833543	96.11603
19	42	1184	Ywarma Kwae	ရွာမကွေ့	Bayint Naung Road	ဘုရင့်နောင်လမ်း	Hlaing	လှိုင်	16.833461	96.119521
19	43	310	Yae Kyaung	ရေကြောင်း	Bayint Naung Road	ဘုရင့်နောင်လမ်း	Kamayut	ကမာရွတ်	16.83003130648178	96.12164842430505
19	44	308	Thinbaw Kyin	သင်္ဘောကျင်း	Bayint Naung Road	ဘုရင့်နောင်လမ်း	Kamayut	ကမာရွတ်	16.82435998216743	96.12283658003436
19	45	302	Sinmalite	ဆင်မလိုက်	Kyee Myin Daing Kannar Road	ကြည့်မြင်တိုင်ကမ်းနားလမ်း	Kyee Myin Daing	ကြည့်မြင်တိုင်	16.81968916689901	96.12181771779436
19	46	278	Nat Sin Lan	နတ်စင်လမ်း	Kyee Myin Daing Kannar Road	ကြည့်မြင်တိုင်ကမ်းနားလမ်း	Kyee Myin Daing	ကြည့်မြင်တိုင်	16.81470006967928	96.12178073264658
19	47	292	Kannar Zay	ကမ်းနားဈေး	Kyee Myin Daing Kannar Road	ကြည့်မြင်တိုင်ကမ်းနားလမ်း	Kyee Myin Daing	ကြည့်မြင်တိုင်	16.81251231920376	96.12181011121723
19	48	259	Kyee Myin Daing Nya Zay	ကြည့်မြင်တိုင်ညဈေး	Kyee Myin Daing Kannar Road	ကြည့်မြင်တိုင်ကမ်းနားလမ်း	Kyee Myin Daing	ကြည့်မြင်တိုင်	16.809123167748957	96.12182549200953
19	49	252	Sar Taik	စာတိုက်	Kyee Myin Daing Kannar Road	ကြည့်မြင်တိုင်ကမ်းနားလမ်း	Kyee Myin Daing	ကြည့်မြင်တိုင်	16.80417773402748	96.12214895317268
19	50	242	Thal Kwin	သဲကွင်း	Kyee Myin Daing Kannar Road	ကြည့်မြင်တိုင်ကမ်းနားလမ်း	Kyee Myin Daing	ကြည့်မြင်တိုင်	16.80093324235627	96.12209948942565
19	51	240	Home Lan	ဟုမ်းလမ်း	Kyee Myin Daing Kannar Road	ကြည့်မြင်တိုင်ကမ်းနားလမ်း	Kyee Myin Daing	ကြည့်မြင်တိုင်	16.797407638738495	96.12237939960325
19	52	91	Thiri Mingalar Zay	သီရိမင်္ဂလာဈေး	Kyee Myin Daing Kannar Road	ကြည့်မြင်တိုင်ကမ်းနားလမ်း	Ahlone	အလုံ	16.793428	96.122795
19	53	88	Kwin Kyaung	ကွင်းကျောင်း	Kyee Myin Daing Kannar Road	ကြည့်မြင်တိုင်ကမ်းနားလမ်း	Ahlone	အလုံ	16.791815	96.122913
19	54	90	Sin Min Zay	ဆင်မင်းဈေး	Kyee Myin Daing Kannar Road	ကြည့်မြင်တိုင်ကမ်းနားလမ်း	Ahlone	အလုံ	16.789089342355922	96.12395543150343
19	55	103	Thit Taw	သစ်တော	Kyee Myin Daing Kannar Road	ကြည့်မြင်တိုင်ကမ်းနားလမ်း	Ahlone	အလုံ	16.782208533496107	96.12772663112992
19	56	114	Thakhin Mya Pan Chan	သခင်မြပန်းခြံ	Kyee Myin Daing Kannar Road	ကြည့်မြင်တိုင်ကမ်းနားလမ်း	Ahlone	အလုံ	16.77828194398644	96.13544789397567
19	57	115	Thakhin Mya Pan Chan	သခင်မြပန်းခြံ	Kyee Myin Daing Kannar Road	ကြည့်မြင်တိုင်ကမ်းနားလမ်း	Ahlone	အလုံ	16.778411	96.135751
19	58	104	Thit Taw	သစ်တော	Kyee Myin Daing Kannar Road	ကြည့်မြင်တိုင်ကမ်းနားလမ်း	Ahlone	အလုံ	16.782335032700068	96.12792007857935
19	59	89	Sin Min Zay	ဆင်မင်းဈေး	Kyee Myin Daing Kannar Road	ကြည့်မြင်တိုင်ကမ်းနားလမ်း	Ahlone	အလုံ	16.788381214980394	96.12434903847318
19	60	87	Kwin Kyaung	ကွင်းကျောင်း	Kyee Myin Daing Kannar Road	ကြည့်မြင်တိုင်ကမ်းနားလမ်း	Ahlone	အလုံ	16.791499113712398	96.12318266881633
19	61	92	Thiri Mingalar Zay	သီရိမင်္ဂလာဈေး	Kyee Myin Daing Kannar Road	ကြည့်မြင်တိုင်ကမ်းနားလမ်း	Ahlone	အလုံ	16.793387246927256	96.12304329872131
19	62	241	Home Lan	ဟုမ်းလမ်း	Kyee Myin Daing Kannar Road	ကြည့်မြင်တိုင်ကမ်းနားလမ်း	Kyee Myin Daing	ကြည့်မြင်တိုင်	16.79766915959169	96.12243203091568
19	63	243	Thal Kwin	သဲကွင်း	Kyee Myin Daing Kannar Road	ကြည့်မြင်တိုင်ကမ်းနားလမ်း	Kyee Myin Daing	ကြည့်မြင်တိုင်	16.80093620461995	96.12225324844077
19	64	253	Sar Taik	စာတိုက်	Kyee Myin Daing Kannar Road	ကြည့်မြင်တိုင်ကမ်းနားလမ်း	Kyee Myin Daing	ကြည့်မြင်တိုင်	16.80426559990839	96.12227894601347
19	65	258	Kyee Myin Daing Nya Zay	ကြည့်မြင်တိုင်ညဈေး	Kyee Myin Daing Kannar Road	ကြည့်မြင်တိုင်ကမ်းနားလမ်း	Kyee Myin Daing	ကြည့်မြင်တိုင်	16.80935599745288	96.12198447575794
19	66	291	Kannar Zay	ကမ်းနားဈေး	Kyee Myin Daing Kannar Road	ကြည့်မြင်တိုင်ကမ်းနားလမ်း	Kyee Myin Daing	ကြည့်မြင်တိုင်	16.812434	96.121964
19	67	277	Nat Sin Lan	နတ်စင်လမ်း	Kyee Myin Daing Kannar Road	ကြည့်မြင်တိုင်ကမ်းနားလမ်း	Kyee Myin Daing	ကြည့်မြင်တိုင်	16.81453683073846	96.1219596862793
19	68	301	Sinmalite	ဆင်မလိုက်	Kyee Myin Daing Kannar Road	ကြည့်မြင်တိုင်ကမ်းနားလမ်း	Kyee Myin Daing	ကြည့်မြင်တိုင်	16.81928919676379	96.12197063186613
19	69	307	Thinbaw Kyin	သင်္ဘောကျင်း	Bayint Naung Road	ဘုရင့်နောင်လမ်း	Kamayut	ကမာရွတ်	16.824419955044178	96.12302745692432
19	70	309	Yae Kyaung	ရေကြောင်း	Bayint Naung Road	ဘုရင့်နောင်လမ်း	Kamayut	ကမာရွတ်	16.83009203973736	96.12186057027431
19	71	1183	Ywarma Kwae	ရွာမကွေ့	Bayint Naung Road	ဘုရင့်နောင်လမ်း	Hlaing	လှိုင်	16.833338	96.120733
19	72	1163	Chaung Wa	ချောင်းဝ	Bayint Naung Road	ဘုရင့်နောင်လမ်း	Hlaing	လှိုင်	16.833749	96.116288
19	73	1160	Butar Yon Lan	ဘူတာရုံလမ်း	Bayint Naung Road	ဘုရင့်နောင်လမ်း	Hlaing	လှိုင်	16.836931	96.113665
19	74	1164	O One	အိုဝမ်း	Bayint Naung Road	ဘုရင့်နောင်လမ်း	Hlaing	လှိုင်	16.840790175591227	96.11273590475324
19	75	1166	Padauk Chaung/Thiri Mingalar Market	ပိတောက်ချောင်း/သီရိမင်္ဂလာဈေးသစ်	Bayint Naung Road	ဘုရင့်နောင်လမ်း	Hlaing	လှိုင်	16.84360304016526	96.11229918664321
19	76	1200	Sit Kyawe Yae/ Shaw Yawe	စစ်ကြောရေး/ လျှော်ရွေး	Bayint Naung Road	ဘုရင့်နောင်လမ်း	Hlaing	လှိုင်	16.848124823223294	96.11118097789587
19	77	1197	Buya	ဘုရ	Bayint Naung Road	ဘုရင့်နောင်လမ်း	Hlaing	လှိုင်	16.851490835408775	96.10952764749528
19	78	1195	Bayint Naung Lan Sone	ဘုရင့်နောင်လမ်းဆုံ	Thamine Buteryon Road	သမိုင်းဘူတာရုံလမ်း	Mayangone	မရမ်းကုန်း	16.859289522179772	96.10922870691867
19	79	1208	Zay Butar	ဈေးဘူတာ	Thamine Buteryon Road	သမိုင်းဘူတာရုံလမ်း	Mayangone	မရမ်းကုန်း	16.860016582911346	96.11289853462951
19	80	1225	U Ba Han	ဦးဘဟန်	Thamine Buteryon Road	သမိုင်းဘူတာရုံလမ်း	Mayangone	မရမ်းကုန်း	16.86105718434528	96.1184082948603
19	81	1216	Kyway Tit	ကြွေ (၁)	Thamine Buteryon Road	သမိုင်းဘူတာရုံလမ်း	Mayangone	မရမ်းကုန်း	16.86123510275285	96.12060110550375
19	82	1220	Thamine Lan Son	သမိုင်းလမ်းဆုံ	Kyaik Wine Pagoda Road	ကျိုက်ဝိုင်းဘုရားလမ်း	Mayangone	မရမ်းကုန်း	16.86312673887559	96.12246465403588
19	83	1256	Ye Yan Aung	ရဲရန်အောင်	Kyaik Wine Pagoda Road	ကျိုက်ဝိုင်းဘုရားလမ်း	Mayangone	မရမ်းကုန်း	16.866135	96.126088
19	84	1254	Kyaik Wine	ကျိုက်ဝိုင်း	Kyaik Wine Pagoda Road	ကျိုက်ဝိုင်းဘုရားလမ်း	Mayangone	မရမ်းကုန်း	16.86653579926606	96.12866910640152
19	85	1270	Ye Baw Haung	ရဲဘော်ဟောင်း	Kyaik Wine Pagoda Road	ကျိုက်ဝိုင်းဘုရားလမ်း	Mayangone	မရမ်းကုန်း	16.867445677792176	96.13734274171294
19	86	1266	Shit Mile	(၈) မိုင်	Kyaik Wine Pagoda Road	ကျိုက်ဝိုင်းဘုရားလမ်း	Mayangone	မရမ်းကုန်း	16.864713	96.141169
19	87	1820	Nawaday	နဝဒေး	Kabar Aye Pagoda Road	ကမ္ဘာအေးဘုရားလမ်း	Mayangone	မရမ်းကုန်း	16.866678037634564	96.15251949755476
19	88	38	Lan Wa/ Nawaday	လမ်းဝ/နဝဒေး	Thudhamar Road	သုဓမ္မာလမ်း	North Okkalapa	မြောက်ဥက္ကလာပ	16.86722805974444	96.15481840213761
19	89	1281	Ngar Lan	(၅) လမ်း	Thudhamar Road	သုဓမ္မာလမ်း	North Okkalapa	မြောက်ဥက္ကလာပ	16.874128	96.156913
19	90	1274	Hnit Zay	(၂) ဈေး	Thudhamar Road	သုဓမ္မာလမ်း	North Okkalapa	မြောက်ဥက္ကလာပ	16.878721968315737	96.15608145017178
19	91	889	Phone Gyi Lan	ဘုန်းကြီးလမ်း	Thudhamar Road	သုဓမ္မာလမ်း	North Okkalapa	မြောက်ဥက္ကလာပ	16.88188224645447	96.15551120834425
19	92	885	Kyauk Yae Twin	ကျောက်ရေတွင်း	Thudhamar Road	သုဓမ္မာလမ်း	North Okkalapa	မြောက်ဥက္ကလာပ	16.88791116167424	96.15428918972613
19	93	887	Myauk Okkalar Awine	မြောက်ဥက္ကလာအဝိုင်း	Thudhamar Road	သုဓမ္မာလမ်း	North Okkalapa	မြောက်ဥက္ကလာပ	16.892739761327437	96.15506128873677
19	94	882	Ga-gyi Zay	(ဃ) ဈေး	Thudhamar Road	သုဓမ္မာလမ်း	North Okkalapa	မြောက်ဥက္ကလာပ	16.896452	96.159434
19	95	861	Thandar	သန္တာ	Thudhamar Road	သုဓမ္မာလမ်း	North Okkalapa	မြောက်ဥက္ကလာပ	16.898928568619148	96.16229091072456
19	96	865	Waziyar	ဝဇီယာ	Thudhamar Road	သုဓမ္မာလမ်း	North Okkalapa	မြောက်ဥက္ကလာပ	16.901507	96.16437
19	97	863	Thu Nandar	သုနန္ဒာ	Thudhamar Road	သုဓမ္မာလမ်း	North Okkalapa	မြောက်ဥက္ကလာပ	16.90436155507222	96.16570844314994
19	98	842	Eindar	က္ကန္ဒာ	Thudhamar Road	သုဓမ္မာလမ်း	North Okkalapa	မြောက်ဥက္ကလာပ	16.906969	96.16621
19	99	857	Ou Zanar	ဥဇ္ဇနာ	Thudhamar Road	သုဓမ္မာလမ်း	North Okkalapa	မြောက်ဥက္ကလာပ	16.910726	96.166001
19	100	849	Kan Tharyar	ကန်သာယာ	Thudhamar Road	သုဓမ္မာလမ်း	North Okkalapa	မြောက်ဥက္ကလာပ	16.9132609232353	96.16537733701992
19	101	1823	Ayar	ဧရာ	Thudhamar Road	သုဓမ္မာလမ်း	North Okkalapa	မြောက်ဥက္ကလာပ	16.91730520076527	96.16367541253568
19	102	820	Chauk Kwae	(၆) ကွေ့	Wai Bargi Road	ဝေဘာဂီလမ်း	North Okkalapa	မြောက်ဥက္ကလာပ	16.918906604656474	96.16331216180699
19	103	825	Kyaung Lan	ကျောင်းလမ်း	Wai Bargi Road	ဝေဘာဂီလမ်း	North Okkalapa	မြောက်ဥက္ကလာပ	16.920713743497096	96.1675022961572
19	104	1606	Dhamar Yon	ဓမ္မာရုံ	Wai Bargi Road	ဝေဘာဂီလမ်း	North Okkalapa	မြောက်ဥက္ကလာပ	16.921493974171383	96.17003819905221
19	105	823	Kar Gyi Gate	ကားကြီးဂိတ်	Wai Bargi Road	ဝေဘာဂီလမ်း	North Okkalapa	မြောက်ဥက္ကလာပ	16.92185156127529	96.17261335020885
19	106	827	Hmaw Kyun	မော်ကျွန်း	Bagan Road	ပုဂံလမ်း	North Dagon	မြောက်ဒဂုံ	16.92299081558836	96.17629948072138
19	107	834	Sal Myaung	ဆည်မြောင်း	Bagan Road	ပုဂံလမ်း	North Dagon	မြောက်ဒဂုံ	16.92439803413906	96.17941105272624
19	108	829	Mee Thet	မီးသတ်	Bagan Road	ပုဂံလမ်း	North Okkalapa	မြောက်ဥက္ကလာပ	16.928063669300347	96.18371666874738
19	109	838	Say Yon Kwae	ဆေးရုံကွေ့	Bagan Road	ပုဂံလမ်း	North Dagon	မြောက်ဒဂုံ	16.930082592851164	96.18619069224226
19	110	2214	Kyauk Lan	ကျောက်လမ်း	Bagan Road	ပုဂံလမ်း	North Okkalapa	မြောက်ဥက္ကလာပ	16.931599713117766	96.18793938774617
19	111	1604	Tadar Phyu	တံတားဖြူ	Bagan Road	ပုဂံလမ်း	North Okkalapa	မြောက်ဥက္ကလာပ	16.932671091752532	96.18922791676596
19	112	2212	Sin Phon Kwae	ဆင်ဖုံကွေ့	Hanthar Waddy Road	ဟံသာဝတီလမ်း	North Okkalapa	မြောက်ဥက္ကလာပ	16.934279942398952	96.19099616305904