svc_name	sequence	stop_id	name_en	name_mm	road_en	road_mm	township_en	township_mm	lat	lng
31	1	167	Botahtaung Paya	ဗိုလ်တထောင်ဘုရား	Strand Road	ကမ်းနားလမ်း	Seikkan	ဆိပ်ကမ်း	16.769591556452138	96.17250742390753
31	2	162	Ye Sa Khan	ရဲစခန်း	Botahtaung Pagoda Road	ဗိုလ်တထောင်ဘုရားလမ်း	Botahtaung	ဗိုလ်တထောင်	16.771537636398886	96.17269266396762
31	3	416	Gandee	ဂန္ဓီ	Mahabandoola Road	မဟာဗန္ဓုလလမ်း	Pazundaung	ပုဇွန်တောင်	16.77377908667666	96.17418332258242
31	4	2220	Ocean	အိုးရှင်း	Mahabandoola Road	မဟာဗန္ဓုလလမ်း	Botahtaung	ဗိုလ်တထောင်	16.773625182052797	96.17738384753467
31	5	471	Thinbaw Kyin	သင်္ဘောကျင်း	Yamonar Road	ယမုံနာလမ်း	Daw Bon	ဒေါပုံ	16.781964622745882	96.187147423625
31	6	477	Yan Pyay	ရန်ပြေ	Yamonar Road	ယမုံနာလမ်း	Daw Bon	ဒေါပုံ	16.77991	96.191028
31	7	431	Man Pyae	မာန်ပြေ	Yamonar Road	ယမုံနာလမ်း	Daw Bon	ဒေါပုံ	16.7784294714913	96.19375705718996
31	8	435	Thone Gate Haung	(၃) ဂိတ်ဟောင်း	Myintawthar Road	မြင်တော်သာလမ်း	Daw Bon	ဒေါပုံ	16.777582603942278	96.19534492492677
31	9	426	Dhamar Yon	ဓမ္မာရုံ	Yamonar Road	ယမုံနာလမ်း	Daw Bon	ဒေါပုံ	16.776521	96.197328
31	10	432	Shukhinthar	ရှုခင်းသာ	Shukinthar Myo Pat Road	ရှူ့ခင်းသာမြို့ပတ်လမ်း	Thaketa	သာကေတ	16.774682	96.201276
31	11	483	Kyaung Shae	ကျောင်းရှေ့	Shukinthar Myo Pat Road	ရှူ့ခင်းသာမြို့ပတ်လမ်း	Thaketa	သာကေတ	16.778807171074572	96.2026522262022
31	12	489	Mee Thwe Saing	မီးသွေးဆိုင်	Shukinthar Myo Pat Road	ရှူ့ခင်းသာမြို့ပတ်လမ်း	Thaketa	သာကေတ	16.781574	96.203753
31	13	495	Si Saing	ဆီဆိုင်	Shukinthar Myo Pat Road	ရှူ့ခင်းသာမြို့ပတ်လမ်း	Thaketa	သာကေတ	16.783991285804635	96.2042373698205
31	14	479	Nal Myay Yon	နယ်မြေရုံး	Shukinthar Myo Pat Road	ရှူ့ခင်းသာမြို့ပတ်လမ်း	Thaketa	သာကေတ	16.788994945837413	96.20584644377233
31	15	493	Ngar Kwae	(၅) ကွေ့	Shukinthar Myo Pat Road	ရှူ့ခင်းသာမြို့ပတ်လမ်း	Thaketa	သာကေတ	16.79099521339282	96.20662673609331
31	16	497	Waizayantar	ဝေဇယန္တာ	Shukinthar Myo Pat Road	ရှူ့ခင်းသာမြို့ပတ်လမ်း	Thaketa	သာကေတ	16.791579	96.207443
31	17	485	Kyel Ngar Pwint	ကြယ်ငါးပွင့်	Shukinthar Myo Pat Road	ရှူ့ခင်းသာမြို့ပတ်လမ်း	Thaketa	သာကေတ	16.791209	96.209632
31	18	487	Lay-sae-koe Asane Gate	(၄၉) အစိမ်းဂိတ်	Shukinthar Myo Pat Road	ရှူ့ခင်းသာမြို့ပတ်လမ်း	Thaketa	သာကေတ	16.790983	96.211327
31	19	481	Khan Ma	ခန်းမ	Shukinthar Myo Pat Road	ရှူ့ခင်းသာမြို့ပတ်လမ်း	Thaketa	သာကေတ	16.790511	96.214546
31	20	505	Gate Wa	ဂိတ်ဝ	Shukinthar Myo Pat Road	ရှူ့ခင်းသာမြို့ပတ်လမ်း	Thaketa	သာကေတ	16.790572	96.216842
31	21	503	Sae-Thone Gate	(၁၃) ဂိတ်	Shukinthar Myo Pat Road	ရှူ့ခင်းသာမြို့ပတ်လမ်း	Thaketa	သာကေတ	16.793243	96.219589
31	22	543	Sauk Lote Yae	ဆောက်လုပ်ရေး	Shukinthar Myo Pat Road	ရှူ့ခင်းသာမြို့ပတ်လမ်း	Thaketa	သာကေတ	16.799077	96.224288
31	23	507	Lat Hmat Gate	လက်မှတ်ဂိတ်	Kyaik Khauk Pagoda Road	ကျိုက်ခေါက်ဘုရားလမ်း	Thanlyin	သန်လျင်	16.77839	96.243879
31	24	1618	Mee Point	်မီးပွိုင့်	Kyaik Khauk Pagoda Road	ကျိုက်ခေါက်ဘုရားလမ်း	Thanlyin	သန်လျင်	16.778739	96.247226
31	25	1811	Kyar Paya	ကျားဘုရား	Kyaik Khauk Pagoda Road	ကျိုက်ခေါက်ဘုရားလမ်း	Thanlyin	သန်လျင်	16.757735198524692	96.25641010701658
31	26	541	Thama College	သမကောလိပ်	Thanlyin	သံလျင်	Thanlyin	သန်လျင်	16.75506077459433	96.25814553815873
31	27	1813	Sal Myaung	ဆည်မြောင်း	Kyaik Khauk Pagoda Road	ကျိုက်ခေါက်ဘုရားလမ်း	Thanlyin	သန်လျင်	16.75087108658183	96.2610245961696
31	28	1629	Aung Chan Thar	အောင်ချမ်းသာ	Kyaik Khauk Pagoda Road	ကျိုက်ခေါက်ဘုရားလမ်း	Thanlyin	သန်လျင်	16.745436727103243	96.2650060420856
31	29	1631	Sae-Shit Kone	(၁၈) ကုန်း	Kyaik Khauk Pagoda Road	ကျိုက်ခေါက်ဘုရားလမ်း	Thanlyin	သန်လျင်	16.739825	96.26804
31	30	1633	Paya Shae	ဘုရားရှေ့	Kyaik Khauk Pagoda Road	ကျိုက်ခေါက်ဘုရားလမ်း	Thanlyin	သန်လျင်	16.730598	96.272482
31	31	1824	Paya Kone Lan Sone	ဘုရားကုန်းလမ်းဆုံ	Thanlyin-Kyauktan Road	သန်လျှင်-ကျောက်တန်းလမ်း	Thanlyin	သန်လျင်	16.72867187909715	96.2735345028341
31	32	1637	Nyaung Pin	ညောင်ပင်	No. 6 Main Road	အမှတ်(၆)လမ်းမ	Thanlyin	သန်လျင်	16.729817	96.279691
31	33	1639	Kunn Yar Saing	ကွမ်းယာဆိုင်	No. 6 Main Road	အမှတ်(၆)လမ်းမ	Thanlyin	သန်လျင်	16.731071	96.283168
31	34	1642	A Shae Paing Takke Tho	အရှေ.ပိုင်းတက္ကသိုလ်	No. 6 Main Road	အမှတ်(၆)လမ်းမ	Thanlyin	သန်လျင်	16.732855995057225	96.28682824317367
31	35	1641	A Shae Paing Takke Tho	အရှေ.ပိုင်းတက္ကသိုလ်	No. 6 Main Road	အမှတ်(၆)လမ်းမ	Thanlyin	သန်လျင်	16.733831793947385	96.28827567212285
31	36	1640	Kunn Yar Saing	ကွမ်းယာဆိုင်	No. 6 Main Road	အမှတ်(၆)လမ်းမ	Thanlyin	သန်လျင်	16.73130631758074	96.28316489048302
31	37	1638	Nyaung Pin	ညောင်ပင်	No. 6 Main Road	အမှတ်(၆)လမ်းမ	Thanlyin	သန်လျင်	16.729944702912874	96.27925328677522
31	38	1825	Paya Kone Lan Sone	ဘုရားကုန်းလမ်းဆုံ	Thanlyin-Kyauktan Road	သန်လျှင်-ကျောက်တန်းလမ်း	Thanlyin	သန်လျင်	16.728782051960934	96.2740002013743
31	39	1634	Paya Shae	ဘုရားရှေ့	Kyaik Khauk Pagoda Road	ကျိုက်ခေါက်ဘုရားလမ်း	Thanlyin	သန်လျင်	16.730064	96.272653
31	40	1632	Sae-Shit Kone	(၁၈) ကုန်း	Kyaik Khauk Pagoda Road	ကျိုက်ခေါက်ဘုရားလမ်း	Thanlyin	သန်လျင်	16.739455	96.268619
31	41	1630	Aung Chan Thar	အောင်ချမ်းသာ	Kyaik Khauk Pagoda Road	ကျိုက်ခေါက်ဘုရားလမ်း	Thanlyin	သန်လျင်	16.745619	96.265293
31	42	1812	Sal Myaung	ဆည်မြောင်း	Kyaik Khauk Pagoda Road	ကျိုက်ခေါက်ဘုရားလမ်း	Thanlyin	သန်လျင်	16.750962	96.261367
31	43	1643	Thama College	သမကောလိပ်	Thanlyin	သံလျင်	Thanlyin	သန်လျင်	16.75499102814598	96.2584948539734
31	44	1810	Kyar Paya	ကျားဘုရား	Kyaik Khauk Pagoda Road	ကျိုက်ခေါက်ဘုရားလမ်း	Thanlyin	သန်လျင်	16.757768	96.2566
31	45	1619	Mee Point	်မီးပွိုင့်	Kyaik Khauk Pagoda Road	ကျိုက်ခေါက်ဘုရားလမ်း	Thanlyin	သန်လျင်	16.77895653734981	96.24703176319599
31	46	508	Lat Hmat Gate	လက်မှတ်ဂိတ်	Kyaik Khauk Pagoda Road	ကျိုက်ခေါက်ဘုရားလမ်း	Thanlyin	သန်လျင်	16.778698	96.244222
31	47	544	Sauk Lote Yae	ဆောက်လုပ်ရေး	Shukinthar Myo Pat Road	ရှူ့ခင်းသာမြို့ပတ်လမ်း	Thaketa	သာကေတ	16.799351424322637	96.22425188776107
31	48	504	Sae-Thone Gate	(၁၃) ဂိတ်	Shukinthar Myo Pat Road	ရှူ့ခင်းသာမြို့ပတ်လမ်း	Thaketa	သာကေတ	16.79369001534756	96.21966828592124
31	49	506	Gate Wa	ဂိတ်ဝ	Shukinthar Myo Pat Road	ရှူ့ခင်းသာမြို့ပတ်လမ်း	Thaketa	သာကေတ	16.79125	96.217443
31	50	488	Lay-sae-koe Asane Gate	(၄၉) အစိမ်းဂိတ်	Shukinthar Myo Pat Road	ရှူ့ခင်းသာမြို့ပတ်လမ်း	Thaketa	သာကေတ	16.791127	96.211778
31	51	486	Kyel Ngar Pwint	ကြယ်ငါးပွင့်	Shukinthar Myo Pat Road	ရှူ့ခင်းသာမြို့ပတ်လမ်း	Thaketa	သာကေတ	16.791294026965303	96.21000692714006
31	52	498	Waizayantar	ဝေဇယန္တာ	Shukinthar Myo Pat Road	ရှူ့ခင်းသာမြို့ပတ်လမ်း	Thaketa	သာကေတ	16.79167350648468	96.20764423627409
31	53	494	Ngar Kwae	(၅) ကွေ့	Shukinthar Myo Pat Road	ရှူ့ခင်းသာမြို့ပတ်လမ်း	Thaketa	သာကေတ	16.791059610315266	96.20641375193372
31	54	480	Nal Myay Yon	နယ်မြေရုံး	Shukinthar Myo Pat Road	ရှူ့ခင်းသာမြို့ပတ်လမ်း	Thaketa	သာကေတ	16.789416840002435	96.20581576600674
31	55	496	Si Saing	ဆီဆိုင်	Shukinthar Myo Pat Road	ရှူ့ခင်းသာမြို့ပတ်လမ်း	Thaketa	သာကေတ	16.784468742879493	96.20403524022551
31	56	490	Mee Thwe Saing	မီးသွေးဆိုင်	Shukinthar Myo Pat Road	ရှူ့ခင်းသာမြို့ပတ်လမ်း	Thaketa	သာကေတ	16.781886760928828	96.20372839970516
31	57	484	Kyaung Shae	ကျောင်းရှေ့	Shukinthar Myo Pat Road	ရှူ့ခင်းသာမြို့ပတ်လမ်း	Thaketa	သာကေတ	16.779225998227176	96.20256283320488
31	58	433	Shukhinthar	ရှုခင်းသာ	Shukinthar Myo Pat Road	ရှူ့ခင်းသာမြို့ပတ်လမ်း	Thaketa	သာကေတ	16.775021	96.200396
31	59	427	Dhamar Yon	ဓမ္မာရုံ	Yamonar Road	ယမုံနာလမ်း	Daw Bon	ဒေါပုံ	16.777404	96.196148
31	60	436	Thone Gate Haung	(၃) ဂိတ်ဟောင်း	Myintawthar Road	မြင်တော်သာလမ်း	Daw Bon	ဒေါပုံ	16.777643735181925	96.19553163181992
31	61	430	Man Pyae	မာန်ပြေ	Yamonar Road	ယမုံနာလမ်း	Daw Bon	ဒေါပုံ	16.778396729199493	96.1940399883315
31	62	478	Yan Pyay	ရန်ပြေ	Yamonar Road	ယမုံနာလမ်း	Daw Bon	ဒေါပုံ	16.77987692794149	96.19138317648323
31	63	472	Thinbaw Kyin	သင်္ဘောကျင်း	Yamonar Road	ယမုံနာလမ်း	Daw Bon	ဒေါပုံ	16.781293798309072	96.18871798273177
31	64	2219	Ocean	အိုးရှင်း	Mahabandoola Road	မဟာဗန္ဓုလလမ်း	Botahtaung	ဗိုလ်တထောင်	16.77371660996132	96.17738485336305
31	65	413	Botahtaung Zay	ဗိုလ်တထောင်ဈေး	Strand Road	ကမ်းနားလမ်း	Pazundaung	ပုဇွန်တောင်	16.769349354982467	96.17495725840854
