svc_name	sequence	stop_id	name_en	name_mm	road_en	road_mm	township_en	township_mm	lat	lng
32-Mini	1	2470	Myanmar Maritime University	ရေကြောင်းတက္ကသိုလ်	Thanlyin	သန်လျင်	Thanlyin	သန်လျင်	16.7050420217377	96.266485909
32-Mini	2	2473	Yay Kyaung Lan Sone	ရေကြောင်းလမ်းဆုံ	Thanlyin	သန်လျင်	Thanlyin	သန်လျင်	16.7170219134721	96.2614136841148
32-Mini	3	2474	Phar Out	ဖားအောက်	Thanlyin	သန်လျင်	Thanlyin	သန်လျင်	16.7275224452235	96.268748708535
32-Mini	4	2476	Kyeik Kouk Phayar	ကျိုက်ခေါက်ဘုရား	Thanlyin	သန်လျင်	Thanlyin	သန်လျင်	16.7296468766281	96.2694156565704
32-Mini	5	1632	Sae-Shit Kone	(၁၈) ကုန်း	Kyaik Khauk Pagoda Road	ကျိုက်ခေါက်ဘုရားလမ်း	Thanlyin	သန်လျင်	16.739455	96.268619
32-Mini	6	1630	Aung Chan Thar	အောင်ချမ်းသာ	Kyaik Khauk Pagoda Road	ကျိုက်ခေါက်ဘုရားလမ်း	Thanlyin	သန်လျင်	16.745619	96.265293
32-Mini	7	1812	Sal Myaung	ဆည်မြောင်း	Kyaik Khauk Pagoda Road	ကျိုက်ခေါက်ဘုရားလမ်း	Thanlyin	သန်လျင်	16.750962	96.261367
32-Mini	8	1643	Thama College	သမကောလိပ်	Thanlyin	သံလျင်	Thanlyin	သန်လျင်	16.75499102814598	96.2584948539734
32-Mini	9	1810	Kyar Paya	ကျားဘုရား	Kyaik Khauk Pagoda Road	ကျိုက်ခေါက်ဘုရားလမ်း	Thanlyin	သန်လျင်	16.757768	96.2566
32-Mini	10	1628	A Paw Kwae	အပေါ်ကွေ့	Bogyoke Road	ဗိုလ်ချုပ်လမ်း	Thanlyin	သန်လျင်	16.760382	96.252367
32-Mini	11	1626	Out Kwae	အောက်ကွေ့	Bogyoke Road	ဗိုလ်ချုပ်လမ်း	Thanlyin	သန်လျင်	16.760814	96.251112
32-Mini	12	1624	Yone Shae	ရုံးရှေ့	Bogyoke Road	ဗိုလ်ချုပ်လမ်း	Thanlyin	သန်လျင်	16.761071	96.248912
32-Mini	13	1622	Phoe Myay	ဖိုးမြေ	Bogyoke Road	ဗိုလ်ချုပ်လမ်း	Thanlyin	သန်လျင်	16.761831	96.24652
32-Mini	14	1808	Myoma Zay	ဲမြို့မဈေး	Bogyoke Nay Win Road	ဗိုလ်ချုပ်နေဝင်းလမ်း	Thanlyin	သန်လျင်	16.763618	96.24622
32-Mini	15	1807	Myoma	မြို့မ	Bogyoke Nay Win Road	ဗိုလ်ချုပ်နေဝင်းလမ်း	Thanlyin	သန်လျင်	16.768015	96.246542
32-Mini	16	1805	Dar Gude	ဒါကုရ်	Bogyoke Nay Win Road	ဗိုလ်ချုပ်နေဝင်းလမ်း	Thanlyin	သန်လျင်	16.770732	96.24658
32-Mini	17	1803	Yay Nan Gate	ရေနံဂိ်တ်	Bogyoke Nay Win Road	ဗိုလ်ချုပ်နေဝင်းလမ်း	Thanlyin	သန်လျင်	16.773198	96.246896
32-Mini	18	1801	Aung Thukha	အောင်သုခ	Bogyoke Nay Win Road	ဗိုလ်ချုပ်နေဝင်းလမ်း	Thanlyin	သန်လျင်	16.778087	96.247427
32-Mini	19	1618	Mee Point	်မီးပွိုင့်	Kyaik Khauk Pagoda Road	ကျိုက်ခေါက်ဘုရားလမ်း	Thanlyin	သန်လျင်	16.778739	96.247226
32-Mini	20	508	Lat Hmat Gate	လက်မှတ်ဂိတ်	Kyaik Khauk Pagoda Road	ကျိုက်ခေါက်ဘုရားလမ်း	Thanlyin	သန်လျင်	16.778698	96.244222
32-Mini	21	549	Tadar Htate	တံတားထိပ်	Nawarat Pat Road	နဝရတ်ပတ်လမ်း	Thaketa	သာကေတ	16.801239084808206	96.22554207220674
32-Mini	22	546	Sauk Lote Yae	ဆောက်လုပ်ရေး	Thanlyin Tada Chint Road	သန်လျှင်တံတားချင့်လမ်း	Thaketa	သာကေတ	16.803144078473853	96.22349219396712
32-Mini	23	547	Sauk Lote Yae	ဆောက်လုပ်ရေး	Yadanar Road	ရတနာလမ်း	Thaketa	သာကေတ	16.80292131131073	96.22375226346777
32-Mini	24	545	Sauk Lote Yae	ဆောက်လုပ်ရေး	Thanlyin Tada Chint Road	သန်လျှင်တံတားချင့်လမ်း	Thaketa	သာကေတ	16.80307737874286	96.2232931656763
32-Mini	25	552	Tayar-Shit Taung	(၁၀၈) တောင်	Thalyin Thada Chin Kat Road	သန်လျှင်တံတားချင့်ကပ်လမ်း	Thaketa	သာကေတ	16.80646595619294	96.21927025029437
32-Mini	26	2159	Thaketa Awine	သာကေတအဝိုင်း	Ayar Wun Main Road	ဧရာဝဏ်လမ်းမကြီး	Thaketa	သာကေတ	16.806456548186517	96.21683321194723
32-Mini	27	530	Shit Gate	(၈) ဂိတ်	Ayar Wun Main Road	ဧရာဝဏ်လမ်းမကြီး	Thaketa	သာကေတ	16.804948553065124	96.21374232228845
32-Mini	28	526	Myayni	မြေနီ	Ayar Wun Main Road	ဧရာဝဏ်လမ်းမကြီး	Thaketa	သာကေတ	16.803656271446375	96.21009707450868
32-Mini	29	522	Kyaung Kwae	ကျောင်းကွေ့	Myintawthar Road	မြင်တော်သာလမ်း	Thaketa	သာကေတ	16.803614185536972	96.2065722118132
32-Mini	30	524	Kyaung Kwae/ Htuu Par Yone	ကျောင်းကွေ့/ထူပါရုံ	Ayar Wun Main Road	ဧရာဝဏ်လမ်းမကြီး	Thaketa	သာကေတ	16.803809991254493	96.20589055353776
32-Mini	31	398	Anawmar	အနော်မာ	Ayar Wun Main Road	ဧရာဝဏ်လမ်းမကြီး	Thaketa	သာကေတ	16.803925877813356	96.20191101450476
32-Mini	32	404	Kyauk Taing	ကျောက်တိုင်	Ayar Wun Main Road	ဧရာဝဏ်လမ်းမကြီး	Thaketa	သာကေတ	16.804257850186374	96.19623910635711
32-Mini	33	572	Thuwunna Lan Sone	သုဝဏ္ဏလမ်းဆုံ	Waizayandar Road	ဝေဇယန္တာလမ်း	Thingangyun	သင်္ဃန်းကျွန်း	16.815698094823947	96.1900429520756
32-Mini	34	357	Athin Taik	အသင်းတိုက်	Lay Daung Kan Road	လေးထောင့်ကန်လမ်း	Thingangyun	သင်္ဃန်းကျွန်း	16.823051124563765	96.18346382863821
32-Mini	35	360	Khap Chee Yar	ခပ်ချီးယား	Lay Daung Kan Road	လေးထောင့်ကန်လမ်း	Thingangyun	သင်္ဃန်းကျွန်း	16.826177192022	96.18658434832471
32-Mini	36	367	Zawana	ဇဝန	Lay Daung Kan Road	လေးထောင့်ကန်လမ်း	Thingangyun	သင်္ဃန်းကျွန်း	16.82807920732785	96.18817041395235
32-Mini	37	368	Zawana	ဇဝန	Thu Mingalar Road	သုမင်္ဂလာလမ်း	Thingangyun	သင်္ဃန်းကျွန်း	16.828169138152795	96.18795208289158
32-Mini	38	1069	Thayet Taw	သရက်တော	Thu Mingalar Road	သုမင်္ဂလာလမ်း	Thingangyun	သင်္ဃန်းကျွန်း	16.832619	96.187951
32-Mini	39	1054	Aung Yadanar	အောင်ရတနာ	Thu Mingalar Road	သုမင်္ဂလာလမ်း	South Okkalapa	တောင်ဥက္ကလာပ	16.835304	96.186638
32-Mini	40	13	(Sae-Lay/ Sae-Ngar) Lan Sone	(၁၄/၁၅) လမ်းဆုံ	Thu Mingalar Road	သုမင်္ဂလာလမ်း	South Okkalapa	တောင်ဥက္ကလာပ	16.83699628909975	96.1858079954982
32-Mini	41	14	Padaythar	ပဒေသာ	Thu Mingalar Road	သုမင်္ဂလာလမ်း	South Okkalapa	တောင်ဥက္ကလာပ	16.841680924239533	96.18324872804807
32-Mini	42	1072	Yone Shae	ရုံးရှေ့	Thu Mingalar Road	သုမင်္ဂလာလမ်း	South Okkalapa	တောင်ဥက္ကလာပ	16.844541	96.181267
32-Mini	43	1068	Taung Okkalar Sar Taik	တောင်ဥက္ကလာစာတိုက်	Thu Mingalar Road	သုမင်္ဂလာလမ်း	South Okkalapa	တောင်ဥက္ကလာပ	16.846759	96.179625
32-Mini	44	1077	Inwa	အင်းဝ	Thu Mingalar Road	သုမင်္ဂလာလမ်း	South Okkalapa	တောင်ဥက္ကလာပ	16.849540622118948	96.17771046934651
32-Mini	45	17	Nandawun Zay	နန္ဒဝန်ဈေး	Thu Mingalar Road	သုမင်္ဂလာလမ်း	South Okkalapa	တောင်ဥက္ကလာပ	16.852036008309625	96.17587229702623
32-Mini	46	303	Ta Kaung	တကောင်း	Thu Mingalar Road	သုမင်္ဂလာလမ်း	South Okkalapa	တောင်ဥက္ကလာပ	16.854805688595036	96.17346153594553
32-Mini	47	2125	Kaytu Marlar Kwae	ကေတုမာလာကွေ့	Parami Road	ပါရမီလမ်း	South Okkalapa	တောင်ဥက္ကလာပ	16.856129688374033	96.1720715649426
32-Mini	48	1081	Pinya	ပင်းယ	Parami Road	ပါရမီလမ်း	South Okkalapa	တောင်ဥက္ကလာပ	16.85943	96.176149
32-Mini	49	1073	Bay Li	ဘေလီ	Parami Road	ပါရမီလမ်း	South Okkalapa	တောင်ဥက္ကလာပ	16.860898	96.177126
32-Mini	50	1288	Lay-Thone-Chauk Hmat Taing	(၄၃၆) မှတ်တိုင်	Thanthumar Road	သံသုမာလမ်း	North Okkalapa	မြောက်ဥက္ကလာပ	16.866689	96.168215
32-Mini	51	1286	Lay-Thone-Ngar Hmat Taing	(၄၃၅) မှတ်တိုင်	Thanthumar Road	သံသုမာလမ်း	North Okkalapa	မြောက်ဥက္ကလာပ	16.870478	96.16174
32-Mini	52	1282	Oak Pon Seik	အုတ်ပုံဆိပ်	Thanthumar Road	သံသုမာလမ်း	North Okkalapa	မြောက်ဥက္ကလာပ	16.87365	96.159584
32-Mini	53	1278	Kyaung Lan	ကျောင်းလမ်း	Thuzitar Street	သုဇိတာလမ်းသွယ်	North Okkalapa	မြောက်ဥက္ကလာပ	16.876771	96.15867
32-Mini	54	1273	Hnit Zay	(၂) ဈေး	Thuzitar Road	သုဇိတာလမ်း	North Okkalapa	မြောက်ဥက္ကလာပ	16.879179	96.158356
32-Mini	55	1277	Kyaung Kwae	ကျောင်းကွေ့	Phone Gyi Road	ဘုန်းကြီးလမ်း	North Okkalapa	မြောက်ဥက္ကလာပ	16.881479	96.158035
32-Mini	56	889	Phone Gyi Lan	ဘုန်းကြီးလမ်း	Thudhamar Road	သုဓမ္မာလမ်း	North Okkalapa	မြောက်ဥက္ကလာပ	16.88188224645447	96.15551120834425
32-Mini	57	885	Kyauk Yae Twin	ကျောက်ရေတွင်း	Thudhamar Road	သုဓမ္မာလမ်း	North Okkalapa	မြောက်ဥက္ကလာပ	16.88791116167424	96.15428918972613
32-Mini	58	887	Myauk Okkalar Awine	မြောက်ဥက္ကလာအဝိုင်း	Thudhamar Road	သုဓမ္မာလမ်း	North Okkalapa	မြောက်ဥက္ကလာပ	16.892739761327437	96.15506128873677
32-Mini	59	882	Ga-gyi Zay	(ဃ) ဈေး	Thudhamar Road	သုဓမ္မာလမ်း	North Okkalapa	မြောက်ဥက္ကလာပ	16.896452	96.159434
32-Mini	60	861	Thandar	သန္တာ	Thudhamar Road	သုဓမ္မာလမ်း	North Okkalapa	မြောက်ဥက္ကလာပ	16.898997	96.162273
32-Mini	61	865	Waziyar	ဝဇီယာ	Thudhamar Road	သုဓမ္မာလမ်း	North Okkalapa	မြောက်ဥက္ကလာပ	16.901507	96.16437
32-Mini	62	863	Thu Nandar	သုနန္ဒာ	Thudhamar Road	သုဓမ္မာလမ်း	North Okkalapa	မြောက်ဥက္ကလာပ	16.90436155507222	96.16570844314994
32-Mini	63	842	Eindar	က္ကန္ဒာ	Thudhamar Road	သုဓမ္မာလမ်း	North Okkalapa	မြောက်ဥက္ကလာပ	16.906969	96.16621
32-Mini	64	857	Ou Zanar	ဥဇ္ဇနာ	Thudhamar Road	သုဓမ္မာလမ်း	North Okkalapa	မြောက်ဥက္ကလာပ	16.910726	96.166001
32-Mini	65	849	Kan Tharyar	ကန်သာယာ	Thudhamar Road	သုဓမ္မာလမ်း	North Okkalapa	မြောက်ဥက္ကလာပ	16.9132609232353	96.16537733701992
32-Mini	66	1823	Ayar	ဧရာ	Thudhamar Road	သုဓမ္မာလမ်း	North Okkalapa	မြောက်ဥက္ကလာပ	16.91730520076527	96.16367541253568
32-Mini	67	818	Chauk Kwae	(၆) ကွေ့	Thudhamar Road	သုဓမ္မာလမ်း	North Okkalapa	မြောက်ဥက္ကလာပ	16.919091	96.162873
32-Mini	68	810	Dhamar Yon	ဓမ္မာရုံ	Thudhamar Road	သုဓမ္မာလမ်း	North Okkalapa	မြောက်ဥက္ကလာပ	16.92416237914078	96.15815366618338
32-Mini	69	813	Aung Mingalar A Way Pyay	အောင်မင်္ဂလာအဝေးပြေး	Thudhamar Road	သုဓမ္မာလမ်း	North Okkalapa	မြောက်ဥက္ကလာပ	16.926473729963266	96.15626067621635
32-Mini	70	815	Tat Htate	တပ်ထိပ်	Thudhamar Road	သုဓမ္မာလမ်း	North Okkalapa	မြောက်ဥက္ကလာပ	16.9300066563304	96.154864858836
32-Mini	71	1418	Ah-Hmat-Thone Lan Sone	အမှတ် (၃) လမ်းဆုံ	No. 3 Main Road	အမှတ်(၃)လမ်းမ	Mingalardon	မင်္ဂလာဒုံ	16.935730315771806	96.15226288558917
32-Mini	72	2396	Khayae Pin Yate Mon	ခရေပင်ရိပ်မွန်	Khayae Pin Road	ခရေပင်လမ်း	Mingaladon	မင်္ဂလာဒုံ	16.934478880275098	96.14887829404326
32-Mini	73	1417	Ah-Hmat-Thone Lan Sone	အမှတ် (၃) လမ်းဆုံ	No. 3 Main Road	အမှတ်(၃)လမ်းမ	Mingalardon	မင်္ဂလာဒုံ	16.935503234610785	96.1530465516262
32-Mini	74	814	Tat Htate	တပ်ထိပ်	Thudhamar Road	သုဓမ္မာလမ်း	North Okkalapa	မြောက်ဥက္ကလာပ	16.9295660314581	96.1546517489478
32-Mini	75	812	Aung Mingalar A Way Pyay	အောင်မင်္ဂလာအဝေးပြေး	Thudhamar Road	သုဓမ္မာလမ်း	North Okkalapa	မြောက်ဥက္ကလာပ	16.926507148276386	96.15607757354157
32-Mini	76	809	Dhamar Yon	ဓမ္မာရုံ	Thudhamar Road	သုဓမ္မာလမ်း	North Okkalapa	မြောက်ဥက္ကလာပ	16.924183749482854	96.1578971380368
32-Mini	77	819	Chauk Kwae	(၆) ကွေ့	Thudhamar Road	သုဓမ္မာလမ်း	North Okkalapa	မြောက်ဥက္ကလာပ	16.918460340415336	96.16298958426344
32-Mini	78	2401	Ayar	ဧရာ	Thudhamar Road	သုဓမ္မာလမ်း	North Okkalapa	မြောက်ဥက္ကလာပ	16.9173295590306	96.163487280719
32-Mini	79	850	Kan Tharyar	ကန်သာယာ	Thudhamar Road	သုဓမ္မာလမ်း	North Okkalapa	မြောက်ဥက္ကလာပ	16.913219783941475	96.16519050439821
32-Mini	80	858	Ou Zanar	ဥဇ္ဇနာ	Thudhamar Road	သုဓမ္မာလမ်း	North Okkalapa	မြောက်ဥက္ကလာပ	16.910967	96.165856
32-Mini	81	843	Eindar	က္ကန္ဒာ	Thudhamar Road	သုဓမ္မာလမ်း	North Okkalapa	မြောက်ဥက္ကလာပ	16.90722	96.166135
32-Mini	82	864	Thu Nandar	သုနန္ဒာ	Thudhamar Road	သုဓမ္မာလမ်း	North Okkalapa	မြောက်ဥက္ကလာပ	16.903951	96.165427
32-Mini	83	866	Waziyar	ဝဇီယာ	Thudhamar Road	သုဓမ္မာလမ်း	North Okkalapa	မြောက်ဥက္ကလာပ	16.901323	96.164128
32-Mini	84	862	Thandar	သန္တာ	Thudhamar Road	သုဓမ္မာလမ်း	North Okkalapa	မြောက်ဥက္ကလာပ	16.899026	96.162241
32-Mini	85	883	Ga-gyi Zay	(ဃ) ဈေး	Thudhamar Road	သုဓမ္မာလမ်း	North Okkalapa	မြောက်ဥက္ကလာပ	16.89677	96.159541
32-Mini	86	888	Myauk Okkalar Awine	မြောက်ဥက္ကလာအဝိုင်း	Thudhamar Road	သုဓမ္မာလမ်း	North Okkalapa	မြောက်ဥက္ကလာပ	16.892733405297037	96.15468894364314
32-Mini	87	886	Kyauk Yae Twin	ကျောက်ရေတွင်း	Thudhamar Road	သုဓမ္မာလမ်း	North Okkalapa	မြောက်ဥက္ကလာပ	16.889507722313613	96.15371194900948
32-Mini	88	890	Phone Gyi Lan	ဘုန်းကြီးလမ်း	Thudhamar Road	သုဓမ္မာလမ်း	North Okkalapa	မြောက်ဥက္ကလာပ	16.882091345698665	96.15521738072859
32-Mini	89	1276	Kyaung Kwae	ကျောင်းကွေ့	Phone Gyi Road	ဘုန်းကြီးလမ်း	North Okkalapa	မြောက်ဥက္ကလာပ	16.881386	96.158051
32-Mini	90	1272	Hnit Zay	(၂) ဈေး	Thuzitar Road	သုဇိတာလမ်း	North Okkalapa	မြောက်ဥက္ကလာပ	16.879066	96.158233
32-Mini	91	1279	Kyaung Lan	ကျောင်းလမ်း	Thuzitar Street	သုဇိတာလမ်းသွယ်	North Okkalapa	မြောက်ဥက္ကလာပ	16.876689	96.158391
32-Mini	92	1283	Oak Pon Seik	အုတ်ပုံဆိပ်	Thanthumar Road	သံသုမာလမ်း	North Okkalapa	မြောက်ဥက္ကလာပ	16.873691	96.159359
32-Mini	93	1287	Lay-Thone-Ngar Hmat Taing	(၄၃၅) မှတ်တိုင်	Thanthumar Road	သံသုမာလမ်း	North Okkalapa	မြောက်ဥက္ကလာပ	16.870354	96.161612
32-Mini	94	1289	Lay-Thone-Chauk Hmat Taing	(၄၃၆) မှတ်တိုင်	Thanthumar Road	သံသုမာလမ်း	North Okkalapa	မြောက်ဥက္ကလာပ	16.866730096088645	96.16781502496453
32-Mini	95	1074	Bay Li	ဘေလီ	Parami Road	ပါရမီလမ်း	South Okkalapa	တောင်ဥက္ကလာပ	16.86095	96.177093
32-Mini	96	2352	Pinya	ပင်းယ	Parami Road	ပါရမီလမ်း	South Okkalapa	တောင်ဥက္ကလာပ	16.85950512390363	96.17608593078333
32-Mini	97	1247	Kaytu Marlar Kwae	ကေတုမာလာကွေ့	Parami Road	ပါရမီလမ်း	South Okkalapa	တောင်ဥက္ကလာပ	16.856264313885067	96.17213245946915
32-Mini	98	304	Ta Kaung	တကောင်း	Thu Mingalar Road	သုမင်္ဂလာလမ်း	South Okkalapa	တောင်ဥက္ကလာပ	16.85492188488732	96.17310744244607
32-Mini	99	16	Nandawun Zay	နန္ဒဝန်ဈေး	Thu Mingalar Road	သုမင်္ဂလာလမ်း	South Okkalapa	တောင်ဥက္ကလာပ	16.851780308296124	96.17582898354159
32-Mini	100	1076	Inwa	အင်းဝ	Thu Mingalar Road	သုမင်္ဂလာလမ်း	South Okkalapa	တောင်ဥက္ကလာပ	16.84950257748793	96.17750647477808
32-Mini	101	1067	Taung Okkalar Sar Taik	တောင်ဥက္ကလာစာတိုက်	Thu Mingalar Road	သုမင်္ဂလာလမ်း	South Okkalapa	တောင်ဥက္ကလာပ	16.846687	96.179389
32-Mini	102	2132	Yone Shae	ရုံးရှေ့	Thu Mingalar Road	သုမင်္ဂလာလမ်း	South Okkalapa	တောင်ဥက္ကလာပ	16.844449	96.181095
32-Mini	103	15	Padaythar	ပဒေသာ	Thu Mingalar Road	သုမင်္ဂလာလမ်း	South Okkalapa	တောင်ဥက္ကလာပ	16.84227260172592	96.18263882541216
32-Mini	104	12	(Sae-Lay/ Sae-Ngar) Lan Sone	(၁၄/၁၅) လမ်းဆုံ	Thu Mingalar Road	သုမင်္ဂလာလမ်း	South Okkalapa	တောင်ဥက္ကလာပ	16.836957339405043	96.18565733078869
32-Mini	105	1053	Aung Yadanar	အောင်ရတနာ	Thu Mingalar Road	သုမင်္ဂလာလမ်း	South Okkalapa	တောင်ဥက္ကလာပ	16.835243	96.186482
32-Mini	106	2131	Thayet Taw	သရက်တော	Thu Mingalar Road	သုမင်္ဂလာလမ်း	Thingangyun	သင်္ဃန်းကျွန်း	16.832547	96.187779
32-Mini	107	369	Zawana	ဇဝန	Thu Mingalar Road	သုမင်္ဂလာလမ်း	Thingangyun	သင်္ဃန်းကျွန်း	16.828347114200742	96.18792818038857
32-Mini	108	366	Zawana	ဇဝန	Lay Daung Kan Road	လေးထောင့်ကန်လမ်း	Thingangyun	သင်္ဃန်းကျွန်း	16.827762389884697	96.18795190133825
32-Mini	109	361	Khap Chee Yar	ခပ်ချီးယား	Lay Daung Kan Road	လေးထောင့်ကန်လမ်း	Thingangyun	သင်္ဃန်းကျွန်း	16.826197871436484	96.18649849668148
32-Mini	110	356	Athin Taik	အသင်းတိုက်	Lay Daung Kan Road	လေးထောင့်ကန်လမ်း	Thingangyun	သင်္ဃန်းကျွန်း	16.82307152350803	96.1833661585115
32-Mini	111	2393	Thuwunna Lan Sone	သုဝဏ္ဏလမ်းဆုံ	Waizayandar Road	ဝေဇယန္တာလမ်း	Thingangyun	သင်္ဃန်းကျွန်း	16.8131511194368	96.1917712166905
32-Mini	112	403	Kyauk Taing	ကျောက်တိုင်	Ayar Wun Main Road	ဧရာဝဏ်လမ်းမကြီး	Thaketa	သာကေတ	16.804242484265444	96.19614460039885
32-Mini	113	397	Anawmar	အနော်မာ	Ayar Wun Main Road	ဧရာဝဏ်လမ်းမကြီး	Thaketa	သာကေတ	16.80387992038607	96.20176776777953
32-Mini	114	523	Kyaung Kwae/ Htuu Par Yone	ကျောင်းကွေ့/ထူပါရုံ	Ayar Wun Main Road	ဧရာဝဏ်လမ်းမကြီး	Thaketa	သာကေတ	16.80371470625175	96.20586662320422
32-Mini	115	521	Kyaung Kwae	ကျောင်းကွေ့	Myintawthar Road	မြင်တော်သာလမ်း	Thaketa	သာကေတ	16.803613042116037	96.2064541107975
32-Mini	116	525	Myayni	မြေနီ	Ayar Wun Main Road	ဧရာဝဏ်လမ်းမကြီး	Thaketa	သာကေတ	16.803537897279856	96.20986435096712
32-Mini	117	529	Shit Gate	(၈) ဂိတ်	Ayar Wun Main Road	ဧရာဝဏ်လမ်းမကြီး	Thaketa	သာကေတ	16.804750521874205	96.21352799702437
32-Mini	118	553	Thaketa Awine	သာကေတအဝိုင်း	Ayar Wun Main Road	ဧရာဝဏ်လမ်းမကြီး	Thaketa	သာကေတ	16.80611452972553	96.21627231594177
32-Mini	119	551	Tayar-Shit Taung	(၁၀၈) တောင်	Thalyin Thada Chin Kat Road	သန်လျှင်တံတားချင့်ကပ်လမ်း	Thaketa	သာကေတ	16.806431	96.218966
32-Mini	120	550	Tadar Htate	တံတားထိပ်	Nawarat Pat Road	နဝရတ်ပတ်လမ်း	Thaketa	သာကေတ	16.801254430912103	96.22528231702745
32-Mini	121	507	Lat Hmat Gate	လက်မှတ်ဂိတ်	Kyaik Khauk Pagoda Road	ကျိုက်ခေါက်ဘုရားလမ်း	Thanlyin	သန်လျင်	16.77839	96.243879
32-Mini	122	1619	Mee Point	်မီးပွိုင့်	Kyaik Khauk Pagoda Road	ကျိုက်ခေါက်ဘုရားလမ်း	Thanlyin	သန်လျင်	16.77895653734981	96.24703176319599
32-Mini	123	1800	Aung Thukha	အောင်သုခ	Bogyoke Nay Win Road	ဗိုလ်ချုပ်နေဝင်းလမ်း	Thanlyin	သန်လျင်	16.778113	96.247347
32-Mini	124	1802	Yay Nan Gate	ရေနံဂိ်တ်	Bogyoke Nay Win Road	ဗိုလ်ချုပ်နေဝင်းလမ်း	Thanlyin	သန်လျင်	16.773066381424545	96.24667687341571
32-Mini	125	1804	Dar Gude	ဒါကုရ်	Bogyoke Nay Win Road	ဗိုလ်ချုပ်နေဝင်းလမ်း	Thanlyin	သန်လျင်	16.770742	96.246504
32-Mini	126	1806	Myoma	မြို့မ	Bogyoke Nay Win Road	ဗိုလ်ချုပ်နေဝင်းလမ်း	Thanlyin	သန်လျင်	16.768025	96.246483
32-Mini	127	1809	Myoma Zay	ဲမြို့မဈေး	Bogyoke Nay Win Road	ဗိုလ်ချုပ်နေဝင်းလမ်း	Thanlyin	သန်လျင်	16.763616840580703	96.2460969714448
32-Mini	128	1621	Phoe Myay	ဖိုးမြေ	Bogyoke Road	ဗိုလ်ချုပ်လမ်း	Thanlyin	သန်လျင်	16.76179	96.246359
32-Mini	129	1623	Yone Shae	ရုံးရှေ့	Bogyoke Road	ဗိုလ်ချုပ်လမ်း	Thanlyin	သန်လျင်	16.760886	96.248676
32-Mini	130	1625	Out Kwae	အောက်ကွေ့	Bogyoke Road	ဗိုလ်ချုပ်လမ်း	Thanlyin	သန်လျင်	16.760886	96.250929
32-Mini	131	1627	A Paw Kwae	အပေါ်ကွေ့	Bogyoke Road	ဗိုလ်ချုပ်လမ်း	Thanlyin	သန်လျင်	16.760208	96.252088
32-Mini	132	1811	Kyar Paya	ကျားဘုရား	Kyaik Khauk Pagoda Road	ကျိုက်ခေါက်ဘုရားလမ်း	Thanlyin	သန်လျင်	16.757735198524692	96.25641010701658
32-Mini	133	541	Thama College	သမကောလိပ်	Thanlyin	သံလျင်	Thanlyin	သန်လျင်	16.75506077459433	96.25814553815873
32-Mini	134	1813	Sal Myaung	ဆည်မြောင်း	Kyaik Khauk Pagoda Road	ကျိုက်ခေါက်ဘုရားလမ်း	Thanlyin	သန်လျင်	16.75087108658183	96.2610245961696
32-Mini	135	1629	Aung Chan Thar	အောင်ချမ်းသာ	Kyaik Khauk Pagoda Road	ကျိုက်ခေါက်ဘုရားလမ်း	Thanlyin	သန်လျင်	16.745436727103243	96.2650060420856
32-Mini	136	1631	Sae-Shit Kone	(၁၈) ကုန်း	Kyaik Khauk Pagoda Road	ကျိုက်ခေါက်ဘုရားလမ်း	Thanlyin	သန်လျင်	16.739825	96.26804
32-Mini	137	2477	Kyeik Kouk Phayar	ကျိုက်ခေါက်ဘုရား	Thanlyin	သန်လျင်	Thanlyin	သန်လျင်	16.7296571513517	96.2692976393737
32-Mini	138	2475	Phar Out	ဖားအောက်	Thanlyin	သန်လျင်	Thanlyin	သန်လျင်	16.7275646884508	96.2686614738777
32-Mini	139	2472	Yay Kyaung Lan Sone	ရေကြောင်းလမ်းဆုံ	Thanlyin	သန်လျင်	Thanlyin	သန်လျင်	16.7169385060719	96.2613621773198
32-Mini	140	2471	Myanmar Maritime University	ရေကြောင်းတက္ကသိုလ်	Thanlyin	သန်လျင်	Thanlyin	သန်လျင်	16.7050022823246	96.2664020061493
