svc_name	sequence	stop_id	name_en	name_mm	road_en	road_mm	township_en	township_mm	lat	lng
97	1	1617	See Pwar Yay Takke Tho	စီးပွားရေးတက္ကသိုလ်	No. 2 Main Road	အမှတ်(၂)လမ်းမ	South Dagon	တောင်ဒဂုံ	16.929083648278112	96.26789570320398
97	2	2102	Kyo So Yay	ကြိုဆိုရေး	No. 2 Main Road	အမှတ်(၂)လမ်းမ	South Dagon	တောင်ဒဂုံ	16.924359	96.263776
97	3	2104	Sal Myaung	ဆည်မြောင်း	No. 2 Main Road	အမှတ်(၂)လမ်းမ	South Dagon	တောင်ဒဂုံ	16.922925	96.262463
97	4	2106	Tayar-Lay-Sae	တစ်ရာ့လေးဆယ်	No. 2 Main Road	အမှတ်(၂)လမ်းမ	South Dagon	တောင်ဒဂုံ	16.915075	96.255732
97	5	2108	Kyaung Shae	ကျောင်းရှေ့	No. 2 Main Road	အမှတ်(၂)လမ်းမ	South Dagon	တောင်ဒဂုံ	16.911323677774796	96.25242576934397
97	6	2110	Ah Kyaw Tae	အကြော်တဲ	No. 2 Main Road	အမှတ်(၂)လမ်းမ	South Dagon	တောင်ဒဂုံ	16.907097	96.249969
97	7	2112	Nyaung Pin	ညောင်ပင်	No. 2 Main Road	အမှတ်(၂)လမ်းမ	South Dagon	တောင်ဒဂုံ	16.905454	96.248939
97	8	2114	A Kauk Khun	အကောက်ခွန်	No. 2 Main Road	အမှတ်(၂)လမ်းမ	South Dagon	တောင်ဒဂုံ	16.90336	96.247823
97	9	2116	Lai Sin Yone Alal Pauk	လိုင်စင်ရုံး (အလယ်ပေါက်)	No. 2 Main Road	အမှတ်(၂)လမ်းမ	South Dagon	တောင်ဒဂုံ	16.895251	96.24257
97	10	762	U Tun Myat	ဦးထွန်းမြတ်	No. 2 Main Road	အမှတ်(၂)လမ်းမ	South Dagon	တောင်ဒဂုံ	16.893779420554846	96.24156068544836
97	11	758	Say Yon Shae	ဆေးရုံရှေ့	No. 2 Main Road	အမှတ်(၂)လမ်းမ	South Dagon	တောင်ဒဂုံ	16.891247	96.23963
97	12	746	Kyauk Lan	ကျောက်လမ်း	No. 2 Main Road	အမှတ်(၂)လမ်းမ	South Dagon	တောင်ဒဂုံ	16.883578	96.234031
97	13	1014	Tat Yin Thone	တပ်ရင်း (၃)	No. 2 Main Road	အမှတ်(၂)လမ်းမ	South Dagon	တောင်ဒဂုံ	16.878599	96.230459
97	14	1012	Lay Kyaung	လေကျောင်း	No. 2 Main Road	အမှတ်(၂)လမ်းမ	South Dagon	တောင်ဒဂုံ	16.874656	96.227508
97	15	1016	Thin Tan Kyaung	သင်တန်းကျောင်း	No. 2 Main Road	အမှတ်(၂)လမ်းမ	South Dagon	တောင်ဒဂုံ	16.871297828689613	96.2248954921961
97	16	2	Nat Sin	နတ်စင်	No. 2 Main Road	အမှတ်(၂)လမ်းမ	South Dagon	တောင်ဒဂုံ	16.869142857347608	96.22240983881059
97	17	679	Taung Myauk Lan Sone	တောင်/မြောက်လမ်းဆုံ	No. 2 Main Road	အမှတ်(၂)လမ်းမ	South Dagon	တောင်ဒဂုံ	16.862961456099224	96.21641847537832
97	18	674	Tadar Phyu	တံတားဖြူ	No. 2 Main Road	အမှတ်(၂)လမ်းမ	South Dagon	တောင်ဒဂုံ	16.857583069279	96.212414985057
97	19	628	Kar Gyi Gate	ကားကြီးဂိတ်	No. 2 Main Road	အမှတ်(၂)လမ်းမ	South Dagon	တောင်ဒဂုံ	16.847393204315072	96.20903999079022
97	20	630	Sanpya Zay Kwae	စံပြဈေးကွေ့	Thanthumar Road	သံသုမာလမ်း	Thingangyun	သင်္ဃန်းကျွန်း	16.83949687481868	96.20740019716325
97	21	626	Chan Aye/ Thwar Say	ချမ်းအေးသွားဆေး	Thanthumar Road	သံသုမာလမ်း	Thingangyun	သင်္ဃန်းကျွန်း	16.832865	96.20798
97	22	637	Waibula	ဝေဘူလ	Thanthumar Road	သံသုမာလမ်း	Thingangyun	သင်္ဃန်းကျွန်း	16.830512077460014	96.20798843912782
97	23	592	Thuwunna Zay	သုဝဏ္ဏဈေး	Thanthumar Road	သံသုမာလမ်း	Thingangyun	သင်္ဃန်းကျွန်း	16.82519428541537	96.20656682644041
97	24	582	Mee Don	မီးဒုံး	Thanthumar Road	သံသုမာလမ်း	Thingangyun	သင်္ဃန်းကျွန်း	16.823329107627952	96.205472946167
97	25	584	Min Din	မင်းဒင်	Thanthumar Road	သံသုမာလမ်း	Thingangyun	သင်္ဃန်းကျွန်း	16.82228408656182	96.20429570786656
97	26	564	Paw San Hmwe	ပေါ်ဆန်းမွှေး	Thanthumar Road	သံသုမာလမ်း	Thingangyun	သင်္ဃန်းကျွန်း	16.821269788819052	96.20294043794276
97	27	561	Kyaung Lan	ကျောင်းလမ်း	Thanthumar Road	သံသုမာလမ်း	Thingangyun	သင်္ဃန်းကျွန်း	16.81989519891245	96.20065764756875
97	28	566	Su Paung	စုပေါင်း	Thanthumar Road	သံသုမာလမ်း	Thingangyun	သင်္ဃန်းကျွန်း	16.818703899550005	96.19875895790759
97	29	574	Yae Set	ရေစက်	Thanthumar Road	သံသုမာလမ်း	Thingangyun	သင်္ဃန်းကျွန်း	16.816679873960126	96.19488132906555
97	30	570	Thuwunna Lan Sone	သုဝဏ္ဏလမ်းဆုံ	Thanthumar Road	သံသုမာလမ်း	Thingangyun	သင်္ဃန်းကျွန်း	16.81503896354181	96.19104266166688
97	31	359	Kaw Set	ကော်စက်	Thanthumar Road	သံသုမာလမ်း	Thingangyun	သင်္ဃန်းကျွန်း	16.81390294961131	96.18837193585934
97	32	392	Zay Lay	ဈေးလေး	Thanthumar Road	သံသုမာလမ်း	Thingangyun	သင်္ဃန်းကျွန်း	16.80992578411149	96.18358842562886
97	33	377	Chauk Lan	(၆) လမ်း	Upper Pazundaung Road	အထက်ပုဇွန်တောင်လမ်း	Pazundaung	ပုဇွန်တောင်	16.80380672147519	96.18508073966952
97	34	371	A.B.C	အေဘီစီ	Upper Pazundaung Road	အထက်ပုဇွန်တောင်လမ်း	Pazundaung	ပုဇွန်တောင်	16.79994	96.186782
97	35	390	Yone Lay	ရုံးလေး	Upper Pazundaung Road	အထက်ပုဇွန်တောင်လမ်း	Pazundaung	ပုဇွန်တောင်	16.797218	96.186182
97	36	441	Koe Lan	(၉) လမ်း	Upper Pazundaung Road	အထက်ပုဇွန်တောင်လမ်း	Mingalar Taung Nyunt	မင်္ဂလာတောင်ညွန့်	16.792376131395525	96.18502307217571
97	37	439	Athin Taik	အသင်းတိုက်	Upper Pazundaung Road	အထက်ပုဇွန်တောင်လမ်း	Mingalar Taung Nyunt	မင်္ဂလာတောင်ညွန့်	16.790336237025983	96.18324508192019
97	38	443	Mingalar Zay	မင်္ဂလာဈေး	Mill Road	စက်ရုံလမ်း	Mingalar Taung Nyunt	မင်္ဂလာတောင်ညွန့်	16.791772569051048	96.17468064185232
97	39	453	Yuzana Plaza/ Lan Kyal	ယုဇနပလာဇာ/လမ်းကျယ်	Banyardala Road	ဗညားဒလလမ်း	Mingalar Taung Nyunt	မင်္ဂလာတောင်ညွန့်	16.794241794144632	96.1756777111441
97	40	375	Aung Mingalar	အောင်မင်္ဂလာ	Banyardala Road	ဗညားဒလလမ်း	Mingalar Taung Nyunt	မင်္ဂလာတောင်ညွန့်	16.796485925479523	96.17683447664605
97	41	387	Thida	သီတာ	Banyardala Road	ဗညားဒလလမ်း	Mingalar Taung Nyunt	မင်္ဂလာတောင်ညွန့်	16.79939878707904	96.1760182469152
97	42	239	Byaing Yae Oh Sin	ဗျိုင်းရေအိုးစင်	Banyardala Road	ဗညားဒလလမ်း	Tamwe	တာမွေ	16.806694055071702	96.17217367747799
97	43	333	Awine Htate/ Tamwe	အဝိုင်းထိပ်/ တာမွေ	East Shwe Gon Daing Road	အရှေ့ရွှေဂုံတိုင်လမ်း	Bahan	ဗဟန်း	16.81164669784772	96.17015008338059
97	44	233	Chauk Htat Kyee	(၆) ထပ်ကြီး	East Shwe Gon Daing Road	အရှေ့ရွှေဂုံတိုင်လမ်း	Bahan	ဗဟန်း	16.811227	96.165963
97	45	235	Ngar Htat Kyee	(၅) ထပ်ကြီး	East Shwe Gon Daing Road	အရှေ့ရွှေဂုံတိုင်လမ်း	Bahan	ဗဟန်း	16.810709	96.163007
97	46	227	Bandar Pin	ဗန်ဒါပင်	East Shwe Gon Daing Road	အရှေ့ရွှေဂုံတိုင်လမ်း	Bahan	ဗဟန်း	16.810236	96.160738
97	47	2177	Shwe Gon Daing	ရွှေဂုံတိုင်	East Shwe Gon Daing Road	အရှေ့ရွှေဂုံတိုင်လမ်း	Bahan	ဗဟန်း	16.80679	96.156254
97	48	229	Shwe Gon Daing	ရွှေဂုံတိုင်	West Shwe Gon Daing Road	အနောက်ရွှေဂုံတိုင်လမ်း	Bahan	ဗဟန်း	16.80552882418637	96.15440628491342
97	49	225	Oak Lan	အုတ်လမ်း	West Shwe Gon Daing Road	အနောက်ရွှေဂုံတိုင်လမ်း	Bahan	ဗဟန်း	16.804480996918812	96.15122687187979
97	50	223	Link Lan	လင့်လမ်း	Shwe Gon Road	ရွှေဂုံလမ်း	Bahan	ဗဟန်း	16.806090939455864	96.14742122246754
97	51	274	Wizaya Plaza	ဝိဇယပလာဇာ	Dhamazedi Road	ဓမ္မစေတီလမ်း	Bahan	ဗဟန်း	16.805199662416154	96.14333391655238
97	52	266	Myaynigone	မြေနီကုန်း	Bargayar Road	ဗားဂရာလမ်း	San Chaung	စမ်းချောင်း	16.803804	96.138814
97	53	264	Mahar Myaing	မဟာမြိုင်	Pyay Road	ပြည်လမ်း	San Chaung	စမ်းချောင်း	16.806672	96.13654
97	54	262	Hantharwaddy	ဟံသာဝတီ	Pyay Road	ပြည်လမ်း	San Chaung	စမ်းချောင်း	16.811922855564923	96.13503597189266
97	55	319	Saik Pyoe Yay	စိုက်ပျိုးရေး	Pyay Road	ပြည်လမ်း	Kamayut	ကမာရွတ်	16.817862	96.133326
97	56	1188	Marlar	မာလာ	Pyay Road	ပြည်လမ်း	Kamayut	ကမာရွတ်	16.832547	96.132826
97	57	1190	Tadar Phyu	တံတားဖြူ	Pyay Road	ပြည်လမ်း	Hlaing	လှိုင်	16.83915	96.134757
97	58	1186	Chauk Mile Khawe	(၆) မိုင်ခွဲ	Pyay Road	ပြည်လမ်း	Mayangone	မရမ်းကုန်း	16.844326	96.135839
97	59	1235	Kyaung Kwae	ကျောင်းကွေ့	Pyay Road	ပြည်လမ်း	Hlaing	လှိုင်	16.84793	96.136581
97	60	1229	A.D	အေဒီ	Pyay Road	ပြည်လမ်း	Hlaing	လှိုင်	16.85360553755692	96.14090073388071
97	61	1233	Khun-hnat Mile	(၇) မိုင်	Pyay Road	ပြည်လမ်း	Mayangone	မရမ်းကုန်း	16.856031	96.141375
97	62	1268	Shit Mile	(၈) မိုင်	Pyay Road	ပြည်လမ်း	Mayangone	မရမ်းကုန်း	16.867474574530302	96.14175093127416
97	63	1261	Mahar Si	မဟာစည်	Pyay Road	ပြည်လမ်း	Mayangone	မရမ်းကုန်း	16.87252746521005	96.13994339480998
97	64	1259	A One	အေဝမ်း	Pyay Road	ပြည်လမ်း	Mayangone	မရမ်းကုန်း	16.877625558710985	96.13767097704114
97	65	1298	Koe Mile	(၉) မိုင်	Pyay Road	ပြည်လမ်း	Mayangone	မရမ်းကုန်း	16.880519	96.13626
97	66	1300	Koe Mile Khawe	(၉) မိုင်ခွဲ	Pyay Road	ပြည်လမ်း	Mayangone	မရမ်းကုန်း	16.88384696413571	96.13588529638947
97	67	40	Sae-Mile Kone	(၁၀) မိုင်ကုန်း	Pyay Road	ပြည်လမ်း	Insein	အင်းစိန်	16.88897721453234	96.12986868247393
97	68	1295	A Way Pyay	အဝေးပြေး	Pyay Road	ပြည်လမ်း	Insein	အင်းစိန်	16.888651646674504	96.12301192944871
97	69	1296	Saw Bwar Gyi Kone Lan Sone	စော်ဘွားကြီးကုန်းလမ်းဆုံ	Pyay Road	ပြည်လမ်း	Insein	အင်းစိန်	16.891840811985514	96.12003356684001
97	70	45	Htan Pin Kone	ထန်းပင်ကုန်း	No. 1 Main Road	အမှတ်(၁)လမ်းမ	Mingalardon	မင်္ဂလာဒုံ	16.90029241877987	96.1243827478029
97	71	1371	Kalar Paya	ကုလားဘုရား	No. 1 Main Road	အမှတ်(၁)လမ်းမ	Mingalardon	မင်္ဂလာဒုံ	16.905703933352523	96.12899553962053
97	72	1373	Pan Chan Kone	ပန်းခြံကုန်း	No. 1 Main Road	အမှတ်(၁)လမ်းမ	Mingalardon	မင်္ဂလာဒုံ	16.91071	96.131977
97	73	1394	B.O.C	ဘီအိုစီ	No. 1 Main Road	အမှတ်(၁)လမ်းမ	Mingalardon	မင်္ဂလာဒုံ	16.915565	96.134779
97	74	1399	Say Kyaung	ဆေးကျောင်း	No. 1 Main Road	အမှတ်(၁)လမ်းမ	Mingalardon	မင်္ဂလာဒုံ	16.92003	96.134199
97	75	1061	Sar Taik	စာတိုက်	No. 1 Main Road	အမှတ်(၁)လမ်းမ	Mingalardon	မင်္ဂလာဒုံ	16.923592	96.133438
97	76	1397	Khayae Pin Lan Khawe	ခရေပင်လမ်းခွဲ	No. 1 Main Road	အမှတ်(၁)လမ်းမ	Mingalardon	မင်္ဂလာဒုံ	16.927303171944107	96.13170620519669
97	77	1396	Khayae Pin Lan Khawe	ခရေပင်လမ်းခွဲ	Khayae Pin Road	ခရေပင်လမ်း	Mingalardon	မင်္ဂလာဒုံ	16.928300462082344	96.13208529772238
97	78	1403	Yar Thet Pan	ရာသက်ပန်	Khayae Pin Road	ခရေပင်လမ်း	Mingalardon	မင်္ဂလာဒုံ	16.930114386749644	96.13701406633484
97	79	1401	Thone Yarthi	သုံးရာသီ	Khayae Pin Road	ခရေပင်လမ်း	Mingalardon	မင်္ဂလာဒုံ	16.931647203114764	96.1412768927403
97	80	2397	Khayae Pin Yate Mon	ခရေပင်ရိပ်မွန်	Khayae Pin Road	ခရေပင်လမ်း	Mingaladon	မင်္ဂလာဒုံ	16.934386748249768	96.1489316239022
97	81	1418	Ah-Hmat-Thone Lan Sone	အမှတ် (၃) လမ်းဆုံ	No. 3 Main Road	အမှတ်(၃)လမ်းမ	Mingalardon	မင်္ဂလာဒုံ	16.935730315771806	96.15226288558917
97	82	1416	Alal Pauk	အလယ်ပေါက်	No. 3 Main Road	အမှတ်(၃)လမ်းမ	Mingalardon	မင်္ဂလာဒုံ	16.940879800649824	96.1517957202159
97	83	590	Ta Yar Yone	တရားရုံး	No. 3 Main Road	အမှတ်(၃)လမ်းမ	Mingalardon	မင်္ဂလာဒုံ	16.948074394437004	96.15052982233468
97	84	1423	Oh Eain	အိုးအိမ်	No. 3 Main Road	အမှတ်(၃)လမ်းမ	Mingalardon	မင်္ဂလာဒုံ	16.95324001759319	96.14966340595858
97	85	1420	Nyaung Pin	ညောင်ပင်	No. 3 Main Road	အမှတ်(၃)လမ်းမ	Mingalardon	မင်္ဂလာဒုံ	16.957062033143238	96.14899792475626
97	86	1424	Thingangyun	သင်္ဃန်းကျွန်း	No. 3 Main Road	အမှတ်(၃)လမ်းမ	Mingalardon	မင်္ဂလာဒုံ	16.962464880588353	96.1481743399054
97	87	51	Sae-Hnit Lan	(၁၂) လမ်း	No. 3 Main Road	အမှတ်(၃)လမ်းမ	Mingalardon	မင်္ဂလာဒုံ	16.964758964750473	96.14811145467687
97	88	1450	Palae Eain Yar	ပုလဲအိမ်ယာ	No. 3 Main Road	အမှတ်(၃)လမ်းမ	Mingalardon	မင်္ဂလာဒုံ	16.968784237266046	96.14801215007904
97	89	1448	Chauk Lan	(၆) လမ်း	No. 3 Main Road	အမှတ်(၃)လမ်းမ	Mingalardon	မင်္ဂလာဒုံ	16.97063795612536	96.14792988169938
97	90	1458	Yakhine Kyaung	ရခိုင်ကျောင်း	No. 3 Main Road	အမှတ်(၃)လမ်းမ	Mingalardon	မင်္ဂလာဒုံ	16.97398622826001	96.14780878415333
97	91	1454	Tadar Phyu	တံတားဖြူ	No. 3 Main Road	အမှတ်(၃)လမ်းမ	Mingalardon	မင်္ဂလာဒုံ	16.97733137431306	96.1477044085041
97	92	1453	Palae Lan Sone	ပုလဲလမ်းဆုံ	No. 3 Main Road	အမှတ်(၃)လမ်းမ	Mingalardon	မင်္ဂလာဒုံ	16.981894240252835	96.1472080112435
97	93	1457	Thone Thone Lone	သုံးသုံးလုံး	No. 3 Main Road	အမှတ်(၃)လမ်းမ	Mingalardon	မင်္ဂလာဒုံ	16.9840053947385	96.14648593124004
97	94	1428	Hmoe Yon	မှိုုရုံ	No. 3 Main Road	အမှတ်(၃)လမ်းမ	Mingalardon	မင်္ဂလာဒုံ	16.98900638044869	96.14459193544464
97	95	55	Nilar	နီလာ	No. 3 Main Road	အမှတ်(၃)လမ်းမ	Mingalardon	မင်္ဂလာဒုံ	16.99238055709902	96.1442415090278
97	96	1440	Saing Bote	ဆိုင်းဘုတ်	No. 3 Main Road	အမှတ်(၃)လမ်းမ	Mingalardon	မင်္ဂလာဒုံ	16.994324121501144	96.14414905663581
97	97	1432	London Set Yon	လန်ဒန်စက်ရုံ	No. 3 Main Road	အမှတ်(၃)လမ်းမ	Mingalardon	မင်္ဂလာဒုံ	16.996689898254097	96.14463736535984
97	98	1465	Kon Ta La Paung	ကုန်းတလပေါင်	No. 3 Main Road	အမှတ်(၃)လမ်းမ	Mingalardon	မင်္ဂလာဒုံ	17.000718633818547	96.14459206117319
97	99	1479	Tat Yin Koe	တပ်ရင်း (၉)	No. 3 Main Road	အမှတ်(၃)လမ်းမ	Mingalardon	မင်္ဂလာဒုံ	17.003502559285785	96.14445503801109
97	100	1482	Yae Set	ရေစက်	No. 3 Main Road	အမှတ်(၃)လမ်းမ	Mingalardon	မင်္ဂလာဒုံ	17.00632964630908	96.14474930567668
97	101	1476	Site Thit	ဆိုက်သစ်	No. 3 Set Thwe Road	အမှတ်(၃)စက်သွယ်လမ်း	Mingalardon	မင်္ဂလာဒုံ	17.01509444298104	96.14532354986298
97	102	1480	War Saing	ဝါးဆိုင်	No. 3 Set Thwe Road	အမှတ်(၃)စက်သွယ်လမ်း	Mingalardon	မင်္ဂလာဒုံ	17.019923663449635	96.14288131473587
97	103	62	Nwe Khwe	နွယ်ခွေ	No. 3 Set Thwe Road	အမှတ်(၃)စက်သွယ်လမ်း	Mingalardon	မင်္ဂလာဒုံ	17.022687	96.140088
97	104	1471	Lay Yat Kwet	(၄) ရပ်ကွက်	No. 3 Set Thwe Road	အမှတ်(၃)စက်သွယ်လမ်း	Mingalardon	မင်္ဂလာဒုံ	17.02427883571988	96.13859422272074
97	105	66	Tit Yat Kwat	(၁) ရပ်ကွက်	No. 3 Set Thwe Road	အမှတ်(၃)စက်သွယ်လမ်း	Mingalardon	မင်္ဂလာဒုံ	17.026483	96.136247
97	106	1469	Kyaung Shae	ကျောင်းရှေ့	No. 1 Main Road	အမှတ်(၁)လမ်းမ	Mingalardon	မင်္ဂလာဒုံ	17.03120950570694	96.1321399686858
97	107	2206	Lan Thit	လမ်းသစ်	No. 1 Main Road	အမှတ်(၁)လမ်းမ	Mingalardon	မင်္ဂလာဒုံ	17.03743217934309	96.13143140450121
97	108	1971	Htauk Kyant Lan Sone	ထောက်ကြန့်လမ်းဆုံ	No. 1 Main Road	အမှတ်(၁)လမ်းမ	Mingalardon	မင်္ဂလာဒုံ	17.04259003163401	96.13333130953836
97	109	2207	Lan Thit	လမ်းသစ်	No. 1 Main Road	အမှတ်(၁)လမ်းမ	Mingalardon	မင်္ဂလာဒုံ	17.037797820068036	96.13129090284932
97	110	1468	Kyaung Shae	ကျောင်းရှေ့	No. 1 Main Road	အမှတ်(၁)လမ်းမ	Mingalardon	မင်္ဂလာဒုံ	17.03111213172036	96.13192968769
97	111	65	Tit Yat Kwat	(၁) ရပ်ကွက်	No. 3 Set Thwe Road	အမှတ်(၃)စက်သွယ်လမ်း	Mingalardon	မင်္ဂလာဒုံ	17.026319	96.13614
97	112	1470	Lay Yat Kwet	(၄) ရပ်ကွက်	No. 3 Set Thwe Road	အမှတ်(၃)စက်သွယ်လမ်း	Mingalardon	မင်္ဂလာဒုံ	17.024106080620214	96.13848494365811
97	113	61	Nwe Khwe	နွယ်ခွေ	No. 3 Set Thwe Road	အမှတ်(၃)စက်သွယ်လမ်း	Mingalardon	မင်္ဂလာဒုံ	17.022482170880327	96.14054949022831
97	114	1481	War Saing	ဝါးဆိုင်	No. 3 Set Thwe Road	အမှတ်(၃)စက်သွယ်လမ်း	Mingalardon	မင်္ဂလာဒုံ	17.020083598739554	96.14260148489849
97	115	1477	Site Thit	ဆိုက်သစ်	No. 3 Set Thwe Road	အမှတ်(၃)စက်သွယ်လမ်း	Mingalardon	မင်္ဂလာဒုံ	17.015301	96.145109
97	116	1483	Yae Set	ရေစက်	No. 3 Main Road	အမှတ်(၃)လမ်းမ	Mingalardon	မင်္ဂလာဒုံ	17.006413366966736	96.14460656186569
97	117	1478	Tat Yin Koe	တပ်ရင်း (၉)	No. 3 Main Road	အမှတ်(၃)လမ်းမ	Mingalardon	မင်္ဂလာဒုံ	17.002538	96.144294
97	118	1464	Kon Ta La Paung	ကုန်းတလပေါင်	No. 3 Main Road	အမှတ်(၃)လမ်းမ	Mingalardon	မင်္ဂလာဒုံ	17.00055297085431	96.1444505536929
97	119	1433	London Set Yon	လန်ဒန်စက်ရုံ	No. 3 Main Road	အမှတ်(၃)လမ်းမ	Mingalardon	မင်္ဂလာဒုံ	16.996964358888743	96.14457001676784
97	120	1441	Saing Bote	ဆိုင်းဘုတ်	No. 3 Main Road	အမှတ်(၃)လမ်းမ	Mingalardon	မင်္ဂလာဒုံ	16.99459816476566	96.14396115532146
97	121	56	Nilar	နီလာ	No. 3 Main Road	အမှတ်(၃)လမ်းမ	Mingalardon	မင်္ဂလာဒုံ	16.99277	96.143972
97	122	1429	Hmoe Yon	မှိုုရုံ	No. 3 Main Road	အမှတ်(၃)လမ်းမ	Mingalardon	မင်္ဂလာဒုံ	16.989058344964885	96.14451075671244
97	123	1456	Thone Thone Lone	သုံးသုံးလုံး	No. 3 Main Road	အမှတ်(၃)လမ်းမ	Mingalardon	မင်္ဂလာဒုံ	16.983855108387846	96.14639010513204
97	124	1452	Palae Lan Sone	ပုလဲလမ်းဆုံ	No. 3 Main Road	အမှတ်(၃)လမ်းမ	Mingalardon	မင်္ဂလာဒုံ	16.98185303580901	96.14711069734767
97	125	1455	Tadar Phyu	တံတားဖြူ	No. 3 Main Road	အမှတ်(၃)လမ်းမ	Mingalardon	မင်္ဂလာဒုံ	16.97742721301432	96.14758217940107
97	126	1459	Yakhine Kyaung	ရခိုင်ကျောင်း	No. 3 Main Road	အမှတ်(၃)လမ်းမ	Mingalardon	မင်္ဂလာဒုံ	16.97495342850686	96.14767743973063
97	127	1449	Chauk Lan	(၆) လမ်း	No. 3 Main Road	အမှတ်(၃)လမ်းမ	Mingalardon	မင်္ဂလာဒုံ	16.97075875085798	96.14780440460892
97	128	1451	Palae Eain Yar	ပုလဲအိမ်ယာ	No. 3 Main Road	အမှတ်(၃)လမ်းမ	Mingalardon	မင်္ဂလာဒုံ	16.968965200636532	96.14782768534496
97	129	52	Sae-Hnit Lan	(၁၂) လမ်း	No. 3 Main Road	အမှတ်(၃)လမ်းမ	Mingalardon	မင်္ဂလာဒုံ	16.964962239723793	96.14796248730273
97	130	1425	Thingangyun	သင်္ဃန်းကျွန်း	No. 3 Main Road	အမှတ်(၃)လမ်းမ	Mingalardon	မင်္ဂလာဒုံ	16.962530642132165	96.14804988959807
97	131	1421	Nyaung Pin	ညောင်ပင်	No. 3 Main Road	အမှတ်(၃)လမ်းမ	Mingalardon	မင်္ဂလာဒုံ	16.957059627896772	96.14889761433007
97	132	1422	Oh Eain	အိုးအိမ်	No. 3 Main Road	အမှတ်(၃)လမ်းမ	Mingalardon	မင်္ဂလာဒုံ	16.95312291976099	96.14954647840933
97	133	589	Ta Yar Yone	တရားရုံး	No. 3 Main Road	အမှတ်(၃)လမ်းမ	Mingalardon	မင်္ဂလာဒုံ	16.948028772742532	96.15044265054169
97	134	1415	Alal Pauk	အလယ်ပေါက်	No. 3 Main Road	အမှတ်(၃)လမ်းမ	Mingalardon	မင်္ဂလာဒုံ	16.940851255933037	96.15172684192659
97	135	1419	Ah-Hmat-Thone Lan Sone	အမှတ် (၃) လမ်းဆုံ	No. 3 Main Road	အမှတ်(၃)လမ်းမ	Mingalardon	မင်္ဂလာဒုံ	16.93665820247034	96.1529042897746
97	136	2396	Khayae Pin Yate Mon	ခရေပင်ရိပ်မွန်	Khayae Pin Road	ခရေပင်လမ်း	Mingaladon	မင်္ဂလာဒုံ	16.934478880275098	96.14887829404326
97	137	1402	Thone Yarthi	သုံးရာသီ	Khayae Pin Road	ခရေပင်လမ်း	Mingalardon	မင်္ဂလာဒုံ	16.931714599198003	96.14123401930556
97	138	1404	Yar Thet Pan	ရာသက်ပန်	Khayae Pin Road	ခရေပင်လမ်း	Mingalardon	မင်္ဂလာဒုံ	16.93015907059915	96.13694009603934
97	139	1398	Khayae Pin Lan Khawe	ခရေပင်လမ်းခွဲ	No. 1 Main Road	အမှတ်(၁)လမ်းမ	Mingalardon	မင်္ဂလာဒုံ	16.92723344884106	96.13146262709053
97	140	1062	Sar Taik	စာတိုက်	No. 1 Main Road	အမှတ်(၁)လမ်းမ	Mingalardon	မင်္ဂလာဒုံ	16.923187459952388	96.1333077773452
97	141	1400	Say Kyaung	ဆေးကျောင်း	No. 1 Main Road	အမှတ်(၁)လမ်းမ	Mingalardon	မင်္ဂလာဒုံ	16.92033380801368	96.13393118826936
97	142	1393	B.O.C	ဘီအိုစီ	No. 1 Main Road	အမှတ်(၁)လမ်းမ	Mingalardon	မင်္ဂလာဒုံ	16.915950755971124	96.13451996818186
97	143	1374	Pan Chan Kone	ပန်းခြံကုန်း	No. 1 Main Road	အမှတ်(၁)လမ်းမ	Mingalardon	မင်္ဂလာဒုံ	16.911009816794227	96.13193050492556
97	144	1372	Kalar Paya	ကုလားဘုရား	No. 1 Main Road	အမှတ်(၁)လမ်းမ	Mingalardon	မင်္ဂလာဒုံ	16.905906	96.128758
97	145	46	Htan Pin Kone	ထန်းပင်ကုန်း	No. 1 Main Road	အမှတ်(၁)လမ်းမ	Mingalardon	မင်္ဂလာဒုံ	16.900289331115886	96.1241097492166
97	146	1297	Saw Bwar Gyi Kone Lan Sone	စော်ဘွားကြီးကုန်းလမ်းဆုံ	Pyay Road	ပြည်လမ်း	Insein	အင်းစိန်	16.89204873725979	96.1198139190674
97	147	1294	A Way Pyay	အဝေးပြေး	Pyay Road	ပြည်လမ်း	Insein	အင်းစိန်	16.888535030003954	96.12289267592132
97	148	39	Sae-Mile Kone	(၁၀) မိုင်ကုန်း	Pyay Road	ပြည်လမ်း	Insein	အင်းစိန်	16.888832606891466	96.1299168993719
97	149	1301	Koe Mile Khawe	(၉) မိုင်ခွဲ	Pyay Road	ပြည်လမ်း	Mayangone	မရမ်းကုန်း	16.884384	96.135772
97	150	1299	Koe Mile	(၉) မိုင်	Pyay Road	ပြည်လမ်း	Mayangone	မရမ်းကုန်း	16.88177976207406	96.13486798480155
97	151	1258	A One	အေဝမ်း	Pyay Road	ပြည်လမ်း	Mayangone	မရမ်းကုန်း	16.875519	96.138371
97	152	1260	Mahar Si	မဟာစည်	Pyay Road	ပြည်လမ်း	Mayangone	မရမ်းကုန်း	16.872313663035687	96.13967798184603
97	153	1269	Shit Mile	(၈) မိုင်	Pyay Road	ပြည်လမ်း	Mayangone	မရမ်းကုန်း	16.867915966141403	96.14123360021041
97	154	1234	Khun-hnat Mile	(၇) မိုင်	Pyay Road	ပြည်လမ်း	Mayangone	မရမ်းကုန်း	16.856072	96.141118
97	155	1228	A.D	အေဒီ	Pyay Road	ပြည်လမ်း	Hlaing	လှိုင်	16.85307127898036	96.14055942278357
97	156	2193	Kyaung Kwae	ကျောင်းကွေ့	Pyay Road	ပြည်လမ်း	Hlaing	လှိုင်	16.848012	96.136442
97	157	1187	Chauk Mile Khawe	(၆) မိုင်ခွဲ	Pyay Road	ပြည်လမ်း	Mayangone	မရမ်းကုန်း	16.844405	96.135706
97	158	1191	Tadar Phyu	တံတားဖြူ	Pyay Road	ပြည်လမ်း	Hlaing	လှိုင်	16.837024	96.13421
97	159	1189	Marlar	မာလာ	Pyay Road	ပြည်လမ်း	Kamayut	ကမာရွတ်	16.832085	96.132472
97	160	320	Saik Pyoe Yay	စိုက်ပျိုးရေး	Pyay Road	ပြည်လမ်း	Kamayut	ကမာရွတ်	16.817302720172133	96.1332632484846
97	161	263	Hantharwaddy	ဟံသာဝတီ	Pyay Road	ပြည်လမ်း	San Chaung	စမ်းချောင်း	16.81193620836817	96.13480080384763
97	162	265	Mahar Myaing	မဟာမြိုင်	Pyay Road	ပြည်လမ်း	San Chaung	စမ်းချောင်း	16.80813755165241	96.13589079341183
97	163	269	Myaynigone	မြေနီကုန်း (ပြည်လမ်း)	Pyay Road	ပြည်လမ်း	San Chaung	စမ်းချောင်း	16.805399	96.136748
97	164	267	Myaynigone	မြေနီကုန်း	Bargayar Road	ဗားဂရာလမ်း	San Chaung	စမ်းချောင်း	16.8037478786025	96.13814299016668
97	165	2389	Wizaya Plaza	ဝိဇယပလာဇာ	Dhamazedi Road	ဓမ္မစေတီလမ်း	Bahan	ဗဟန်း	16.8050307383558	96.1434358686529
97	166	222	Link Lan	လင့်လမ်း	Shwe Gon Road	ရွှေဂုံလမ်း	Bahan	ဗဟန်း	16.805999079236297	96.14723340186174
97	167	224	Oak Lan	အုတ်လမ်း	West Shwe Gon Daing Road	အနောက်ရွှေဂုံတိုင်လမ်း	Bahan	ဗဟန်း	16.804344087884044	96.1511853185948
97	168	228	Shwe Gon Daing	ရွှေဂုံတိုင်	West Shwe Gon Daing Road	အနောက်ရွှေဂုံတိုင်လမ်း	Bahan	ဗဟန်း	16.805330733421666	96.15442281821743
97	169	231	Shwe Gon Daing	ရွှေဂုံတိုင်	East Shwe Gon Daing Road	အရှေ့ရွှေဂုံတိုင်လမ်း	Bahan	ဗဟန်း	16.806550186916283	96.15607654675843
97	170	226	Bandar Pin	ဗန်ဒါပင်	East Shwe Gon Daing Road	အရှေ့ရွှေဂုံတိုင်လမ်း	Bahan	ဗဟန်း	16.809993885588426	96.16076869424434
97	171	234	Ngar Htat Kyee	(၅) ထပ်ကြီး	East Shwe Gon Daing Road	အရှေ့ရွှေဂုံတိုင်လမ်း	Bahan	ဗဟန်း	16.810501025184656	96.1633197264746
97	172	232	Chauk Htat Kyee	(၆) ထပ်ကြီး	East Shwe Gon Daing Road	အရှေ့ရွှေဂုံတိုင်လမ်း	Bahan	ဗဟန်း	16.811207	96.165464
97	173	332	Awine Htate/ Tamwe	အဝိုင်းထိပ်/ တာမွေ	East Shwe Gon Daing Road	အရှေ့ရွှေဂုံတိုင်လမ်း	Bahan	ဗဟန်း	16.81149101866884	96.16997592855115
97	174	238	Byaing Yae Oh Sin	ဗျိုင်းရေအိုးစင်	Banyardala Road	ဗညားဒလလမ်း	Tamwe	တာမွေ	16.80649379907491	96.17212619399655
97	175	388	Thida	သီတာ	Banyardala Road	ဗညားဒလလမ်း	Mingalar Taung Nyunt	မင်္ဂလာတောင်ညွန့်	16.799386810982924	96.17579292040321
97	176	374	Aung Mingalar	အောင်မင်္ဂလာ	Banyardala Road	ဗညားဒလလမ်း	Mingalar Taung Nyunt	မင်္ဂလာတောင်ညွန့်	16.79630894928623	96.1766241118312
97	177	454	Yuzana Plaza/ Lan Kyal	ယုဇနပလာဇာ/လမ်းကျယ်	Banyardala Road	ဗညားဒလလမ်း	Mingalar Taung Nyunt	မင်္ဂလာတောင်ညွန့်	16.79446266570228	96.17558569880204
97	178	444	Mingalar Zay	မင်္ဂလာဈေး	Mill Road	စက်ရုံလမ်း	Mingalar Taung Nyunt	မင်္ဂလာတောင်ညွန့်	16.79177780504188	96.17451729951428
97	179	440	Athin Taik	အသင်းတိုက်	Upper Pazundaung Road	အထက်ပုဇွန်တောင်လမ်း	Mingalar Taung Nyunt	မင်္ဂလာတောင်ညွန့်	16.79025310248505	96.18329807650301
97	180	442	Koe Lan	(၉) လမ်း	Upper Pazundaung Road	အထက်ပုဇွန်တောင်လမ်း	Mingalar Taung Nyunt	မင်္ဂလာတောင်ညွန့်	16.79231857579237	96.18512290064247
97	181	389	Yone Lay	ရုံးလေး	Upper Pazundaung Road	အထက်ပုဇွန်တောင်လမ်း	Pazundaung	ပုဇွန်တောင်	16.797084	96.186241
97	182	370	A.B.C	အေဘီစီ	Upper Pazundaung Road	အထက်ပုဇွန်တောင်လမ်း	Pazundaung	ပုဇွန်တောင်	16.79996	96.186879
97	183	376	Chauk Lan	(၆) လမ်း	Upper Pazundaung Road	အထက်ပုဇွန်တောင်လမ်း	Pazundaung	ပုဇွန်တောင်	16.803754746018726	96.18524909019472
97	184	391	Zay Lay	ဈေးလေး	Thanthumar Road	သံသုမာလမ်း	Thingangyun	သင်္ဃန်းကျွန်း	16.809825	96.183666
97	185	358	Kaw Set	ကော်စက်	Thanthumar Road	သံသုမာလမ်း	Thingangyun	သင်္ဃန်းကျွန်း	16.81376522496099	96.18829467566685
97	186	569	Thuwunna Lan Sone	သုဝဏ္ဏလမ်းဆုံ	Thanthumar Road	သံသုမာလမ်း	Thingangyun	သင်္ဃန်းကျွန်း	16.814838154709474	96.19087100028993
97	187	573	Yae Set	ရေစက်	Thanthumar Road	သံသုမာလမ်း	Thingangyun	သင်္ဃန်းကျွန်း	16.816228747999638	96.19427456244011
97	188	565	Su Paung	စုပေါင်း	Thanthumar Road	သံသုမာလမ်း	Thingangyun	သင်္ဃန်းကျွန်း	16.818098	96.198024
97	189	562	Kyaung Lan	ကျောင်းလမ်း	Thanthumar Road	သံသုမာလမ်း	Thingangyun	သင်္ဃန်းကျွန်း	16.819662582733592	96.20058005210012
97	190	563	Paw San Hmwe	ပေါ်ဆန်းမွှေး	Thanthumar Road	သံသုမာလမ်း	Thingangyun	သင်္ဃန်းကျွန်း	16.821337705697953	96.20287929195912
97	191	585	Min Din	မင်းဒင်	Thanthumar Road	သံသုမာလမ်း	Thingangyun	သင်္ဃန်းကျွန်း	16.822083	96.204216
97	192	583	Mee Don	မီးဒုံး	Thanthumar Road	သံသုမာလမ်း	Thingangyun	သင်္ဃန်းကျွန်း	16.823235757995914	96.20547018013895
97	193	591	Thuwunna Zay	သုဝဏ္ဏဈေး	Thanthumar Road	သံသုမာလမ်း	Thingangyun	သင်္ဃန်းကျွန်း	16.824722	96.20649
97	194	636	Waibula	ဝေဘူလ	Thanthumar Road	သံသုမာလမ်း	Thingangyun	သင်္ဃန်းကျွန်း	16.8301749562444	96.2080962304026
97	195	627	Chan Aye/ Thwar Say	ချမ်းအေးသွားဆေး	Thanthumar Road	သံသုမာလမ်း	Thingangyun	သင်္ဃန်းကျွန်း	16.833007132875704	96.20810620486738
97	196	631	Sanpya Zay Kwae	စံပြဈေးကွေ့	Thanthumar Road	သံသုမာလမ်း	Thingangyun	သင်္ဃန်းကျွန်း	16.838397750744317	96.20758237782866
97	197	629	Kar Gyi Gate	ကားကြီးဂိတ်	No. 2 Main Road	အမှတ်(၂)လမ်းမ	South Dagon	တောင်ဒဂုံ	16.84738131147338	96.20909719727936
97	198	673	Tadar Phyu	တံတားဖြူ	No. 2 Main Road	အမှတ်(၂)လမ်းမ	South Dagon	တောင်ဒဂုံ	16.857554511951882	96.21246330672876
97	199	680	Taung Myauk Lan Sone	တောင်/မြောက်လမ်းဆုံ	No. 2 Main Road	အမှတ်(၂)လမ်းမ	South Dagon	တောင်ဒဂုံ	16.86303282731339	96.21640563011171
97	200	1	Nat Sin	နတ်စင်	No. 2 Main Road	အမှတ်(၂)လမ်းမ	South Dagon	တောင်ဒဂုံ	16.868886	96.222571
97	201	1015	Thin Tan Kyaung	သင်တန်းကျောင်း	No. 2 Main Road	အမှတ်(၂)လမ်းမ	South Dagon	တောင်ဒဂုံ	16.871166	96.225125
97	202	1011	Lay Kyaung	လေကျောင်း	No. 2 Main Road	အမှတ်(၂)လမ်းမ	South Dagon	တောင်ဒဂုံ	16.874543	96.227658
97	203	1013	Tat Yin Thone	တပ်ရင်း (၃)	No. 2 Main Road	အမှတ်(၂)လမ်းမ	South Dagon	တောင်ဒဂုံ	16.878229	96.230341
97	204	745	Kyauk Lan	ကျောက်လမ်း	No. 2 Main Road	အမှတ်(၂)လမ်းမ	South Dagon	တောင်ဒဂုံ	16.883455	96.234203
97	205	757	Say Yon Shae	ဆေးရုံရှေ့	No. 2 Main Road	အမှတ်(၂)လမ်းမ	South Dagon	တောင်ဒဂုံ	16.891062	96.239909
97	206	761	U Tun Myat	ဦးထွန်းမြတ်	No. 2 Main Road	အမှတ်(၂)လမ်းမ	South Dagon	တောင်ဒဂုံ	16.893594154229376	96.24178058467805
97	207	2115	Lai Sin Yone Alal Pauk	လိုင်စင်ရုံး (အလယ်ပေါက်)	No. 2 Main Road	အမှတ်(၂)လမ်းမ	South Dagon	တောင်ဒဂုံ	16.895045	96.242849
97	208	2113	A Kauk Khun	အကောက်ခွန်	No. 2 Main Road	အမှတ်(၂)လမ်းမ	South Dagon	တောင်ဒဂုံ	16.903114	96.248038
97	209	2111	Nyaung Pin	ညောင်ပင်	No. 2 Main Road	အမှတ်(၂)လမ်းမ	South Dagon	တောင်ဒဂုံ	16.905372	96.249197
97	210	2109	Ah Kyaw Tae	အကြော်တဲ	No. 2 Main Road	အမှတ်(၂)လမ်းမ	South Dagon	တောင်ဒဂုံ	16.906974	96.250269
97	211	2107	Kyaung Shae	ကျောင်းရှေ့	No. 2 Main Road	အမှတ်(၂)လမ်းမ	South Dagon	တောင်ဒဂုံ	16.911141	96.252676
97	212	2105	Tayar-Lay-Sae	တစ်ရာ့လေးဆယ်	No. 2 Main Road	အမှတ်(၂)လမ်းမ	South Dagon	တောင်ဒဂုံ	16.915026	96.25581
97	213	2103	Sal Myaung	ဆည်မြောင်း	No. 2 Main Road	အမှတ်(၂)လမ်းမ	South Dagon	တောင်ဒဂုံ	16.922802	96.262699
97	214	2101	Kyo So Yay	ကြိုဆိုရေး	No. 2 Main Road	အမှတ်(၂)လမ်းမ	South Dagon	တောင်ဒဂုံ	16.9243668005969	96.26395801082255
97	215	1616	See Pwar Yay Takke Tho	စီးပွားရေးတက္ကသိုလ်	No. 2 Main Road	အမှတ်(၂)လမ်းမ	South Dagon	တောင်ဒဂုံ	16.929014847983165	96.26806522719562
