svc_name	sequence	stop_id	name_en	name_mm	road_en	road_mm	township_en	township_mm	lat	lng
75	1	586	Nyaung Pin	ညောင်ပင်	Kamarkyi Road	ကမာကြည်လမ်း	Thingangyun	သင်္ဃန်းကျွန်း	16.820809	96.213452
75	2	579	Bayint Naung	ဘုရင့်နောင်	Kamarkyi Road	ကမာကြည်လမ်း	Thingangyun	သင်္ဃန်းကျွန်း	16.822304545762762	96.2122975755483
75	3	578	Aung Zay Ya	အောင်ဇေယျ	Kamarkyi Road	ကမာကြည်လမ်း	Thingangyun	သင်္ဃန်းကျွန်း	16.825018017974298	96.20953163132073
75	4	592	Thuwunna Zay	သုဝဏ္ဏဈေး	Thanthumar Road	သံသုမာလမ်း	Thingangyun	သင်္ဃန်းကျွန်း	16.82519428541537	96.20656682644041
75	5	582	Mee Don	မီးဒုံး	Thanthumar Road	သံသုမာလမ်း	Thingangyun	သင်္ဃန်းကျွန်း	16.823329107627952	96.205472946167
75	6	584	Min Din	မင်းဒင်	Thanthumar Road	သံသုမာလမ်း	Thingangyun	သင်္ဃန်းကျွန်း	16.82228408656182	96.20429570786656
75	7	563	Paw San Hmwe	ပေါ်ဆန်းမွှေး	Thanthumar Road	သံသုမာလမ်း	Thingangyun	သင်္ဃန်းကျွန်း	16.821337705697953	96.20287929195912
75	8	561	Kyaung Lan	ကျောင်းလမ်း	Thanthumar Road	သံသုမာလမ်း	Thingangyun	သင်္ဃန်းကျွန်း	16.81989519891245	96.20065764756875
75	9	566	Su Paung	စုပေါင်း	Thanthumar Road	သံသုမာလမ်း	Thingangyun	သင်္ဃန်းကျွန်း	16.818703899550005	96.19875895790759
75	10	574	Yae Set	ရေစက်	Thanthumar Road	သံသုမာလမ်း	Thingangyun	သင်္ဃန်းကျွန်း	16.816679873960126	96.19488132906555
75	11	570	Thuwunna Lan Sone	သုဝဏ္ဏလမ်းဆုံ	Thanthumar Road	သံသုမာလမ်း	Thingangyun	သင်္ဃန်းကျွန်း	16.81503896354181	96.19104266166688
75	12	359	Kaw Set	ကော်စက်	Thanthumar Road	သံသုမာလမ်း	Thingangyun	သင်္ဃန်းကျွန်း	16.81390294961131	96.18837193585934
75	13	392	Zay Lay	ဈေးလေး	Thanthumar Road	သံသုမာလမ်း	Thingangyun	သင်္ဃန်းကျွန်း	16.80992578411149	96.18358842562886
75	14	372	Arthawka	အာသောက	Thamain Bayan Road	သမိန်ဗရမ်းလမ်း	Tamwe	တာမွေ	16.807365	96.180173
75	15	380	Tamwe Bali	တာမွေဗလီ	Thamain Bayan Road	သမိန်ဗရမ်းလမ်း	Tamwe	တာမွေ	16.809533	96.177093
75	16	383	Tamwe Plaza	တာမွေပလာဇာ	Thamain Bayan Road	သမိန်ဗရမ်းလမ်း	Tamwe	တာမွေ	16.810901	96.175102
75	17	333	Awine Htate/ Tamwe	အဝိုင်းထိပ်/ တာမွေ	East Shwe Gon Daing Road	အရှေ့ရွှေဂုံတိုင်လမ်း	Bahan	ဗဟန်း	16.81164669784772	96.17015008338059
75	18	232	Chauk Htat Kyee	(၆) ထပ်ကြီး	East Shwe Gon Daing Road	အရှေ့ရွှေဂုံတိုင်လမ်း	Bahan	ဗဟန်း	16.811207	96.165464
75	19	235	Ngar Htat Kyee	(၅) ထပ်ကြီး	East Shwe Gon Daing Road	အရှေ့ရွှေဂုံတိုင်လမ်း	Bahan	ဗဟန်း	16.810709	96.163007
75	20	227	Bandar Pin	ဗန်ဒါပင်	East Shwe Gon Daing Road	အရှေ့ရွှေဂုံတိုင်လမ်း	Bahan	ဗဟန်း	16.810236	96.160738
75	21	2177	Shwe Gon Daing	ရွှေဂုံတိုင်	East Shwe Gon Daing Road	အရှေ့ရွှေဂုံတိုင်လမ်း	Bahan	ဗဟန်း	16.80679	96.156254
75	22	229	Shwe Gon Daing	ရွှေဂုံတိုင်	West Shwe Gon Daing Road	အနောက်ရွှေဂုံတိုင်လမ်း	Bahan	ဗဟန်း	16.805571665361676	96.15438880864532
75	23	225	Oak Lan	အုတ်လမ်း	West Shwe Gon Daing Road	အနောက်ရွှေဂုံတိုင်လမ်း	Bahan	ဗဟန်း	16.804480996918812	96.15122687187979
75	24	223	Link Lan	လင့်လမ်း	Shwe Gon Road	ရွှေဂုံလမ်း	Bahan	ဗဟန်း	16.806090939455864	96.14742122246754
75	25	274	Wizaya Plaza	ဝိဇယပလာဇာ	Dhamazedi Road	ဓမ္မစေတီလမ်း	Bahan	ဗဟန်း	16.805219943235446	96.14327571864125
75	26	266	Myaynigone	မြေနီကုန်း	Bargayar Road	ဗားဂရာလမ်း	San Chaung	စမ်းချောင်း	16.803804	96.138814
75	27	273	Shwe Man	ရွှေမန်း	Bargayar Road	ဗားဂရာလမ်း	San Chaung	စမ်းချောင်း	16.803827	96.136105
75	28	261	Shan Lan	ရှမ်းလမ်း	Bargayar Road	ဗားဂရာလမ်း	San Chaung	စမ်းချောင်း	16.80383891776587	96.13184186629952
75	29	255	Koe Htat Kyee	(၉) ထပ်ကြီး	Bargayar Road	ဗားဂရာလမ်း	San Chaung	စမ်းချောင်း	16.80385946248815	96.12814109193097
75	30	257	Kyee Myin Daing Butar	ကြည့်မြင်တိုင်ဘူတာ	Upper Kyee Myin Daing Road	အထက်ကြည့်မြင်တိုင်လမ်း	Kyee Myin Daing	ကြည့်မြင်တိုင်	16.806369318492735	96.12588311894798
75	31	251	Kyee Myin Daing Nya Zay	ကြည်မြင်တိုင်ညဈေး	Upper Kyee Myin Daing Road	အထက်ကြည့်မြင်တိုင်လမ်း	Kyee Myin Daing	ကြည့်မြင်တိုင်	16.809454549304007	96.1260079778731
75	32	299	Salin Kwin	စလင်းကွင်း	Upper Kyee Myin Daing Road	အထက်ကြည့်မြင်တိုင်လမ်း	Kyee Myin Daing	ကြည့်မြင်တိုင်	16.81202472257673	96.12604951020332
75	33	291	Kannar Zay	ကမ်းနားဈေး	Kyee Myin Daing Kannar Road	ကြည့်မြင်တိုင်ကမ်းနားလမ်း	Kyee Myin Daing	ကြည့်မြင်တိုင်	16.812434	96.121964
75	34	277	Nat Sin Lan	နတ်စင်လမ်း	Kyee Myin Daing Kannar Road	ကြည့်မြင်တိုင်ကမ်းနားလမ်း	Kyee Myin Daing	ကြည့်မြင်တိုင်	16.81453683073846	96.1219596862793
75	35	301	Sinmalite	ဆင်မလိုက်	Kyee Myin Daing Kannar Road	ကြည့်မြင်တိုင်ကမ်းနားလမ်း	Kyee Myin Daing	ကြည့်မြင်တိုင်	16.81928919676379	96.12197063186613
75	36	284	Hantharwaddy	ဟံသာဝတီ	Upper Kyee Myin Daing Road	အထက်ကြည့်မြင်တိုင်လမ်း	Kyee Myin Daing	ကြည့်မြင်တိုင်	16.816320576623713	96.12593807280065
75	37	279	Nat Sin Lan	နတ်စင်လမ်း	Upper Kyee Myin Daing Road	အထက်ကြည့်မြင်တိုင်လမ်း	Kyee Myin Daing	ကြည့်မြင်တိုင်	16.814202007934437	96.12586942501369
75	38	300	Salin Kwin	စလင်းကွင်း	Upper Kyee Myin Daing Road	အထက်ကြည့်မြင်တိုင်လမ်း	Kyee Myin Daing	ကြည့်မြင်တိုင်	16.812730481580218	96.12592935562135
75	39	250	Kyee Myin Daing Nya Zay	ကြည်မြင်တိုင်ညဈေး	Upper Kyee Myin Daing Road	အထက်ကြည့်မြင်တိုင်လမ်း	Kyee Myin Daing	ကြည့်မြင်တိုင်	16.809933587198	96.12593092722818
75	40	256	Kyee Myin Daing Butar	ကြည့်မြင်တိုင်ဘူတာ	Upper Kyee Myin Daing Road	အထက်ကြည့်မြင်တိုင်လမ်း	Kyee Myin Daing	ကြည့်မြင်တိုင်	16.806301299283557	96.12574257194865
75	41	254	Koe Htat Kyee	(၉) ထပ်ကြီး	Bargayar Road	ဗားဂရာလမ်း	San Chaung	စမ်းချောင်း	16.80377692571842	96.12809622083661
75	42	260	Shan Lan	ရှမ်းလမ်း	Bargayar Road	ဗားဂရာလမ်း	San Chaung	စမ်းချောင်း	16.803776350638998	96.13150128861892
75	43	272	Shwe Man	ရွှေမန်း	Bargayar Road	ဗားဂရာလမ်း	San Chaung	စမ်းချောင်း	16.803697434586116	96.13618335686625
75	44	267	Myaynigone	မြေနီကုန်း	Bargayar Road	ဗားဂရာလမ်း	San Chaung	စမ်းချောင်း	16.8037478786025	96.13814299016668
75	45	2389	Wizaya Plaza	ဝိဇယပလာဇာ	Dhamazedi Road	ဓမ္မစေတီလမ်း	Bahan	ဗဟန်း	16.8050307383558	96.1434358686529
75	46	222	Link Lan	လင့်လမ်း	Shwe Gon Road	ရွှေဂုံလမ်း	Bahan	ဗဟန်း	16.805999079236297	96.14723340186174
75	47	224	Oak Lan	အုတ်လမ်း	West Shwe Gon Daing Road	အနောက်ရွှေဂုံတိုင်လမ်း	Bahan	ဗဟန်း	16.804344087884044	96.1511853185948
75	48	228	Shwe Gon Daing	ရွှေဂုံတိုင်	West Shwe Gon Daing Road	အနောက်ရွှေဂုံတိုင်လမ်း	Bahan	ဗဟန်း	16.805293836643138	96.15444100694732
75	49	231	Shwe Gon Daing	ရွှေဂုံတိုင်	East Shwe Gon Daing Road	အရှေ့ရွှေဂုံတိုင်လမ်း	Bahan	ဗဟန်း	16.806550186916283	96.15607654675843
75	50	226	Bandar Pin	ဗန်ဒါပင်	East Shwe Gon Daing Road	အရှေ့ရွှေဂုံတိုင်လမ်း	Bahan	ဗဟန်း	16.809993885588426	96.16076869424434
75	51	234	Ngar Htat Kyee	(၅) ထပ်ကြီး	East Shwe Gon Daing Road	အရှေ့ရွှေဂုံတိုင်လမ်း	Bahan	ဗဟန်း	16.810501025184656	96.1633197264746
75	52	233	Chauk Htat Kyee	(၆) ထပ်ကြီး	East Shwe Gon Daing Road	အရှေ့ရွှေဂုံတိုင်လမ်း	Bahan	ဗဟန်း	16.811227	96.165963
75	53	332	Awine Htate/ Tamwe	အဝိုင်းထိပ်/ တာမွေ	East Shwe Gon Daing Road	အရှေ့ရွှေဂုံတိုင်လမ်း	Bahan	ဗဟန်း	16.81149101866884	96.16997592855115
75	54	382	Tamwe Plaza	တာမွေပလာဇာ	Thamain Bayan Road	သမိန်ဗရမ်းလမ်း	Tamwe	တာမွေ	16.81067485889442	96.17535173892976
75	55	381	Tamwe Bali	တာမွေဗလီ	Thamain Bayan Road	သမိန်ဗရမ်းလမ်း	Tamwe	တာမွေ	16.809481	96.17689
75	56	373	Arthawka	အာသောက	Thamain Bayan Road	သမိန်ဗရမ်းလမ်း	Tamwe	တာမွေ	16.807201	96.180065
75	57	391	Zay Lay	ဈေးလေး	Thanthumar Road	သံသုမာလမ်း	Thingangyun	သင်္ဃန်းကျွန်း	16.809825	96.183666
75	58	358	Kaw Set	ကော်စက်	Thanthumar Road	သံသုမာလမ်း	Thingangyun	သင်္ဃန်းကျွန်း	16.81376522496099	96.18829467566685
75	59	569	Thuwunna Lan Sone	သုဝဏ္ဏလမ်းဆုံ	Thanthumar Road	သံသုမာလမ်း	Thingangyun	သင်္ဃန်းကျွန်း	16.814838154709474	96.19087100028993
75	60	573	Yae Set	ရေစက်	Thanthumar Road	သံသုမာလမ်း	Thingangyun	သင်္ဃန်းကျွန်း	16.816228747999638	96.19427456244011
75	61	565	Su Paung	စုပေါင်း	Thanthumar Road	သံသုမာလမ်း	Thingangyun	သင်္ဃန်းကျွန်း	16.818098	96.198024
75	62	562	Kyaung Lan	ကျောင်းလမ်း	Thanthumar Road	သံသုမာလမ်း	Thingangyun	သင်္ဃန်းကျွန်း	16.819662582733592	96.20058005210012
75	63	564	Paw San Hmwe	ပေါ်ဆန်းမွှေး	Thanthumar Road	သံသုမာလမ်း	Thingangyun	သင်္ဃန်းကျွန်း	16.821269788819052	96.20294043794276
75	64	585	Min Din	မင်းဒင်	Thanthumar Road	သံသုမာလမ်း	Thingangyun	သင်္ဃန်းကျွန်း	16.822083	96.204216
75	65	583	Mee Don	မီးဒုံး	Thanthumar Road	သံသုမာလမ်း	Thingangyun	သင်္ဃန်းကျွန်း	16.823235757995914	96.20547018013895
75	66	591	Thuwunna Zay	သုဝဏ္ဏဈေး	Thanthumar Road	သံသုမာလမ်း	Thingangyun	သင်္ဃန်းကျွန်း	16.824722	96.20649
75	67	577	Aung Zay Ya	အောင်ဇေယျ	Kamarkyi Road	ကမာကြည်လမ်း	Thingangyun	သင်္ဃန်းကျွန်း	16.825081	96.209117
75	68	580	Bayint Naung	ဘုရင့်နောင်	Kamarkyi Road	ကမာကြည်လမ်း	Thingangyun	သင်္ဃန်းကျွန်း	16.822580183134985	96.21189562138171
75	69	587	Nyaung Pin	ညောင်ပင်	Kamarkyi Road	ကမာကြည်လမ်း	Thingangyun	သင်္ဃန်းကျွန်း	16.820932	96.213044
