svc_name	sequence	stop_id	name_en	name_mm	road_en	road_mm	township_en	township_mm	lat	lng
76	1	1641	A Shae Paing Takke Tho	အရှေ.ပိုင်းတက္ကသိုလ်	No. 6 Main Road	အမှတ်(၆)လမ်းမ	Thanlyin	သန်လျင်	16.733831793947385	96.28827567212285
76	2	1640	Kunn Yar Saing	ကွမ်းယာဆိုင်	No. 6 Main Road	အမှတ်(၆)လမ်းမ	Thanlyin	သန်လျင်	16.73130631758074	96.28316489048302
76	3	1638	Nyaung Pin	ညောင်ပင်	No. 6 Main Road	အမှတ်(၆)လမ်းမ	Thanlyin	သန်လျင်	16.729944702912874	96.27925328677522
76	4	1825	Paya Kone Lan Sone	ဘုရားကုန်းလမ်းဆုံ	Thanlyin-Kyauktan Road	သန်လျှင်-ကျောက်တန်းလမ်း	Thanlyin	သန်လျင်	16.728782051960934	96.2740002013743
76	5	1634	Paya Shae	ဘုရားရှေ့	Kyaik Khauk Pagoda Road	ကျိုက်ခေါက်ဘုရားလမ်း	Thanlyin	သန်လျင်	16.730064	96.272653
76	6	1632	Sae-Shit Kone	(၁၈) ကုန်း	Kyaik Khauk Pagoda Road	ကျိုက်ခေါက်ဘုရားလမ်း	Thanlyin	သန်လျင်	16.739455	96.268619
76	7	1630	Aung Chan Thar	အောင်ချမ်းသာ	Kyaik Khauk Pagoda Road	ကျိုက်ခေါက်ဘုရားလမ်း	Thanlyin	သန်လျင်	16.745619	96.265293
76	8	1812	Sal Myaung	ဆည်မြောင်း	Kyaik Khauk Pagoda Road	ကျိုက်ခေါက်ဘုရားလမ်း	Thanlyin	သန်လျင်	16.750962	96.261367
76	9	1643	Thama College	သမကောလိပ်	Thanlyin	သံလျင်	Thanlyin	သန်လျင်	16.75499102814598	96.2584948539734
76	10	1810	Kyar Paya	ကျားဘုရား	Kyaik Khauk Pagoda Road	ကျိုက်ခေါက်ဘုရားလမ်း	Thanlyin	သန်လျင်	16.757768	96.2566
76	11	1628	A Paw Kwae	အပေါ်ကွေ့	Bogyoke Road	ဗိုလ်ချုပ်လမ်း	Thanlyin	သန်လျင်	16.760382	96.252367
76	12	1626	Out Kwae	အောက်ကွေ့	Bogyoke Road	ဗိုလ်ချုပ်လမ်း	Thanlyin	သန်လျင်	16.760814	96.251112
76	13	1807	Myoma	မြို့မ	Bogyoke Nay Win Road	ဗိုလ်ချုပ်နေဝင်းလမ်း	Thanlyin	သန်လျင်	16.768015	96.246542
76	14	1805	Dar Gude	ဒါကုရ်	Bogyoke Nay Win Road	ဗိုလ်ချုပ်နေဝင်းလမ်း	Thanlyin	သန်လျင်	16.770732	96.24658
76	15	1803	Yay Nan Gate	ရေနံဂိတ်	Bogyoke Nay Win Road	ဗိုလ်ချုပ်နေဝင်းလမ်း	Thanlyin	သန်လျင်	16.773198	96.246896
76	16	1801	Aung Thukha	အောင်သုခ	Bogyoke Nay Win Road	ဗိုလ်ချုပ်နေဝင်းလမ်း	Thanlyin	သန်လျင်	16.778087	96.247427
76	17	1619	Mee Point	်မီးပွိုင့်	Kyaik Khauk Pagoda Road	ကျိုက်ခေါက်ဘုရားလမ်း	Thanlyin	သန်လျင်	16.77895653734981	96.24703176319599
76	18	508	Lat Hmat Gate	လက်မှတ်ဂိတ်	Kyaik Khauk Pagoda Road	ကျိုက်ခေါက်ဘုရားလမ်း	Thanlyin	သန်လျင်	16.778698	96.244222
76	19	549	Tadar Htate	တံတားထိပ်	Nawarat Pat Road	နဝရတ်ပတ်လမ်း	Thaketa	သာကေတ	16.801239084808206	96.22554207220674
76	20	547	Sauk Lote Yae	ဆောက်လုပ်ရေး	Yadanar Road	ရတနာလမ်း	Thaketa	သာကေတ	16.80292131131073	96.22375226346777
76	21	546	Sauk Lote Yae	ဆောက်လုပ်ရေး	Thanlyin Tada Chint Road	သန်လျှင်တံတားချင့်လမ်း	Thaketa	သာကေတ	16.803144078473853	96.22349219396712
76	22	552	Tayar-Shit Taung	(၁၀၈) တောင်	Thalyin Thada Chin Kat Road	သန်လျှင်တံတားချင့်ကပ်လမ်း	Thaketa	သာကေတ	16.80646595619294	96.21927025029437
76	23	2159	Thaketa Awine	သာကေတအဝိုင်း	Ayar Wun Main Road	ဧရာဝဏ်လမ်းမကြီး	Thaketa	သာကေတ	16.806456548186517	96.21683321194723
76	24	530	Shit Gate	(၈) ဂိတ်	Ayar Wun Main Road	ဧရာဝဏ်လမ်းမကြီး	Thaketa	သာကေတ	16.804948553065124	96.21374232228845
76	25	526	Myayni	မြေနီ	Ayar Wun Main Road	ဧရာဝဏ်လမ်းမကြီး	Thaketa	သာကေတ	16.803656271446375	96.21009707450868
76	26	522	Kyaung Kwae	ကျောင်းကွေ့	Myintawthar Road	မြင်တော်သာလမ်း	Thaketa	သာကေတ	16.803614185536972	96.2065722118132
76	27	524	Kyaung Kwae/ Htuu Par Yone	ကျောင်းကွေ့/ထူပါရုံ	Ayar Wun Main Road	ဧရာဝဏ်လမ်းမကြီး	Thaketa	သာကေတ	16.803809991254493	96.20589055353776
76	28	398	Anawmar	အနော်မာ	Ayar Wun Main Road	ဧရာဝဏ်လမ်းမကြီး	Thaketa	သာကေတ	16.803925877813356	96.20191101450476
76	29	404	Kyauk Taing	ကျောက်တိုင်	Ayar Wun Main Road	ဧရာဝဏ်လမ်းမကြီး	Thaketa	သာကေတ	16.804257850186374	96.19623910635711
76	30	406	Kyauk Taing	ကျောက်တိုင်	Min Nandar Road	မင်းနန္ဒာလမ်း	Thaketa	သာကေတ	16.804654	96.195043
76	31	2394	Thuwunna Lan Sone	သုဝဏ္ဏလမ်းဆုံ	Waizayandar Road	ဝေဇယန္တာလမ်း	Thingangyun	သင်္ဃန်းကျွန်း	16.813132865739	96.1919460841455
76	32	569	Thuwunna Lan Sone	သုဝဏ္ဏလမ်းဆုံ	Thanthumar Road	သံသုမာလမ်း	Thingangyun	သင်္ဃန်းကျွန်း	16.814838154709474	96.19087100028993
76	33	359	Kaw Set	ကော်စက်	Thanthumar Road	သံသုမာလမ်း	Thingangyun	သင်္ဃန်းကျွန်း	16.81390294961131	96.18837193585934
76	34	392	Zay Lay	ဈေးလေး	Thanthumar Road	သံသုမာလမ်း	Thingangyun	သင်္ဃန်းကျွန်း	16.80992578411149	96.18358842562886
76	35	372	Arthawka	အာသောက	Thamain Bayan Road	သမိန်ဗရမ်းလမ်း	Tamwe	တာမွေ	16.807330066555078	96.18016288848594
76	36	380	Tamwe Bali	တာမွေဗလီ	Thamain Bayan Road	သမိန်ဗရမ်းလမ်း	Tamwe	တာမွေ	16.809529852271563	96.17703606141733
76	37	383	Tamwe Plaza	တာမွေပလာဇာ	Thamain Bayan Road	သမိန်ဗရမ်းလမ်း	Tamwe	တာမွေ	16.810901	96.175102
76	38	237	Awine Htate/ Tamwe	အဝိုင်းထိပ်/ တာမွေ	West Horse Race Course Road	အနောက်မြင်းပြိုင်လမ်း	Tamwe	တာမွေ	16.811882399727807	96.1710895097349
76	39	350	Mya Lan	မြလမ်း	West Horse Race Course Road	အနောက်မြင်းပြိုင်လမ်း	Bahan	ဗဟန်း	16.815803476666527	96.16824572185578
76	40	347	Lan Sone	လမ်းဆုံ	U Chit Maung Road	ဦးချစ်မောင်လမ်း	Bahan	ဗဟန်း	16.817595	96.16674
76	41	348	Min Lan	မင်းလမ်း	U Chit Maung Road	ဦးချစ်မောင်လမ်း	Bahan	ဗဟန်း	16.819495	96.165249
76	42	354	Zay Kwae	ဈေးကွေ့	U Chit Maung Road	ဦးချစ်မောင်လမ်း	Bahan	ဗဟန်း	16.82250281937509	96.16280280730281
76	43	2385	Baho Bank	ဗဟိုဘဏ်	No. 1 Industrial Road	အမှတ်(၁)စက်မှုဇုန်လမ်း	Yankin	ရန်ကင်း	16.824887	96.160199
76	44	2383	1)	စက်မှု (၁) (Set Hmu	No. 1 Industrial Road	အမှတ်(၁)စက်မှုဇုန်လမ်း	Yankin	ရန်ကင်း	16.825994453613134	96.15880109846331
76	45	327	Set Hmu Tit	စက်မှု (၁)	No. 1 Industrial Road	အမှတ်(၁)စက်မှုဇုန်လမ်း	Yankin	ရန်ကင်း	16.82753579739672	96.15732398349795
76	46	330	Yankin Zay	ရန်ကင်းဈေး	Yanshin Street	ရန်ရှင်းလမ်းသွယ်	Yankin	ရန်ကင်း	16.828822052765155	96.15921364165843
76	47	340	Kyar Hmat Taing	ကြားမှတ်တိုင်	Yankin Road	ရန်ကင်းလမ်း	Yankin	ရန်ကင်း	16.8290172507859	96.16373777389528
76	48	355	Zay Kwae	ဈေးကွေ့	U Chit Maung Road	ဦးချစ်မောင်လမ်း	Bahan	ဗဟန်း	16.822303054572906	96.16266463162903
76	49	349	Min Lan	မင်းလမ်း	U Chit Maung Road	ဦးချစ်မောင်လမ်း	Bahan	ဗဟန်း	16.819669	96.164948
76	50	346	Lan Sone	လမ်းဆုံ	U Chit Maung Road	ဦးချစ်မောင်လမ်း	Bahan	ဗဟန်း	16.81753155492063	96.16652819328012
76	51	351	Mya Lan	မြလမ်း	West Horse Race Course Road	အနောက်မြင်းပြိုင်လမ်း	Bahan	ဗဟန်း	16.816393	96.16748
76	52	236	Awine Htate/ Tamwe	အဝိုင်းထိပ်/ တာမွေ	West Horse Race Course Road	အနောက်မြင်းပြိုင်လမ်း	Tamwe	တာမွေ	16.811851525336696	96.17080198246187
76	53	382	Tamwe Plaza	တာမွေပလာဇာ	Thamain Bayan Road	သမိန်ဗရမ်းလမ်း	Tamwe	တာမွေ	16.81067485889442	96.17535173892976
76	54	381	Tamwe Bali	တာမွေဗလီ	Thamain Bayan Road	သမိန်ဗရမ်းလမ်း	Tamwe	တာမွေ	16.809481208242932	96.17696179775523
76	55	373	Arthawka	အာသောက	Thamain Bayan Road	သမိန်ဗရမ်းလမ်း	Tamwe	တာမွေ	16.80724230568274	96.18010130245239
76	56	391	Zay Lay	ဈေးလေး	Thanthumar Road	သံသုမာလမ်း	Thingangyun	သင်္ဃန်းကျွန်း	16.809825	96.183666
76	57	358	Kaw Set	ကော်စက်	Thanthumar Road	သံသုမာလမ်း	Thingangyun	သင်္ဃန်းကျွန်း	16.81376522496099	96.18829467566685
76	58	2393	Thuwunna Lan Sone	သုဝဏ္ဏလမ်းဆုံ	Waizayandar Road	ဝေဇယန္တာလမ်း	Thingangyun	သင်္ဃန်းကျွန်း	16.8131511194368	96.1917712166905
76	59	403	Kyauk Taing	ကျောက်တိုင်	Ayar Wun Main Road	ဧရာဝဏ်လမ်းမကြီး	Thaketa	သာကေတ	16.804242484265444	96.19614460039885
76	60	397	Anawmar	အနော်မာ	Ayar Wun Main Road	ဧရာဝဏ်လမ်းမကြီး	Thaketa	သာကေတ	16.80387992038607	96.20176776777953
76	61	523	Kyaung Kwae/ Htuu Par Yone	ကျောင်းကွေ့/ထူပါရုံ	Ayar Wun Main Road	ဧရာဝဏ်လမ်းမကြီး	Thaketa	သာကေတ	16.80371470625175	96.20586662320422
76	62	521	Kyaung Kwae	ကျောင်းကွေ့	Myintawthar Road	မြင်တော်သာလမ်း	Thaketa	သာကေတ	16.803613042116037	96.2064541107975
76	63	525	Myayni	မြေနီ	Ayar Wun Main Road	ဧရာဝဏ်လမ်းမကြီး	Thaketa	သာကေတ	16.803537897279856	96.20986435096712
76	64	529	Shit Gate	(၈) ဂိတ်	Ayar Wun Main Road	ဧရာဝဏ်လမ်းမကြီး	Thaketa	သာကေတ	16.804750521874205	96.21352799702437
76	65	553	Thaketa Awine	သာကေတအဝိုင်း	Ayar Wun Main Road	ဧရာဝဏ်လမ်းမကြီး	Thaketa	သာကေတ	16.80611452972553	96.21627231594177
76	66	551	Tayar-Shit Taung	(၁၀၈) တောင်	Thalyin Thada Chin Kat Road	သန်လျှင်တံတားချင့်ကပ်လမ်း	Thaketa	သာကေတ	16.806431	96.218966
76	67	546	Sauk Lote Yae	ဆောက်လုပ်ရေး	Thanlyin Tada Chint Road	သန်လျှင်တံတားချင့်လမ်း	Thaketa	သာကေတ	16.803144078473853	96.22349219396712
76	68	550	Tadar Htate	တံတားထိပ်	Nawarat Pat Road	နဝရတ်ပတ်လမ်း	Thaketa	သာကေတ	16.801254430912103	96.22528231702745
76	69	507	Lat Hmat Gate	လက်မှတ်ဂိတ်	Kyaik Khauk Pagoda Road	ကျိုက်ခေါက်ဘုရားလမ်း	Thanlyin	သန်လျင်	16.77839	96.243879
76	70	1618	Mee Point	်မီးပွိုင့်	Kyaik Khauk Pagoda Road	ကျိုက်ခေါက်ဘုရားလမ်း	Thanlyin	သန်လျင်	16.778739	96.247226
76	71	1800	Aung Thukha	အောင်သုခ	Bogyoke Nay Win Road	ဗိုလ်ချုပ်နေဝင်းလမ်း	Thanlyin	သန်လျင်	16.778113	96.247347
76	72	1802	Yay Nan Gate	ရေနံဂိတ်	Bogyoke Nay Win Road	ဗိုလ်ချုပ်နေဝင်းလမ်း	Thanlyin	သန်လျင်	16.773066381424545	96.24667687341571
76	73	1804	Dar Gude	ဒါကုရ်	Bogyoke Nay Win Road	ဗိုလ်ချုပ်နေဝင်းလမ်း	Thanlyin	သန်လျင်	16.770742	96.246504
76	74	1806	Myoma	မြို့မ	Bogyoke Nay Win Road	ဗိုလ်ချုပ်နေဝင်းလမ်း	Thanlyin	သန်လျင်	16.768025	96.246483
76	75	1809	Myoma Zay	ဲမြို့မဈေး	Bogyoke Nay Win Road	ဗိုလ်ချုပ်နေဝင်းလမ်း	Thanlyin	သန်လျင်	16.763616840580703	96.2460969714448
76	76	1621	Phoe Myay	ဖိုးမြေ	Bogyoke Road	ဗိုလ်ချုပ်လမ်း	Thanlyin	သန်လျင်	16.76179	96.246359
76	77	1623	Yone Shae	ရုံးရှေ့	Bogyoke Road	ဗိုလ်ချုပ်လမ်း	Thanlyin	သန်လျင်	16.760886	96.248676
76	78	1625	Out Kwae	အောက်ကွေ့	Bogyoke Road	ဗိုလ်ချုပ်လမ်း	Thanlyin	သန်လျင်	16.760886	96.250929
76	79	1627	A Paw Kwae	အပေါ်ကွေ့	Bogyoke Road	ဗိုလ်ချုပ်လမ်း	Thanlyin	သန်လျင်	16.760208	96.252088
76	80	1811	Kyar Paya	ကျားဘုရား	Kyaik Khauk Pagoda Road	ကျိုက်ခေါက်ဘုရားလမ်း	Thanlyin	သန်လျင်	16.757735198524692	96.25641010701658
76	81	541	Thama College	သမကောလိပ်	Thanlyin	သံလျင်	Thanlyin	သန်လျင်	16.75506077459433	96.25814553815873
76	82	1813	Sal Myaung	ဆည်မြောင်း	Kyaik Khauk Pagoda Road	ကျိုက်ခေါက်ဘုရားလမ်း	Thanlyin	သန်လျင်	16.75087108658183	96.2610245961696
76	83	1629	Aung Chan Thar	အောင်ချမ်းသာ	Kyaik Khauk Pagoda Road	ကျိုက်ခေါက်ဘုရားလမ်း	Thanlyin	သန်လျင်	16.745436727103243	96.2650060420856
76	84	1631	Sae-Shit Kone	(၁၈) ကုန်း	Kyaik Khauk Pagoda Road	ကျိုက်ခေါက်ဘုရားလမ်း	Thanlyin	သန်လျင်	16.739825	96.26804
76	85	1633	Paya Shae	ဘုရားရှေ့	Kyaik Khauk Pagoda Road	ကျိုက်ခေါက်ဘုရားလမ်း	Thanlyin	သန်လျင်	16.730598	96.272482
76	86	1824	Paya Kone Lan Sone	ဘုရားကုန်းလမ်းဆုံ	Thanlyin-Kyauktan Road	သန်လျှင်-ကျောက်တန်းလမ်း	Thanlyin	သန်လျင်	16.72867187909715	96.2735345028341
76	87	1637	Nyaung Pin	ညောင်ပင်	No. 6 Main Road	အမှတ်(၆)လမ်းမ	Thanlyin	သန်လျင်	16.729817	96.279691
76	88	1639	Kunn Yar Saing	ကွမ်းယာဆိုင်	No. 6 Main Road	အမှတ်(၆)လမ်းမ	Thanlyin	သန်လျင်	16.731071	96.283168
76	89	1642	A Shae Paing Takke Tho	အရှေ.ပိုင်းတက္ကသိုလ်	No. 6 Main Road	အမှတ်(၆)လမ်းမ	Thanlyin	သန်လျင်	16.732855995057225	96.28682824317367
