svc_name	sequence	stop_id	name_en	name_mm	road_en	road_mm	township_en	township_mm	lat	lng
42	1	1586	Auk Gate	အောက်ဂိတ်	Hlawga Road	လှော်ကားလမ်း	Shwe Pyithar	ရွှေပြည်သာ	17.001290988514025	96.0665893368423
42	2	1590	Aung Myittar	အောင်မေတ္တာ	Mahabandoola Road	မဟာဗန္ဓုလလမ်း	Shwe Pyithar	ရွှေပြည်သာ	16.99060753424807	96.07068402227014
42	3	1589	Aung Chan Thar	အောင်ချမ်းသာ	Mahabandoola Road	မဟာဗန္ဓုလလမ်း	Shwe Pyithar	ရွှေပြည်သာ	16.988991570659145	96.0711809853092
42	4	1592	Nyein Chan Yae	ငြိမ်းချမ်းရေး	Mahabandoola Road	မဟာဗန္ဓုလလမ်း	Shwe Pyithar	ရွှေပြည်သာ	16.986572609309896	96.07183397747578
42	5	1572	Na-gyi Kwae	(ဏ) ကွေ့	Mahar Myaing Road	မဟာမြိုင်လမ်း	Shwe Pyithar	ရွှေပြည်သာ	16.982994531834905	96.07127115363255
42	6	1574	Yone Shae	ရုံးရှေ့	Mahar Myaing Road	မဟာမြိုင်လမ်း	Shwe Pyithar	ရွှေပြည်သာ	16.982581407192182	96.07241920195521
42	7	1570	Koe Thone Lone	ကိုးသုံးလုံး	Mahar Myaing Road	မဟာမြိုင်လမ်း	Shwe Pyithar	ရွှေပြည်သာ	16.98212	96.074427
42	8	1580	Sin Hnat Kaung	ဆင်နှစ်ကောင်	Mahar Myaing Road	မဟာမြိုင်လမ်း	Shwe Pyithar	ရွှေပြည်သာ	16.981726496424493	96.07598591130228
42	9	1582	Thone Htate	(၃) ထိပ်	Bayint Naung Road	ဘုရင့်နောင်လမ်း	Shwe Pyithar	ရွှေပြည်သာ	16.98139269177223	96.07731699943542
42	10	1579	Nga Mauk Zay	ငမောက်ဈေး	Bayint Naung Road	ဘုရင့်နောင်လမ်း	Shwe Pyithar	ရွှေပြည်သာ	16.97968610220012	96.0768779134378
42	11	1585	Yae Chan Sin	ရေချမ်းစင်	Bayint Naung Road	ဘုရင့်နောင်လမ်း	Shwe Pyithar	ရွှေပြည်သာ	16.97666805772777	96.07608075253667
42	12	85	Nawarat	နဝရတ်	Bayint Naung Road	ဘုရင့်နောင်လမ်း	Shwe Pyithar	ရွှေပြည်သာ	16.972579801702338	96.07597602065654
42	13	1577	Kyaw Swar	ကျော်စွာ	Bayint Naung Road	ဘုရင့်နောင်လမ်း	Shwe Pyithar	ရွှေပြည်သာ	16.969006	96.076959
42	14	1567	Taw Win	တော်ဝင်	Bayint Naung Road	ဘုရင့်နောင်လမ်း	Shwe Pyithar	ရွှေပြည်သာ	16.965999	96.078163
42	15	1564	Shwe Nyar Maung	ရွှေညာမောင်	Bayint Naung Road	ဘုရင့်နောင်လမ်း	Shwe Pyithar	ရွှေပြည်သာ	16.963536	96.078356
42	16	1557	Kar Gyi Gate	ကားကြီးဂိတ်	Bayint Naung Road	ဘုရင့်နောင်လမ်း	Shwe Pyithar	ရွှေပြည်သာ	16.961626494048822	96.0777669819072
42	17	1563	Say Khan	ဆေးခန်း	Bayint Naung Road	ဘုရင့်နောင်လမ်း	Shwe Pyithar	ရွှေပြည်သာ	16.95859292618001	96.07674677856266
42	18	83	Htan Chauk Pin	ထန်းခြောက်ပင်	Bogyoke Aung San Road	ဗိုလ်ချုပ်အောင်ဆန်းလမ်း	Shwe Pyithar	ရွှေပြည်သာ	16.956804	96.076328
42	19	1558	Kar Lay Gate	ကားလေးဂိတ်	Bogyoke Aung San Road	ဗိုလ်ချုပ်အောင်ဆန်းလမ်း	Shwe Pyithar	ရွှေပြည်သာ	16.956271	96.080888
42	20	1560	Khaung Thone Lone	ခေါင်သုံးလုံး	Bogyoke Aung San Road	ဗိုလ်ချုပ်အောင်ဆန်းလမ်း	Shwe Pyithar	ရွှေပြည်သာ	16.957061	96.084074
42	21	1568	Than Lan	သံလမ်း	Bogyoke Aung San Road	ဗိုလ်ချုပ်အောင်ဆန်းလမ်း	Shwe Pyithar	ရွှေပြည်သာ	16.95783	96.087239
42	22	1523	Yae Sin	ရေစင်	Bogyoke Aung San Road	ဗိုလ်ချုပ်အောင်ဆန်းလမ်း	Shwe Pyithar	ရွှေပြည်သာ	16.95977	96.091937
42	23	2358	Shwe Pyi Thar Kwae	ရွှေပြည်သာကွေ့	Bogyoke Aung San Road	ဗိုလ်ချုပ်အောင်ဆန်းလမ်း	Shwe Pyithar	ရွှေပြည်သာ	16.961032251324756	96.09628807520495
42	24	1518	Sit Tat	စစ်တပ်	No. 4 Main Road	အမှတ်(၄)လမ်းမ	Shwe Pyithar	ရွှေပြည်သာ	16.958026253880583	96.09734735917301
42	25	1509	Kyaung Lan	ကျောင်းလမ်း	No. 4 Main Road	အမှတ်(၄)လမ်းမ	Shwe Pyithar	ရွှေပြည်သာ	16.951929487848194	96.0998342279345
42	26	1506	Kan Tharyar	ကန်သာယာ	No. 4 Main Road	အမှတ်(၄)လမ်းမ	Shwe Pyithar	ရွှေပြည်သာ	16.950086889460792	96.10064140520991
42	27	1511	Myin Hlae Gate	မြင်းလှည်းဂိတ်	No. 4 Main Road	အမှတ်(၄)လမ်းမ	Shwe Pyithar	ရွှေပြည်သာ	16.944725	96.102603
42	28	1513	Phone Gyi Kyaung	ဘုန်းကြီးကျောင်း	No. 4 Main Road	အမှတ်(၄)လမ်းမ	Shwe Pyithar	ရွှေပြည်သာ	16.942929	96.102614
42	29	1515	Sauk Lote Yae	ဆောက်လုပ်ရေး	No. 4 Main Road	အမှတ်(၄)လမ်းမ	Shwe Pyithar	ရွှေပြည်သာ	16.94143	96.102625
42	30	74	Danyin Gone Lan Sone	ဒညင်းကုန်းလမ်းဆုံ	Khayae Pin Road	ခရေပင်လမ်း	Insein	အင်းစိန်	16.933879176036193	96.10325703735728
42	31	1392	Yae Set	ရေစက်	Khayae Pin Road	ခရေပင်လမ်း	Insein	အင်းစိန်	16.932607985925838	96.10705590806903
42	32	1385	Asar Set	အစာစက်	Khayae Pin Road	ခရေပင်လမ်း	Insein	အင်းစိန်	16.932314066450406	96.11202289815995
42	33	1387	Chauk Lay Chauk	၆၄၆	Khayae Pin Road	ခရေပင်လမ်း	Mingalardon	မင်္ဂလာဒုံ	16.930992	96.114231
42	34	1389	Pan Chan	ပန်းခြံ	Khayae Pin Road	ခရေပင်လမ်း	Mingalardon	မင်္ဂလာဒုံ	16.929905	96.116613
42	35	48	Tayar-Chauk	၁၀၆	Khayae Pin Road	ခရေပင်လမ်း	Mingalardon	မင်္ဂလာဒုံ	16.928213579292933	96.12062063533813
42	36	1396	Khayae Pin Lan Khawe	ခရေပင်လမ်းခွဲ	Khayae Pin Road	ခရေပင်လမ်း	Mingalardon	မင်္ဂလာဒုံ	16.928300462082344	96.13208529772238
42	37	1403	Yar Thet Pan	ရာသက်ပန်	Khayae Pin Road	ခရေပင်လမ်း	Mingalardon	မင်္ဂလာဒုံ	16.930114386749644	96.13701406633484
42	38	1401	Thone Yarthi	သုံးရာသီ	Khayae Pin Road	ခရေပင်လမ်း	Mingalardon	မင်္ဂလာဒုံ	16.931647203114764	96.1412768927403
42	39	1417	Ah-Hmat-Thone Lan Sone	အမှတ် (၃) လမ်းဆုံ	No. 3 Main Road	အမှတ်(၃)လမ်းမ	Mingalardon	မင်္ဂလာဒုံ	16.935503234610785	96.1530465516262
42	40	814	Tat Htate	တပ်ထိပ်	Thudhamar Road	သုဓမ္မာလမ်း	North Okkalapa	မြောက်ဥက္ကလာပ	16.9295660314581	96.1546517489478
42	41	812	Aung Mingalar A Way Pyay	အောင်မင်္ဂလာအဝေးပြေး	Thudhamar Road	သုဓမ္မာလမ်း	North Okkalapa	မြောက်ဥက္ကလာပ	16.926507148276386	96.15607757354157
42	42	809	Dhamar Yon	ဓမ္မာရုံ	Thudhamar Road	သုဓမ္မာလမ်း	North Okkalapa	မြောက်ဥက္ကလာပ	16.924183749482854	96.1578971380368
42	43	819	Chauk Kwae	(၆) ကွေ့	Thudhamar Road	သုဓမ္မာလမ်း	North Okkalapa	မြောက်ဥက္ကလာပ	16.918460340415336	96.16298958426344
42	44	850	Kan Tharyar	ကန်သာယာ	Thudhamar Road	သုဓမ္မာလမ်း	North Okkalapa	မြောက်ဥက္ကလာပ	16.913219783941475	96.16519050439821
42	45	858	Ou Zanar	ဥဇ္ဇနာ	Thudhamar Road	သုဓမ္မာလမ်း	North Okkalapa	မြောက်ဥက္ကလာပ	16.910967	96.165856
42	46	843	Eindar	က္ကန္ဒာ	Thudhamar Road	သုဓမ္မာလမ်း	North Okkalapa	မြောက်ဥက္ကလာပ	16.90722	96.166135
42	47	864	Thu Nandar	သုနန္ဒာ	Thudhamar Road	သုဓမ္မာလမ်း	North Okkalapa	မြောက်ဥက္ကလာပ	16.903951	96.165427
42	48	866	Waziyar	ဝဇီယာ	Thudhamar Road	သုဓမ္မာလမ်း	North Okkalapa	မြောက်ဥက္ကလာပ	16.901323	96.164128
42	49	862	Thandar	သန္တာ	Thudhamar Road	သုဓမ္မာလမ်း	North Okkalapa	မြောက်ဥက္ကလာပ	16.89905760980185	96.16216262569652
42	50	883	Ga-gyi Zay	(ဃ) ဈေး	Thudhamar Road	သုဓမ္မာလမ်း	North Okkalapa	မြောက်ဥက္ကလာပ	16.89677	96.159541
42	51	888	Myauk Okkalar Awine	မြောက်ဥက္ကလာအဝိုင်း	Thudhamar Road	သုဓမ္မာလမ်း	North Okkalapa	မြောက်ဥက္ကလာပ	16.892733405297037	96.15468894364314
42	52	886	Kyauk Yae Twin	ကျောက်ရေတွင်း	Thudhamar Road	သုဓမ္မာလမ်း	North Okkalapa	မြောက်ဥက္ကလာပ	16.889507722313613	96.15371194900948
42	53	890	Phone Gyi Lan	ဘုန်းကြီးလမ်း	Thudhamar Road	သုဓမ္မာလမ်း	North Okkalapa	မြောက်ဥက္ကလာပ	16.882091345698665	96.15521738072859
42	54	1276	Kyaung Kwae	ကျောင်းကွေ့	Phone Gyi Road	ဘုန်းကြီးလမ်း	North Okkalapa	မြောက်ဥက္ကလာပ	16.881386	96.158051
42	55	1272	Hnit Zay	(၂) ဈေး	Thuzitar Road	သုဇိတာလမ်း	North Okkalapa	မြောက်ဥက္ကလာပ	16.879066	96.158233
42	56	1279	Kyaung Lan	ကျောင်းလမ်း	Thuzitar Street	သုဇိတာလမ်းသွယ်	North Okkalapa	မြောက်ဥက္ကလာပ	16.876689	96.158391
42	57	1283	Oak Pon Seik	အုတ်ပုံဆိပ်	Thanthumar Road	သံသုမာလမ်း	North Okkalapa	မြောက်ဥက္ကလာပ	16.873691	96.159359
42	58	1287	Lay-Thone-Ngar Hmat Taing	(၄၃၅) မှတ်တိုင်	Thanthumar Road	သံသုမာလမ်း	North Okkalapa	မြောက်ဥက္ကလာပ	16.870354	96.161612
42	59	1289	Lay-Thone-Chauk Hmat Taing	(၄၃၆) မှတ်တိုင်	Thanthumar Road	သံသုမာလမ်း	North Okkalapa	မြောက်ဥက္ကလာပ	16.866730096088645	96.16781502496453
42	60	2124	Bay Li	ဘေလီ	Thanthumar Road	သံသုမာလမ်း	South Okkalapa	တောင်ဥက္ကလာပ	16.859959	96.178682
42	61	1078	Myin Thar Zay	မြင်သာဈေး	Thanthumar Road	သံသုမာလမ်း	South Okkalapa	တောင်ဥက္ကလာပ	16.85676082108605	96.18179788347335
42	62	1082	Taung Okkalar Paya	တောင်ဥက္ကလာပဘုရား	Thanthumar Road	သံသုမာလမ်း	South Okkalapa	တောင်ဥက္ကလာပ	16.852719277159586	96.18528316263111
42	63	1086	Moe Swe	မိုးစွေ	Thanthumar Road	သံသုမာလမ်း	South Okkalapa	တောင်ဥက္ကလာပ	16.850043765153913	96.18949697585776
42	64	2126	Thone-sae-tit Gate/ Tit Gate	(၃၁) ဂိတ်/(၁) ဂိတ်	Thanthumar Road	သံသုမာလမ်း	South Okkalapa	တောင်ဥက္ကလာပ	16.84888036518613	96.1940199136734
42	65	1089	Se Man Kane	စီမံကိန်း	Thanthumar Road	သံသုမာလမ်း	South Okkalapa	တောင်ဥက္ကလာပ	16.84743423762148	96.19840957922862
42	66	614	Lai Sin Yone	လိုင်စင်ရုံး	Thanthumar Road	သံသုမာလမ်း	Thingangyun	သင်္ဃန်းကျွန်း	16.845867625393243	96.20077338069677
42	67	633	Sanpya Zay/ Nga Moe Yeik	စံပြဈေး/ ငမိုးရိပ်	Thanthumar Road	သံသုမာလမ်း	Thingangyun	သင်္ဃန်းကျွန်း	16.8433089218738	96.20381052140148
42	68	630	Sanpya Zay Kwae	စံပြဈေးကွေ့	Thanthumar Road	သံသုမာလမ်း	Thingangyun	သင်္ဃန်းကျွန်း	16.83949687481868	96.20740019716325
42	69	626	Chan Aye/ Thwar Say	ချမ်းအေးသွားဆေး	Thanthumar Road	သံသုမာလမ်း	Thingangyun	သင်္ဃန်းကျွန်း	16.832865	96.20798
42	70	637	Waibula	ဝေဘူလ	Thanthumar Road	သံသုမာလမ်း	Thingangyun	သင်္ဃန်းကျွန်း	16.830512077460014	96.20798843912782
42	71	577	Aung Zay Ya	အောင်ဇေယျ	Kamarkyi Road	ကမာကြည်လမ်း	Thingangyun	သင်္ဃန်းကျွန်း	16.825081	96.209117
42	72	580	Bayint Naung	ဘုရင့်နောင်	Kamarkyi Road	ကမာကြည်လမ်း	Thingangyun	သင်္ဃန်းကျွန်း	16.822580183134985	96.21189562138171
42	73	587	Nyaung Pin	ညောင်ပင်	Kamarkyi Road	ကမာကြည်လမ်း	Thingangyun	သင်္ဃန်းကျွန်း	16.820932	96.213044
42	74	2163	Sagar Wah	စကားဝါ	Kamarkyi Road	ကမာကြည်လမ်း	Thingangyun	သင်္ဃန်းကျွန်း	16.819443	96.214001
42	75	2165	Sat Yon Shae	စက်ရုံရှေ့	Kamarkyi Road	ကမာကြည်လမ်း	Thingangyun	သင်္ဃန်းကျွန်း	16.817646	96.214762
42	76	539	Awine	အဝိုင်း	Shukinthar Road	ရှူ့ခင်းသာလမ်း	Thaketa	သာကေတ	16.80827599579392	96.21778252534571
42	77	551	Tayar-Shit Taung	(၁၀၈) တောင်	Thalyin Thada Chin Kat Road	သန်လျှင်တံတားချင့်ကပ်လမ်း	Thaketa	သာကေတ	16.806431	96.218966
42	78	546	Sauk Lote Yae	ဆောက်လုပ်ရေး	Thanlyin Tada Chint Road	သန်လျှင်တံတားချင့်လမ်း	Thaketa	သာကေတ	16.803144078473853	96.22349219396712
42	79	545	Sauk Lote Yae	ဆောက်လုပ်ရေး	Thanlyin Tada Chint Road	သန်လျှင်တံတားချင့်လမ်း	Thaketa	သာကေတ	16.80307737874286	96.2232931656763
42	80	550	Tadar Htate	တံတားထိပ်	Nawarat Pat Road	နဝရတ်ပတ်လမ်း	Thaketa	သာကေတ	16.801254430912103	96.22528231702745
42	81	544	Sauk Lote Yae	ဆောက်လုပ်ရေး	Shukinthar Myo Pat Road	ရှူ့ခင်းသာမြို့ပတ်လမ်း	Thaketa	သာကေတ	16.799351424322637	96.22425188776107
42	82	546	Sauk Lote Yae	ဆောက်လုပ်ရေး	Thanlyin Tada Chint Road	သန်လျှင်တံတားချင့်လမ်း	Thaketa	သာကေတ	16.803144078473853	96.22349219396712
42	83	552	Tayar-Shit Taung	(၁၀၈) တောင်	Thalyin Thada Chin Kat Road	သန်လျှင်တံတားချင့်ကပ်လမ်း	Thaketa	သာကေတ	16.80646595619294	96.21927025029437
42	84	2158	Awine	အဝိုင်း	Shukinthar Road	ရှူ့ခင်းသာလမ်း	Thaketa	သာကေတ	16.807905	96.21795
42	85	2164	Sat Yon Shae	စက်ရုံရှေ့	Kamarkyi Road	ကမာကြည်လမ်း	Thingangyun	သင်္ဃန်းကျွန်း	16.817656	96.214966
42	86	2162	Sagar Wah	စကားဝါ	Kamarkyi Road	ကမာကြည်လမ်း	Thingangyun	သင်္ဃန်းကျွန်း	16.819464	96.214172
42	87	586	Nyaung Pin	ညောင်ပင်	Kamarkyi Road	ကမာကြည်လမ်း	Thingangyun	သင်္ဃန်းကျွန်း	16.820809	96.213452
42	88	579	Bayint Naung	ဘုရင့်နောင်	Kamarkyi Road	ကမာကြည်လမ်း	Thingangyun	သင်္ဃန်းကျွန်း	16.822304545762762	96.2122975755483
42	89	578	Aung Zay Ya	အောင်ဇေယျ	Kamarkyi Road	ကမာကြည်လမ်း	Thingangyun	သင်္ဃန်းကျွန်း	16.825018017974298	96.20953163132073
42	90	636	Waibula	ဝေဘူလ	Thanthumar Road	သံသုမာလမ်း	Thingangyun	သင်္ဃန်းကျွန်း	16.8301749562444	96.2080962304026
42	91	627	Chan Aye/ Thwar Say	ချမ်းအေးသွားဆေး	Thanthumar Road	သံသုမာလမ်း	Thingangyun	သင်္ဃန်းကျွန်း	16.833007132875704	96.20810620486738
42	92	631	Sanpya Zay Kwae	စံပြဈေးကွေ့	Thanthumar Road	သံသုမာလမ်း	Thingangyun	သင်္ဃန်းကျွန်း	16.838397750744317	96.20758237782866
42	93	632	Sanpya Zay/ Nga Moe Yeik	စံပြဈေး/ ငမိုးရိပ်	Thanthumar Road	သံသုမာလမ်း	Thingangyun	သင်္ဃန်းကျွန်း	16.843207619927515	96.2040531774983
42	94	613	Lai Sin Yone	လိုင်စင်ရုံး	Thanthumar Road	သံသုမာလမ်း	Thingangyun	သင်္ဃန်းကျွန်း	16.845855511844686	96.20105572510512
42	95	1090	Se Man Kane	စီမံကိန်း	Thanthumar Road	သံသုမာလမ်း	South Okkalapa	တောင်ဥက္ကလာပ	16.84748429583662	96.19847623631361
42	96	1088	Thone-sae-tit Gate/ Tit Gate	(၃၁) ဂိတ်/(၁) ဂိတ်	Thanthumar Road	သံသုမာလမ်း	South Okkalapa	တောင်ဥက္ကလာပ	16.84893896654162	96.19427426252517
42	97	1087	Moe Swe	မိုးစွေ	Thanthumar Road	သံသုမာလမ်း	South Okkalapa	တောင်ဥက္ကလာပ	16.850142356003158	96.18960512336345
42	98	1083	Taung Okkalar Paya	တောင်ဥက္ကလာပဘုရား	Thanthumar Road	သံသုမာလမ်း	South Okkalapa	တောင်ဥက္ကလာပ	16.8528135748857	96.18543030694127
42	99	1079	Myin Thar Zay	မြင်သာဈေး	Thanthumar Road	သံသုမာလမ်း	South Okkalapa	တောင်ဥက္ကလာပ	16.85684434759549	96.1818828759715
42	100	1075	Bay Li	ဘေလီ	Thanthumar Road	သံသုမာလမ်း	South Okkalapa	တောင်ဥက္ကလာပ	16.85981610253591	96.17896331241356
42	101	1288	Lay-Thone-Chauk Hmat Taing	(၄၃၆) မှတ်တိုင်	Thanthumar Road	သံသုမာလမ်း	North Okkalapa	မြောက်ဥက္ကလာပ	16.866689	96.168215
42	102	1286	Lay-Thone-Ngar Hmat Taing	(၄၃၅) မှတ်တိုင်	Thanthumar Road	သံသုမာလမ်း	North Okkalapa	မြောက်ဥက္ကလာပ	16.870478	96.16174
42	103	1282	Oak Pon Seik	အုတ်ပုံဆိပ်	Thanthumar Road	သံသုမာလမ်း	North Okkalapa	မြောက်ဥက္ကလာပ	16.87365	96.159584
42	104	1278	Kyaung Lan	ကျောင်းလမ်း	Thuzitar Street	သုဇိတာလမ်းသွယ်	North Okkalapa	မြောက်ဥက္ကလာပ	16.876771	96.15867
42	105	1273	Hnit Zay	(၂) ဈေး	Thuzitar Road	သုဇိတာလမ်း	North Okkalapa	မြောက်ဥက္ကလာပ	16.879179	96.158356
42	106	1277	Kyaung Kwae	ကျောင်းကွေ့	Phone Gyi Road	ဘုန်းကြီးလမ်း	North Okkalapa	မြောက်ဥက္ကလာပ	16.881479	96.158035
42	107	889	Phone Gyi Lan	ဘုန်းကြီးလမ်း	Thudhamar Road	သုဓမ္မာလမ်း	North Okkalapa	မြောက်ဥက္ကလာပ	16.88188224645447	96.15551120834425
42	108	885	Kyauk Yae Twin	ကျောက်ရေတွင်း	Thudhamar Road	သုဓမ္မာလမ်း	North Okkalapa	မြောက်ဥက္ကလာပ	16.88791116167424	96.15428918972613
42	109	887	Myauk Okkalar Awine	မြောက်ဥက္ကလာအဝိုင်း	Thudhamar Road	သုဓမ္မာလမ်း	North Okkalapa	မြောက်ဥက္ကလာပ	16.892739761327437	96.15506128873677
42	110	882	Ga-gyi Zay	(ဃ) ဈေး	Thudhamar Road	သုဓမ္မာလမ်း	North Okkalapa	မြောက်ဥက္ကလာပ	16.896452	96.159434
42	111	861	Thandar	သန္တာ	Thudhamar Road	သုဓမ္မာလမ်း	North Okkalapa	မြောက်ဥက္ကလာပ	16.898928568619148	96.16229091072456
42	112	865	Waziyar	ဝဇီယာ	Thudhamar Road	သုဓမ္မာလမ်း	North Okkalapa	မြောက်ဥက္ကလာပ	16.901507	96.16437
42	113	863	Thu Nandar	သုနန္ဒာ	Thudhamar Road	သုဓမ္မာလမ်း	North Okkalapa	မြောက်ဥက္ကလာပ	16.90436155507222	96.16570844314994
42	114	842	Eindar	က္ကန္ဒာ	Thudhamar Road	သုဓမ္မာလမ်း	North Okkalapa	မြောက်ဥက္ကလာပ	16.906969	96.16621
42	115	857	Ou Zanar	ဥဇ္ဇနာ	Thudhamar Road	သုဓမ္မာလမ်း	North Okkalapa	မြောက်ဥက္ကလာပ	16.910726	96.166001
42	116	849	Kan Tharyar	ကန်သာယာ	Thudhamar Road	သုဓမ္မာလမ်း	North Okkalapa	မြောက်ဥက္ကလာပ	16.9132609232353	96.16537733701992
42	117	818	Chauk Kwae	(၆) ကွေ့	Thudhamar Road	သုဓမ္မာလမ်း	North Okkalapa	မြောက်ဥက္ကလာပ	16.919091	96.162873
42	118	810	Dhamar Yon	ဓမ္မာရုံ	Thudhamar Road	သုဓမ္မာလမ်း	North Okkalapa	မြောက်ဥက္ကလာပ	16.92416237914078	96.15815366618338
42	119	813	Aung Mingalar A Way Pyay	အောင်မင်္ဂလာအဝေးပြေး	Thudhamar Road	သုဓမ္မာလမ်း	North Okkalapa	မြောက်ဥက္ကလာပ	16.926473729963266	96.15626067621635
42	120	815	Tat Htate	တပ်ထိပ်	Thudhamar Road	သုဓမ္မာလမ်း	North Okkalapa	မြောက်ဥက္ကလာပ	16.9300066563304	96.154864858836
42	121	1418	Ah-Hmat-Thone Lan Sone	အမှတ် (၃) လမ်းဆုံ	No. 3 Main Road	အမှတ်(၃)လမ်းမ	Mingalardon	မင်္ဂလာဒုံ	16.935730315771806	96.15226288558917
42	122	1402	Thone Yarthi	သုံးရာသီ	Khayae Pin Road	ခရေပင်လမ်း	Mingalardon	မင်္ဂလာဒုံ	16.931714599198003	96.14123401930556
42	123	1404	Yar Thet Pan	ရာသက်ပန်	Khayae Pin Road	ခရေပင်လမ်း	Mingalardon	မင်္ဂလာဒုံ	16.93015907059915	96.13694009603934
42	124	1395	Khayae Pin Lan Khawe	ခရေပင်လမ်းခွဲ	Khayae Pin Road	ခရေပင်လမ်း	Mingalardon	မင်္ဂလာဒုံ	16.929289728265246	96.12982048653068
42	125	47	Tayar-Chauk	၁၀၆	Khayae Pin Road	ခရေပင်လမ်း	Mingalardon	မင်္ဂလာဒုံ	16.92833311829347	96.12075281795116
42	126	1390	Pan Chan	ပန်းခြံ	Khayae Pin Road	ခရေပင်လမ်း	Mingalardon	မင်္ဂလာဒုံ	16.92991253750098	96.11708393320443
42	127	1388	Chauk Lay Chauk	၆၄၆	Khayae Pin Road	ခရေပင်လမ်း	Mingalardon	မင်္ဂလာဒုံ	16.931012131163108	96.11459247535096
42	128	1386	Asar Set	အစာစက်	Khayae Pin Road	ခရေပင်လမ်း	Insein	အင်းစိန်	16.932263830269875	96.11216939287262
42	129	1391	Yae Set	ရေစက်	Khayae Pin Road	ခရေပင်လမ်း	Insein	အင်းစိန်	16.932785576252602	96.10694704810159
42	130	73	Danyin Gone Lan Sone	ဒညင်းကုန်းလမ်းဆုံ	Khayae Pin Road	ခရေပင်လမ်း	Insein	အင်းစိန်	16.93408765294573	96.10347699945125
42	131	1514	Sauk Lote Yae	ဆောက်လုပ်ရေး	No. 4 Main Road	အမှတ်(၄)လမ်းမ	Shwe Pyithar	ရွှေပြည်သာ	16.941071	96.102753
42	132	1512	Phone Gyi Kyaung	ဘုန်းကြီးကျောင်း	No. 4 Main Road	အမှတ်(၄)လမ်းမ	Shwe Pyithar	ရွှေပြည်သာ	16.942795	96.102796
42	133	1510	Myin Hlae Gate	မြင်းလှည်းဂိတ်	No. 4 Main Road	အမှတ်(၄)လမ်းမ	Shwe Pyithar	ရွှေပြည်သာ	16.94414	96.10285
42	134	1507	Kan Tharyar	ကန်သာယာ	No. 4 Main Road	အမှတ်(၄)လမ်းမ	Shwe Pyithar	ရွှေပြည်သာ	16.950132390389058	96.10075741074981
42	135	1508	Kyaung Lan	ကျောင်းလမ်း	No. 4 Main Road	အမှတ်(၄)လမ်းမ	Shwe Pyithar	ရွှေပြည်သာ	16.95163170997072	96.10013970639558
42	136	1519	Sit Tat	စစ်တပ်	No. 4 Main Road	အမှတ်(၄)လမ်းမ	Shwe Pyithar	ရွှေပြည်သာ	16.958198027604034	96.09759164974095
42	137	2357	Shwe Pyi Thar Kwae	ရွှေပြည်သာကွေ့	Bogyoke Aung San Road	ဗိုလ်ချုပ်အောင်ဆန်းလမ်း	Shwe Pyithar	ရွှေပြည်သာ	16.961113306399586	96.09623822383584
42	138	1522	Yae Sin	ရေစင်	Bogyoke Aung San Road	ဗိုလ်ချုပ်အောင်ဆန်းလမ်း	Shwe Pyithar	ရွှေပြည်သာ	16.959964381522152	96.09211206436159
42	139	1569	Than Lan	သံလမ်း	Bogyoke Aung San Road	ဗိုလ်ချုပ်အောင်ဆန်းလမ်း	Shwe Pyithar	ရွှေပြည်သာ	16.957995	96.087282
42	140	1561	Khaung Thone Lone	ခေါင်သုံးလုံး	Bogyoke Aung San Road	ဗိုလ်ချုပ်အောင်ဆန်းလမ်း	Shwe Pyithar	ရွှေပြည်သာ	16.957204	96.083989
42	141	1559	Kar Lay Gate	ကားလေးဂိတ်	Bogyoke Aung San Road	ဗိုလ်ချုပ်အောင်ဆန်းလမ်း	Shwe Pyithar	ရွှေပြည်သာ	16.956507	96.080984
42	142	84	Htan Chauk Pin	ထန်းခြောက်ပင်	Bogyoke Aung San Road	ဗိုလ်ချုပ်အောင်ဆန်းလမ်း	Shwe Pyithar	ရွှေပြည်သာ	16.956968	96.076414
42	143	1562	Say Khan	ဆေးခန်း	Bayint Naung Road	ဘုရင့်နောင်လမ်း	Shwe Pyithar	ရွှေပြည်သာ	16.95848753712748	96.07683872804047
42	144	1556	Kar Gyi Gate	ကားကြီးဂိတ်	Bayint Naung Road	ဘုရင့်နောင်လမ်း	Shwe Pyithar	ရွှေပြည်သာ	16.961580314433366	96.07787607237698
42	145	1565	Shwe Nyar Maung	ရွှေညာမောင်	Bayint Naung Road	ဘုရင့်နောင်လမ်း	Shwe Pyithar	ရွှေပြည်သာ	16.964019	96.07857
42	146	1566	Taw Win	တော်ဝင်	Bayint Naung Road	ဘုရင့်နောင်လမ်း	Shwe Pyithar	ရွှေပြည်သာ	16.965855	96.07841
42	147	1576	Kyaw Swar	ကျော်စွာ	Bayint Naung Road	ဘုရင့်နောင်လမ်း	Shwe Pyithar	ရွှေပြည်သာ	16.968801553958958	96.07717228587718
42	148	86	Nawarat	နဝရတ်	Bayint Naung Road	ဘုရင့်နောင်လမ်း	Shwe Pyithar	ရွှေပြည်သာ	16.972976513905603	96.07600389048459
42	149	1584	Yae Chan Sin	ရေချမ်းစင်	Bayint Naung Road	ဘုရင့်နောင်လမ်း	Shwe Pyithar	ရွှေပြည်သာ	16.97668276828205	96.07626850716771
42	150	1578	Nga Mauk Zay	ငမောက်ဈေး	Bayint Naung Road	ဘုရင့်နောင်လမ်း	Shwe Pyithar	ရွှေပြည်သာ	16.979461719609002	96.07696847990157
42	151	1583	Thone Htate	(၃) ထိပ်	Bayint Naung Road	ဘုရင့်နောင်လမ်း	Shwe Pyithar	ရွှေပြည်သာ	16.981545364987188	96.07738866470756
42	152	1581	Sin Hnat Kaung	ဆင်နှစ်ကောင်	Mahar Myaing Road	မဟာမြိုင်လမ်း	Shwe Pyithar	ရွှေပြည်သာ	16.981839608288887	96.07606465928258
42	153	1571	Koe Thone Lone	ကိုးသုံးလုံး	Mahar Myaing Road	မဟာမြိုင်လမ်း	Shwe Pyithar	ရွှေပြည်သာ	16.982205898668845	96.07449101982638
42	154	1575	Yone Shae	ရုံးရှေ့	Mahar Myaing Road	မဟာမြိုင်လမ်း	Shwe Pyithar	ရွှေပြည်သာ	16.982644897057696	96.07243236154319
42	155	1573	Na-gyi Kwae	(ဏ) ကွေ့	Mahar Myaing Road	မဟာမြိုင်လမ်း	Shwe Pyithar	ရွှေပြည်သာ	16.983008861115152	96.07115389080718
42	156	1593	Nyein Chan Yae	ငြိမ်းချမ်းရေး	Mahabandoola Road	မဟာဗန္ဓုလလမ်း	Shwe Pyithar	ရွှေပြည်သာ	16.98656992387351	96.07196519616993
42	157	1588	Aung Chan Thar	အောင်ချမ်းသာ	Mahabandoola Road	မဟာဗန္ဓုလလမ်း	Shwe Pyithar	ရွှေပြည်သာ	16.98908231316728	96.07132762670518
42	158	1591	Aung Myittar	အောင်မေတ္တာ	Mahabandoola Road	မဟာဗန္ဓုလလမ်း	Shwe Pyithar	ရွှေပြည်သာ	16.990693586584005	96.07079189736397
42	159	1587	Auk Gate	အောက်ဂိတ်	Hlawga Road	လှော်ကားလမ်း	Shwe Pyithar	ရွှေပြည်သာ	17.00111897368812	96.0666501056403
